{
    "features": [
        {
            "geometry": {
                "coordinates": [
                    -0.18874,
                    51.57321
                ],
                "type": "Point"
            },
            "properties": {
                "balloted": "No",
                "description": "Grade II* listed Arts and Crafts gem  designed by Baillie-Scott",
                "end": null,
                "fully_booked": "Unknown",
                "images": [
                    {
                        "archive_url": "https://raw.githubusercontent.com/infrastructureclub/open-house-london-images/master/images/2026/12542/building_12542_img_1886_f757501d5e7be9196461e58dd16bfba3.jpeg",
                        "title": "Photo of 1 Waterlow Court"
                    },
                    {
                        "archive_url": "https://raw.githubusercontent.com/infrastructureclub/open-house-london-images/master/images/2026/12542/building_12542_img_1883_3e43a41bd20f9e1b9677bbf009e844e0.jpeg",
                        "title": "Photo of 1 Waterlow Court"
                    },
                    {
                        "archive_url": "https://raw.githubusercontent.com/infrastructureclub/open-house-london-images/master/images/2026/12542/building_12542_img_3245_7ffb0ccb645c8036887e74b4428771fa.jpeg",
                        "title": "Photo of 1 Waterlow Court"
                    },
                    {
                        "archive_url": "https://raw.githubusercontent.com/infrastructureclub/open-house-london-images/master/images/2026/12542/building_12542_img_3283_2bf8a7b76a59359ad5b265f1f9140dfe.jpeg",
                        "title": "Photo of 1 Waterlow Court"
                    },
                    {
                        "archive_url": "https://raw.githubusercontent.com/infrastructureclub/open-house-london-images/master/images/2026/12542/building_12542_img_3249_a630a03daa4b0552ed19907a3dee6110.jpeg",
                        "title": "Photo of 1 Waterlow Court"
                    },
                    {
                        "archive_url": "https://raw.githubusercontent.com/infrastructureclub/open-house-london-images/master/images/2026/12542/building_12542_img_0583_d5dccb96d9f32e21c8ef41d317f8b36c.jpeg",
                        "title": "Photo of 1 Waterlow Court"
                    },
                    {
                        "archive_url": "https://raw.githubusercontent.com/infrastructureclub/open-house-london-images/master/images/2026/12542/building_12542_img_0243_bdf255f1f2e6e677b3900832e09fe4fc.jpeg",
                        "title": "Photo of 1 Waterlow Court"
                    },
                    {
                        "archive_url": "https://raw.githubusercontent.com/infrastructureclub/open-house-london-images/master/images/2026/12542/building_12542_img_1720_f060917592d94a823c44bfc1a5456381.jpeg",
                        "title": "Photo of 1 Waterlow Court"
                    },
                    {
                        "archive_url": "https://raw.githubusercontent.com/infrastructureclub/open-house-london-images/master/images/2026/12542/building_12542_img_0241_a9c2ae41aa90b5578fe2d91b8597968e.jpeg",
                        "title": "Photo of 1 Waterlow Court"
                    },
                    {
                        "archive_url": "https://raw.githubusercontent.com/infrastructureclub/open-house-london-images/master/images/2026/12542/building_12542_img_1964_ba4f950085258e7c2597bbb1ea25c357.png",
                        "title": "Photo of 1 Waterlow Court"
                    }
                ],
                "name": "1 Waterlow Court",
                "new_venue_this_year": "No",
                "start": null,
                "ticketed_events": "No",
                "url": "https://programme.openhouse.org.uk/listings/12542"
            },
            "type": "Feature"
        }
    ],
    "type": "FeatureCollection"
}