<?xml version="1.0" encoding="UTF-8"?>
<kml xmlns="http://www.opengis.net/kml/2.2" xmlns:gx="http://www.google.com/kml/ext/2.2">
    <Document id="569">
        <Placemark id="571">
            <name>Devonport Mausoleum</name>
            <Point id="570">
                <coordinates>-0.00617,51.48106,0.0</coordinates>
            </Point>
        </Placemark>
        <Placemark id="573">
            <name>Dorich House Museum</name>
            <Point id="572">
                <coordinates>-0.2630588,51.4333564,0.0</coordinates>
            </Point>
        </Placemark>
        <Placemark id="575">
            <name>Dr Johnson's House</name>
            <Point id="574">
                <coordinates>-0.1081791,51.5150637,0.0</coordinates>
            </Point>
        </Placemark>
        <Placemark id="577">
            <name>Drapers' Hall</name>
            <Point id="576">
                <coordinates>-0.08637,51.51523,0.0</coordinates>
            </Point>
        </Placemark>
        <Placemark id="579">
            <name>Eastbury Manor House</name>
            <Point id="578">
                <coordinates>0.0995563,51.5343105,0.0</coordinates>
            </Point>
        </Placemark>
        <Placemark id="581">
            <name>Former Edmonton Girls' Charity School</name>
            <Point id="580">
                <coordinates>-0.0622921,51.6251909,0.0</coordinates>
            </Point>
        </Placemark>
        <Placemark id="583">
            <name>Foster + Partners</name>
            <Point id="582">
                <coordinates>-0.168501,51.48025,0.0</coordinates>
            </Point>
        </Placemark>
        <Placemark id="585">
            <name>Hampstead Friends Meeting House</name>
            <Point id="584">
                <coordinates>-0.1780047,51.559506,0.0</coordinates>
            </Point>
        </Placemark>
        <Placemark id="587">
            <name>Garrick's Temple to Shakespeare</name>
            <Point id="586">
                <coordinates>-0.35449,51.41117,0.0</coordinates>
            </Point>
        </Placemark>
        <Placemark id="589">
            <name>Grove Gardens Chapel</name>
            <Point id="588">
                <coordinates>-0.2896397,51.4550735,0.0</coordinates>
            </Point>
        </Placemark>
        <Placemark id="591">
            <name>Highgate Literary &amp; Scientific Institution</name>
            <Point id="590">
                <coordinates>-0.14855,51.57035,0.0</coordinates>
            </Point>
        </Placemark>
        <Placemark id="593">
            <name>Hogarth's House</name>
            <Point id="592">
                <coordinates>-0.25509,51.48725,0.0</coordinates>
            </Point>
        </Placemark>
        <Placemark id="595">
            <name>Holy Trinity Church Sloane Square</name>
            <Point id="594">
                <coordinates>-0.157482,51.4931409,0.0</coordinates>
            </Point>
        </Placemark>
        <Placemark id="597">
            <name>Emery Walker's House</name>
            <Point id="596">
                <coordinates>-0.24251,51.4898,0.0</coordinates>
            </Point>
        </Placemark>
        <Placemark id="599">
            <name>House Mill</name>
            <Point id="598">
                <coordinates>-0.00773,51.52741,0.0</coordinates>
            </Point>
        </Placemark>
        <Placemark id="601">
            <name>Keats House</name>
            <Point id="600">
                <coordinates>-0.1679444,51.55557599999999,0.0</coordinates>
            </Point>
        </Placemark>
        <Placemark id="603">
            <name>Kenwood</name>
            <Point id="602">
                <coordinates>-0.1675998,51.5713284,0.0</coordinates>
            </Point>
        </Placemark>
        <Placemark id="605">
            <name>Kilmorey Mausoleum</name>
            <Point id="604">
                <coordinates>-0.3228409,51.46110789999999,0.0</coordinates>
            </Point>
        </Placemark>
        <Placemark id="607">
            <name>Old Royal Naval College - King William Court</name>
            <Point id="606">
                <coordinates>-0.00606,51.48257,0.0</coordinates>
            </Point>
        </Placemark>
        <Placemark id="609">
            <name>King's College London, The Maughan Library</name>
            <Point id="608">
                <coordinates>-0.11128,51.51507,0.0</coordinates>
            </Point>
        </Placemark>
        <Placemark id="611">
            <name>Kingswood House</name>
            <Point id="610">
                <coordinates>-0.08073,51.43006,0.0</coordinates>
            </Point>
        </Placemark>
        <Placemark id="613">
            <name>Walthamstow Pumphouse Museum</name>
            <Point id="612">
                <coordinates>-0.03476,51.57672,0.0</coordinates>
            </Point>
        </Placemark>
        <Placemark id="615">
            <name>Manor House Gardens Ice House</name>
            <Point id="614">
                <coordinates>0.0046996,51.45633429999999,0.0</coordinates>
            </Point>
        </Placemark>
        <Placemark id="617">
            <name>Mansion House</name>
            <Point id="616">
                <coordinates>-0.0900498,51.5128676,0.0</coordinates>
            </Point>
        </Placemark>
        <Placemark id="619">
            <name>Markfield Beam Engine and House</name>
            <Point id="618">
                <coordinates>-0.06145199999999999,51.5818841,0.0</coordinates>
            </Point>
        </Placemark>
        <Placemark id="621">
            <name>Nunhead Cemetery</name>
            <Point id="620">
                <coordinates>-0.05311,51.4643,0.0</coordinates>
            </Point>
        </Placemark>
        <Placemark id="623">
            <name>Pullman Court</name>
            <Point id="622">
                <coordinates>-0.12478,51.44156,0.0</coordinates>
            </Point>
        </Placemark>
        <Placemark id="625">
            <name>Old Royal Naval College</name>
            <Point id="624">
                <coordinates>-0.00847,51.48268,0.0</coordinates>
            </Point>
        </Placemark>
        <Placemark id="627">
            <name>Old Royal Naval College - Queen Anne Court</name>
            <Point id="626">
                <coordinates>-0.00524,51.48387,0.0</coordinates>
            </Point>
        </Placemark>
        <Placemark id="629">
            <name>Old Royal Naval College - Queen Mary Court</name>
            <Point id="628">
                <coordinates>-0.00403,51.48283,0.0</coordinates>
            </Point>
        </Placemark>
        <Placemark id="631">
            <name>Reform Club</name>
            <Point id="630">
                <coordinates>-0.13349,51.50658,0.0</coordinates>
            </Point>
        </Placemark>
        <Placemark id="633">
            <name>Rio Cinema</name>
            <Point id="632">
                <coordinates>-0.07556,51.54969,0.0</coordinates>
            </Point>
        </Placemark>
        <Placemark id="635">
            <name>College of Optometrists</name>
            <Point id="634">
                <coordinates>-0.1253933,51.50790869999999,0.0</coordinates>
            </Point>
        </Placemark>
        <Placemark id="637">
            <name>Royal College of General Practitioners</name>
            <Point id="636">
                <coordinates>-0.1340191,51.5265851,0.0</coordinates>
            </Point>
        </Placemark>
        <Placemark id="639">
            <name>Royal Hospital Chelsea, Home of the Chelsea Pensioners</name>
            <Point id="638">
                <coordinates>-0.1603,51.48658,0.0</coordinates>
            </Point>
        </Placemark>
        <Placemark id="641">
            <name>Rudolf Steiner House</name>
            <Point id="640">
                <coordinates>-0.16038,51.525,0.0</coordinates>
            </Point>
        </Placemark>
        <Placemark id="643">
            <name>Walter Segal Self-build Houses</name>
            <Point id="642">
                <coordinates>-0.05033,51.4497,0.0</coordinates>
            </Point>
        </Placemark>
        <Placemark id="645">
            <name>Senate House</name>
            <Point id="644">
                <coordinates>-0.1309,51.52296,0.0</coordinates>
            </Point>
        </Placemark>
        <Placemark id="647">
            <name>St Augustine's Tower</name>
            <Point id="646">
                <coordinates>-0.05499,51.54801,0.0</coordinates>
            </Point>
        </Placemark>
        <Placemark id="649">
            <name>Suleymaniye Mosque</name>
            <Point id="648">
                <coordinates>-0.07669,51.53483,0.0</coordinates>
            </Point>
        </Placemark>
        <Placemark id="651">
            <name>Brixton Windmill</name>
            <Point id="650">
                <coordinates>-0.1235,51.45319,0.0</coordinates>
            </Point>
        </Placemark>
        <Placemark id="653">
            <name>Temple Bar</name>
            <Point id="652">
                <coordinates>-0.09844,51.51508,0.0</coordinates>
            </Point>
        </Placemark>
        <Placemark id="655">
            <name>The Temple Church</name>
            <Point id="654">
                <coordinates>-0.10794,51.51422,0.0</coordinates>
            </Point>
        </Placemark>
        <Placemark id="657">
            <name>The Great Barn, Harmondsworth</name>
            <Point id="656">
                <coordinates>-0.47975,51.48961,0.0</coordinates>
            </Point>
        </Placemark>
        <Placemark id="659">
            <name>Argentine Ambassador's Residence</name>
            <Point id="658">
                <coordinates>-0.1531897,51.50055039999999,0.0</coordinates>
            </Point>
        </Placemark>
        <Placemark id="661">
            <name>The Ismaili Centre</name>
            <Point id="660">
                <coordinates>-0.17323,51.49564,0.0</coordinates>
            </Point>
        </Placemark>
        <Placemark id="663">
            <name>The Stanley Picker Trust, Picker House</name>
            <Point id="662">
                <coordinates>-0.26898,51.42213,0.0</coordinates>
            </Point>
        </Placemark>
        <Placemark id="665">
            <name>The Temple Wanstead Park</name>
            <Point id="664">
                <coordinates>0.04222,51.56781,0.0</coordinates>
            </Point>
        </Placemark>
        <Placemark id="667">
            <name>Tooting Bec Lido</name>
            <Point id="666">
                <coordinates>-0.13911,51.43182,0.0</coordinates>
            </Point>
        </Placemark>
        <Placemark id="669">
            <name>Trellick Tower</name>
            <Point id="668">
                <coordinates>-0.20534,51.5237,0.0</coordinates>
            </Point>
        </Placemark>
        <Placemark id="671">
            <name>Trinity Buoy Wharf/Container City</name>
            <Point id="670">
                <coordinates>0.00894,51.50862,0.0</coordinates>
            </Point>
        </Placemark>
        <Placemark id="673">
            <name>Benjamin Franklin House</name>
            <Point id="672">
                <coordinates>-0.1248869,51.5076423,0.0</coordinates>
            </Point>
        </Placemark>
        <Placemark id="675">
            <name>Wimbledon Windmill Museum</name>
            <Point id="674">
                <coordinates>-0.23263,51.43312,0.0</coordinates>
            </Point>
        </Placemark>
        <Placemark id="677">
            <name>Parish Church of St Andrew, Enfield</name>
            <Point id="676">
                <coordinates>-0.08285,51.65298,0.0</coordinates>
            </Point>
        </Placemark>
        <Placemark id="679">
            <name>St Augustine's Church</name>
            <Point id="678">
                <coordinates>-0.1916647,51.53353509999999,0.0</coordinates>
            </Point>
        </Placemark>
        <Placemark id="681">
            <name>St George's Cathedral</name>
            <Point id="680">
                <coordinates>-0.1088368,51.4982463,0.0</coordinates>
            </Point>
        </Placemark>
        <Placemark id="683">
            <name>St Mary's Church, Battersea</name>
            <Point id="682">
                <coordinates>-0.17138,51.47864,0.0</coordinates>
            </Point>
        </Placemark>
        <Placemark id="685">
            <name>St Paul's, Newington</name>
            <Point id="684">
                <coordinates>-0.10166,51.48463,0.0</coordinates>
            </Point>
        </Placemark>
        <Placemark id="687">
            <name>Tower Hamlets Cemetery Park</name>
            <Point id="686">
                <coordinates>-0.03032,51.52351,0.0</coordinates>
            </Point>
        </Placemark>
        <Placemark id="689">
            <name>Brockwell Hall</name>
            <Point id="688">
                <coordinates>-0.10256,51.45317,0.0</coordinates>
            </Point>
        </Placemark>
        <Placemark id="691">
            <name>Bishops Palace and Park, Bromley (formerly Bromley Civic Centre).</name>
            <Point id="690">
                <coordinates>0.02161,51.40485,0.0</coordinates>
            </Point>
        </Placemark>
        <Placemark id="693">
            <name>Bruce Castle Museum</name>
            <Point id="692">
                <coordinates>-0.0754686,51.59914939999999,0.0</coordinates>
            </Point>
        </Placemark>
        <Placemark id="695">
            <name>10 Downing Street</name>
            <Point id="694">
                <coordinates>-0.1276699,51.503541,0.0</coordinates>
            </Point>
        </Placemark>
        <Placemark id="697">
            <name>Burgh House</name>
            <Point id="696">
                <coordinates>-0.17498,51.55817529999999,0.0</coordinates>
            </Point>
        </Placemark>
        <Placemark id="699">
            <name>The Caledonian Club</name>
            <Point id="698">
                <coordinates>-0.15293,51.50073,0.0</coordinates>
            </Point>
        </Placemark>
        <Placemark id="701">
            <name>Crown Court Church of Scotland</name>
            <Point id="700">
                <coordinates>-0.12106,51.51341,0.0</coordinates>
            </Point>
        </Placemark>
        <Placemark id="703">
            <name>The Tin Tabernacle / Cambridge Hall</name>
            <Point id="702">
                <coordinates>-0.19289,51.5355,0.0</coordinates>
            </Point>
        </Placemark>
        <Placemark id="705">
            <name>Carshalton Water Tower and Historic Gardens</name>
            <Point id="704">
                <coordinates>-0.16684,51.36508,0.0</coordinates>
            </Point>
        </Placemark>
        <Placemark id="707">
            <name>All Saints Carshalton</name>
            <Point id="706">
                <coordinates>-0.16291,51.36488,0.0</coordinates>
            </Point>
        </Placemark>
        <Placemark id="709">
            <name>City Information Centre</name>
            <Point id="708">
                <coordinates>-0.09886,51.5131,0.0</coordinates>
            </Point>
        </Placemark>
        <Placemark id="711">
            <name>Wimbledon Village Club, Museum and Lecture Hall</name>
            <Point id="710">
                <coordinates>-0.21656,51.42321,0.0</coordinates>
            </Point>
        </Placemark>
        <Placemark id="713">
            <name>A Ruskinian Walk Through Shared Heritage</name>
            <Point id="712">
                <coordinates>-0.27587,51.49461,0.0</coordinates>
            </Point>
        </Placemark>
        <Placemark id="715">
            <name>Two Temple Place</name>
            <Point id="714">
                <coordinates>-0.1122401,51.5116279,0.0</coordinates>
            </Point>
        </Placemark>
        <Placemark id="717">
            <name>Burton Mausoleum</name>
            <Point id="716">
                <coordinates>-0.26172,51.46833,0.0</coordinates>
            </Point>
        </Placemark>
        <Placemark id="719">
            <name>St Bernards estate and houses, Croydon</name>
            <Point id="718">
                <coordinates>-0.08769,51.36974,0.0</coordinates>
            </Point>
        </Placemark>
        <Placemark id="721">
            <name>Stanley Arts</name>
            <Point id="720">
                <coordinates>-0.0754022,51.4001227,0.0</coordinates>
            </Point>
        </Placemark>
        <Placemark id="723">
            <name>Parish Church of St Mary The Virgin Lewisham</name>
            <Point id="722">
                <coordinates>-0.01599,51.45567,0.0</coordinates>
            </Point>
        </Placemark>
        <Placemark id="725">
            <name>Fenton House and Garden</name>
            <Point id="724">
                <coordinates>-0.17965,51.55892,0.0</coordinates>
            </Point>
        </Placemark>
        <Placemark id="727">
            <name>City Hall</name>
            <Point id="726">
                <coordinates>0.01621,51.50718,0.0</coordinates>
            </Point>
        </Placemark>
        <Placemark id="729">
            <name>Kew House</name>
            <Point id="728">
                <coordinates>-0.28586,51.48255,0.0</coordinates>
            </Point>
        </Placemark>
        <Placemark id="731">
            <name>Air Raid Shelter, St Leonards Court</name>
            <Point id="730">
                <coordinates>-0.2694297,51.4671716,0.0</coordinates>
            </Point>
        </Placemark>
        <Placemark id="733">
            <name>University of Greenwich, Stockwell Street</name>
            <Point id="732">
                <coordinates>-0.00908,51.47997,0.0</coordinates>
            </Point>
        </Placemark>
        <Placemark id="735">
            <name>Mount Pleasant</name>
            <Point id="734">
                <coordinates>-0.1130917,51.5218569,0.0</coordinates>
            </Point>
        </Placemark>
        <Placemark id="737">
            <name>Fitzrovia Chapel</name>
            <Point id="736">
                <coordinates>-0.13826,51.51895,0.0</coordinates>
            </Point>
        </Placemark>
        <Placemark id="739">
            <name>Kaymet Factory</name>
            <Point id="738">
                <coordinates>-0.0710449,51.48474239999999,0.0</coordinates>
            </Point>
        </Placemark>
        <Placemark id="741">
            <name>Moravian Close</name>
            <Point id="740">
                <coordinates>-0.1762358,51.4836113,0.0</coordinates>
            </Point>
        </Placemark>
        <Placemark id="743">
            <name>6 Wood Lane</name>
            <Point id="742">
                <coordinates>-0.14663,51.57834,0.0</coordinates>
            </Point>
        </Placemark>
        <Placemark id="745">
            <name>Polish Social and Cultural Association</name>
            <Point id="744">
                <coordinates>-0.237489,51.4935842,0.0</coordinates>
            </Point>
        </Placemark>
        <Placemark id="747">
            <name>Golden Lane Estate, tours, community centre and access to flats</name>
            <Point id="746">
                <coordinates>-0.09543,51.52215,0.0</coordinates>
            </Point>
        </Placemark>
        <Placemark id="749">
            <name>31 Milton Road</name>
            <Point id="748">
                <coordinates>-0.264048,51.5096193,0.0</coordinates>
            </Point>
        </Placemark>
        <Placemark id="751">
            <name>Kingston Historic walk</name>
            <Point id="750">
                <coordinates>-0.3062179,51.40975359999999,0.0</coordinates>
            </Point>
        </Placemark>
        <Placemark id="753">
            <name>International Maritime Organization</name>
            <Point id="752">
                <coordinates>-0.1210654,51.4936018,0.0</coordinates>
            </Point>
        </Placemark>
        <Placemark id="755">
            <name>Estorick Collection of Modern Italian Art</name>
            <Point id="754">
                <coordinates>-0.10064,51.54393,0.0</coordinates>
            </Point>
        </Placemark>
        <Placemark id="757">
            <name>St Margaret's Church, Lee</name>
            <Point id="756">
                <coordinates>0.00054,51.46278,0.0</coordinates>
            </Point>
        </Placemark>
        <Placemark id="759">
            <name>Our Yard at Clitterhouse Farm</name>
            <Point id="758">
                <coordinates>-0.21581,51.56881,0.0</coordinates>
            </Point>
        </Placemark>
        <Placemark id="761">
            <name>Croydon Minster</name>
            <Point id="760">
                <coordinates>-0.10608,51.37271,0.0</coordinates>
            </Point>
        </Placemark>
        <Placemark id="763">
            <name>1.20 Oxo Tower Wharf</name>
            <Point id="762">
                <coordinates>-0.10827,51.50846,0.0</coordinates>
            </Point>
        </Placemark>
        <Placemark id="765">
            <name>Fitzroy Park Allotments</name>
            <Point id="764">
                <coordinates>-0.1572856,51.5685811,0.0</coordinates>
            </Point>
        </Placemark>
        <Placemark id="767">
            <name>Crystal Palace Park Dinosaurs  – a tour with a London Blue Badge Tourist Guide</name>
            <Point id="766">
                <coordinates>-0.07257999999999999,51.41811000000001,0.0</coordinates>
            </Point>
        </Placemark>
        <Placemark id="769">
            <name>Inner Temple Gardens</name>
            <Point id="768">
                <coordinates>-0.1096318,51.5115997,0.0</coordinates>
            </Point>
        </Placemark>
        <Placemark id="771">
            <name>Sands End Arts &amp; Community Centre</name>
            <Point id="770">
                <coordinates>-0.19722,51.46995,0.0</coordinates>
            </Point>
        </Placemark>
        <Placemark id="773">
            <name>St Bride's Church, Fleet Street</name>
            <Point id="772">
                <coordinates>-0.10554,51.51376,0.0</coordinates>
            </Point>
        </Placemark>
        <Placemark id="775">
            <name>Boston Manor House</name>
            <Point id="774">
                <coordinates>-0.3183739,51.49191829999999,0.0</coordinates>
            </Point>
        </Placemark>
        <Placemark id="777">
            <name>Kempton Steam Museum</name>
            <Point id="776">
                <coordinates>-0.40497,51.42579,0.0</coordinates>
            </Point>
        </Placemark>
        <Placemark id="779">
            <name>Quentin Blake Centre for Illustration - New River Head</name>
            <Point id="778">
                <coordinates>-0.10861,51.52895,0.0</coordinates>
            </Point>
        </Placemark>
        <Placemark id="781">
            <name>Surbiton Queen of the Suburbs</name>
            <Point id="780">
                <coordinates>-0.30448,51.39255,0.0</coordinates>
            </Point>
        </Placemark>
        <Placemark id="783">
            <name>St Stephen's Church, Dulwich</name>
            <Point id="782">
                <coordinates>-0.07845,51.43225,0.0</coordinates>
            </Point>
        </Placemark>
        <Placemark id="785">
            <name>Woodfield Pavilion</name>
            <Point id="784">
                <coordinates>-0.13853,51.43781,0.0</coordinates>
            </Point>
        </Placemark>
        <Placemark id="787">
            <name>British Cardiovascular Society</name>
            <Point id="786">
                <coordinates>-0.1398657,51.52359629999999,0.0</coordinates>
            </Point>
        </Placemark>
        <Placemark id="789">
            <name>People's Museum Somers Town</name>
            <Point id="788">
                <coordinates>-0.13092,51.53106,0.0</coordinates>
            </Point>
        </Placemark>
        <Placemark id="791">
            <name>OmVed Gardens</name>
            <Point id="790">
                <coordinates>-0.1463674,51.571608,0.0</coordinates>
            </Point>
        </Placemark>
        <Placemark id="793">
            <name>Timothy Hatton Architects – The Foundry</name>
            <Point id="792">
                <coordinates>-0.23739,51.50675,0.0</coordinates>
            </Point>
        </Placemark>
        <Placemark id="795">
            <name>St Mark’s Church</name>
            <Point id="794">
                <coordinates>-0.05527,51.39767,0.0</coordinates>
            </Point>
        </Placemark>
        <Placemark id="797">
            <name>All Saints Church, Edmonton</name>
            <Point id="796">
                <coordinates>-0.065944,51.62622649999999,0.0</coordinates>
            </Point>
        </Placemark>
        <Placemark id="799">
            <name>The Fleet beneath your feet</name>
            <Point id="798">
                <coordinates>-0.10474,51.52016,0.0</coordinates>
            </Point>
        </Placemark>
        <Placemark id="801">
            <name>London Scottish House (London Scottish Regimental Headquarters)</name>
            <Point id="800">
                <coordinates>-0.1331912,51.4952653,0.0</coordinates>
            </Point>
        </Placemark>
        <Placemark id="803">
            <name>Central Gurdwara (Khalsa Jatha) London</name>
            <Point id="802">
                <coordinates>-0.2157288,51.5066382,0.0</coordinates>
            </Point>
        </Placemark>
        <Placemark id="805">
            <name>Gaunson Creative Open Studios part of Markfield Road Festival</name>
            <Point id="804">
                <coordinates>-0.0635681,51.5838118,0.0</coordinates>
            </Point>
        </Placemark>
        <Placemark id="807">
            <name>Scadbury Moated Manor</name>
            <Point id="806">
                <coordinates>0.08728,51.41486,0.0</coordinates>
            </Point>
        </Placemark>
        <Placemark id="809">
            <name>Ladbroke Hall</name>
            <Point id="808">
                <coordinates>-0.2206,51.52319,0.0</coordinates>
            </Point>
        </Placemark>
        <Placemark id="811">
            <name>Longfield Hall</name>
            <Point id="810">
                <coordinates>-0.10501,51.47179,0.0</coordinates>
            </Point>
        </Placemark>
        <Placemark id="813">
            <name>Rufford Mews Apartment</name>
            <Point id="812">
                <coordinates>-0.12166,51.53985,0.0</coordinates>
            </Point>
        </Placemark>
        <Placemark id="815">
            <name>Eastcote Walking Tour</name>
            <Point id="814">
                <coordinates>-0.39714,51.57655,0.0</coordinates>
            </Point>
        </Placemark>
        <Placemark id="817">
            <name>Spitalfields - stories of people</name>
            <Point id="816">
                <coordinates>-0.08263,51.51763,0.0</coordinates>
            </Point>
        </Placemark>
        <Placemark id="819">
            <name>London Open Form Pavilion of Air</name>
            <Point id="818">
                <coordinates>-0.17548,51.50481,0.0</coordinates>
            </Point>
        </Placemark>
        <Placemark id="821">
            <name>The Honourable Society of the Middle Temple</name>
            <Point id="820">
                <coordinates>-0.11101,51.51192,0.0</coordinates>
            </Point>
        </Placemark>
        <Placemark id="823">
            <name>Alexandra Road Estate Flat 85B (Rowley Way)</name>
            <Point id="822">
                <coordinates>-0.18237,51.5404,0.0</coordinates>
            </Point>
        </Placemark>
        <Placemark id="825">
            <name>Little Mouse Cheese Shop</name>
            <Point id="824">
                <coordinates>-0.07715,51.39806,0.0</coordinates>
            </Point>
        </Placemark>
        <Placemark id="827">
            <name>Good Shepherd Studios</name>
            <Point id="826">
                <coordinates>0.01224,51.5642,0.0</coordinates>
            </Point>
        </Placemark>
        <Placemark id="829">
            <name>Norman Fisher Observatory</name>
            <Point id="828">
                <coordinates>-0.10395,51.30475,0.0</coordinates>
            </Point>
        </Placemark>
        <Placemark id="831">
            <name>Petty France and its environs</name>
            <Point id="830">
                <coordinates>-0.13453,51.49795,0.0</coordinates>
            </Point>
        </Placemark>
        <Placemark id="833">
            <name>St Barnabas Church</name>
            <Point id="832">
                <coordinates>-0.02107,51.57685,0.0</coordinates>
            </Point>
        </Placemark>
        <Placemark id="835">
            <name>Howard Hodgkin Studio</name>
            <Point id="834">
                <coordinates>-0.21155,51.59579,0.0</coordinates>
            </Point>
        </Placemark>
        <Placemark id="837">
            <name>St Michael's Church, Croydon</name>
            <Point id="836">
                <coordinates>-0.10085,51.37826,0.0</coordinates>
            </Point>
        </Placemark>
        <Placemark id="839">
            <name>Inner Space Meditation Centre, Covent Garden</name>
            <Point id="838">
                <coordinates>-0.12523,51.51459,0.0</coordinates>
            </Point>
        </Placemark>
        <Placemark id="841">
            <name>11 Hungerford Road</name>
            <Point id="840">
                <coordinates>-0.12282,51.55154,0.0</coordinates>
            </Point>
        </Placemark>
        <Placemark id="843">
            <name>St James's Piccadilly</name>
            <Point id="842">
                <coordinates>-0.1368,51.50876,0.0</coordinates>
            </Point>
        </Placemark>
        <Placemark id="845">
            <name>Croydon Urban Room</name>
            <Point id="844">
                <coordinates>-0.10075,51.37522,0.0</coordinates>
            </Point>
        </Placemark>
        <Placemark id="847">
            <name>Wolves Lane Horticultural Centre</name>
            <Point id="846">
                <coordinates>-0.10409,51.60487,0.0</coordinates>
            </Point>
        </Placemark>
        <Placemark id="849">
            <name>Royal Botanic Gardens, Kew - Herbarium</name>
            <Point id="848">
                <coordinates>-0.29498,51.48381,0.0</coordinates>
            </Point>
        </Placemark>
        <Placemark id="851">
            <name>London, adored and explored</name>
            <Point id="850">
                <coordinates>-0.13448,51.5099,0.0</coordinates>
            </Point>
        </Placemark>
        <Placemark id="853">
            <name>London Centre for Book Arts</name>
            <Point id="852">
                <coordinates>-0.02307,51.53771,0.0</coordinates>
            </Point>
        </Placemark>
        <Placemark id="855">
            <name>Harfield Gardens House</name>
            <Point id="854">
                <coordinates>-0.08454,51.46663,0.0</coordinates>
            </Point>
        </Placemark>
        <Placemark id="857">
            <name>Segmental House</name>
            <Point id="856">
                <coordinates>-0.1196,51.4778,0.0</coordinates>
            </Point>
        </Placemark>
        <Placemark id="859">
            <name>outhouse gallery</name>
            <Point id="858">
                <coordinates>-0.08501,51.47498,0.0</coordinates>
            </Point>
        </Placemark>
        <Placemark id="861">
            <name>University of West London</name>
            <Point id="860">
                <coordinates>-0.30281,51.50665,0.0</coordinates>
            </Point>
        </Placemark>
        <Placemark id="863">
            <name>Sacred Grounds / St Anne's Church and Garden</name>
            <Point id="862">
                <coordinates>-0.13186,51.5124,0.0</coordinates>
            </Point>
        </Placemark>
        <Placemark id="865">
            <name>Romans in London walk</name>
            <Point id="864">
                <coordinates>-0.07666,51.51011,0.0</coordinates>
            </Point>
        </Placemark>
        <Placemark id="867">
            <name>Queer Britain</name>
            <Point id="866">
                <coordinates>-0.12392,51.53568,0.0</coordinates>
            </Point>
        </Placemark>
        <Placemark id="869">
            <name>National Army Museum</name>
            <Point id="868">
                <coordinates>-0.16072,51.48633,0.0</coordinates>
            </Point>
        </Placemark>
        <Placemark id="871">
            <name>Chelsea Physic Garden</name>
            <Point id="870">
                <coordinates>-0.16277,51.48491,0.0</coordinates>
            </Point>
        </Placemark>
        <Placemark id="873">
            <name>'Art in Every Day Life' Heritage Trail</name>
            <Point id="872">
                <coordinates>-0.13095,51.53106,0.0</coordinates>
            </Point>
        </Placemark>
        <Placemark id="875">
            <name>Victorian artists at home in Kensington and Chelsea</name>
            <Point id="874">
                <coordinates>-0.16585,51.48398,0.0</coordinates>
            </Point>
        </Placemark>
        <Placemark id="877">
            <name>Brentford's Great West Road Centenary walking tour</name>
            <Point id="876">
                <coordinates>-0.30929,51.48313,0.0</coordinates>
            </Point>
        </Placemark>
        <Placemark id="879">
            <name>St Mary &amp; St Joseph Roman Catholic Church, Poplar</name>
            <Point id="878">
                <coordinates>-0.02052,51.51203,0.0</coordinates>
            </Point>
        </Placemark>
        <Placemark id="881">
            <name>9 Wavell Court, Croydon</name>
            <Point id="880">
                <coordinates>-0.07964,51.37633,0.0</coordinates>
            </Point>
        </Placemark>
        <Placemark id="883">
            <name>Pollocks House of Cards and Paper Gardens</name>
            <Point id="882">
                <coordinates>-0.09895,51.37635,0.0</coordinates>
            </Point>
        </Placemark>
        <Placemark id="885">
            <name>The Battle of Britain Bunker - The Generator House</name>
            <Point id="884">
                <coordinates>-0.46506,51.54089,0.0</coordinates>
            </Point>
        </Placemark>
        <Placemark id="887">
            <name>The Great Barn</name>
            <Point id="886">
                <coordinates>-0.42824,51.57806,0.0</coordinates>
            </Point>
        </Placemark>
        <Placemark id="889">
            <name>The Manor House, Manor Farm, Ruislip</name>
            <Point id="888">
                <coordinates>-0.42737,51.5788,0.0</coordinates>
            </Point>
        </Placemark>
        <Placemark id="891">
            <name>The Dovecote, Eastcote House Gardens</name>
            <Point id="890">
                <coordinates>-0.40302,51.58687,0.0</coordinates>
            </Point>
        </Placemark>
        <Placemark id="893">
            <name>The Caravan Gallery comes to Croydon</name>
            <Point id="892">
                <coordinates>-0.09757,51.37204,0.0</coordinates>
            </Point>
        </Placemark>
        <Placemark id="895">
            <name>Saint Nectarios Greek Orthodox Church</name>
            <Point id="894">
                <coordinates>-0.15312,51.46917,0.0</coordinates>
            </Point>
        </Placemark>
        <Placemark id="897">
            <name>Brutalism &amp; High-Tech Architecture Tour</name>
            <Point id="896">
                <coordinates>-0.09387,51.5187,0.0</coordinates>
            </Point>
        </Placemark>
        <Placemark id="899">
            <name>Suburban Art and Design in Petts Wood</name>
            <Point id="898">
                <coordinates>0.07433,51.38914,0.0</coordinates>
            </Point>
        </Placemark>
        <Placemark id="901">
            <name>The St Michael Steiner School</name>
            <Point id="900">
                <coordinates>-0.39635,51.43436,0.0</coordinates>
            </Point>
        </Placemark>
        <Placemark id="903">
            <name>Herne Hill Velodrome</name>
            <Point id="902">
                <coordinates>-0.09099,51.45121,0.0</coordinates>
            </Point>
        </Placemark>
        <Placemark id="905">
            <name>Eco Punk</name>
            <Point id="904">
                <coordinates>0.04158,51.56012,0.0</coordinates>
            </Point>
        </Placemark>
        <Placemark id="907">
            <name>Rhymes and Reasons: Exploring the City of London through nursery rhymes</name>
            <Point id="906">
                <coordinates>-0.09873,51.52064,0.0</coordinates>
            </Point>
        </Placemark>
        <Placemark id="909">
            <name>The Wallace Collection - Eranda Research Library</name>
            <Point id="908">
                <coordinates>-0.15308,51.51732,0.0</coordinates>
            </Point>
        </Placemark>
        <Placemark id="911">
            <name>Croydon Curiosity Rover</name>
            <Point id="910">
                <coordinates>-0.09747,51.37204,0.0</coordinates>
            </Point>
        </Placemark>
        <Placemark id="913">
            <name>Barbican Conservatory</name>
            <Point id="912">
                <coordinates>-0.09378,51.5202,0.0</coordinates>
            </Point>
        </Placemark>
        <Placemark id="915">
            <name>Drink, respectability and resistance</name>
            <Point id="914">
                <coordinates>-0.07546,51.59914,0.0</coordinates>
            </Point>
        </Placemark>
        <Placemark id="917">
            <name>2 Belgrave Road: Victorian house with Luis Barragán inspired interior</name>
            <Point id="916">
                <coordinates>-0.02119,51.57916,0.0</coordinates>
            </Point>
        </Placemark>
        <Placemark id="919">
            <name>Open House 18 Woolwich Road</name>
            <Point id="918">
                <coordinates>0.01249,51.48607,0.0</coordinates>
            </Point>
        </Placemark>
        <Placemark id="921">
            <name>The South Wing</name>
            <Point id="920">
                <coordinates>-0.09654,51.36532,0.0</coordinates>
            </Point>
        </Placemark>
        <Placemark id="923">
            <name>Power in the eye of the beholder: Strand drawing tour</name>
            <Point id="922">
                <coordinates>-0.11714,51.51105,0.0</coordinates>
            </Point>
        </Placemark>
        <Placemark id="925">
            <name>Wolves Lane Centre</name>
            <Point id="924">
                <coordinates>-0.10399,51.60487,0.0</coordinates>
            </Point>
        </Placemark>
        <Placemark id="927">
            <name>Obra</name>
            <Point id="926">
                <coordinates>-0.11853,51.53469,0.0</coordinates>
            </Point>
        </Placemark>
        <Placemark id="929">
            <name>St Michael's Chester Square</name>
            <Point id="928">
                <coordinates>-0.15097,51.49427,0.0</coordinates>
            </Point>
        </Placemark>
        <Placemark id="931">
            <name>Lisson Grove Studios</name>
            <Point id="930">
                <coordinates>-0.16953,51.52556,0.0</coordinates>
            </Point>
        </Placemark>
        <Placemark id="933">
            <name>Green Lodge</name>
            <Point id="932">
                <coordinates>-0.23711,51.45098,0.0</coordinates>
            </Point>
        </Placemark>
        <Placemark id="935">
            <name>Former Carbonic Gas Works, 142 Lea Bridge Road</name>
            <Point id="934">
                <coordinates>-0.04632,51.56146,0.0</coordinates>
            </Point>
        </Placemark>
        <Placemark id="937">
            <name>St Olave Hart Street</name>
            <Point id="936">
                <coordinates>-0.07946,51.51094,0.0</coordinates>
            </Point>
        </Placemark>
        <Placemark id="939">
            <name>Wade House</name>
            <Point id="938">
                <coordinates>-0.41245,51.56877,0.0</coordinates>
            </Point>
        </Placemark>
        <Placemark id="941">
            <name>W House</name>
            <Point id="940">
                <coordinates>-0.21407,51.47443,0.0</coordinates>
            </Point>
        </Placemark>
        <Placemark id="943">
            <name>Avery Hill Winter Garden</name>
            <Point id="942">
                <coordinates>0.07451,51.44821,0.0</coordinates>
            </Point>
        </Placemark>
        <Placemark id="945">
            <name>Pif-Paf: Right To Play</name>
            <Point id="944">
                <coordinates>-0.09737,51.37204,0.0</coordinates>
            </Point>
        </Placemark>
        <Placemark id="947">
            <name>Southlands Arts Centre</name>
            <Point id="946">
                <coordinates>-0.47577,51.50154,0.0</coordinates>
            </Point>
        </Placemark>
        <Placemark id="949">
            <name>In Situ: Croydon Space Station</name>
            <Point id="948">
                <coordinates>-0.09727,51.37204,0.0</coordinates>
            </Point>
        </Placemark>
        <Placemark id="951">
            <name>MATT + FIONA: Croydon Skyline</name>
            <Point id="950">
                <coordinates>-0.09716999999999999,51.37204,0.0</coordinates>
            </Point>
        </Placemark>
        <Placemark id="953">
            <name>Cranford Park - Stables and Secret Garden</name>
            <Point id="952">
                <coordinates>-0.40786,51.48425,0.0</coordinates>
            </Point>
        </Placemark>
        <Placemark id="955">
            <name>Wood House</name>
            <Point id="954">
                <coordinates>-0.31117,51.5779,0.0</coordinates>
            </Point>
        </Placemark>
        <Placemark id="957">
            <name>Ibraaz</name>
            <Point id="956">
                <coordinates>-0.14195,51.51741,0.0</coordinates>
            </Point>
        </Placemark>
        <Placemark id="959">
            <name>Hidden ceilings &amp; 300 years of secrets: SGTM Open Day</name>
            <Point id="958">
                <coordinates>-0.12245,51.52098,0.0</coordinates>
            </Point>
        </Placemark>
        <Placemark id="961">
            <name>Walk through the Stuart Dynasty and Cromwell’s Republic</name>
            <Point id="960">
                <coordinates>-0.12729,51.49936,0.0</coordinates>
            </Point>
        </Placemark>
        <Placemark id="963">
            <name>Southbank Printmakers</name>
            <Point id="962">
                <coordinates>-0.13776,51.51702,0.0</coordinates>
            </Point>
        </Placemark>
        <Placemark id="965">
            <name>Sex in the City - a tour of Covent Garden's history</name>
            <Point id="964">
                <coordinates>-0.12416,51.513,0.0</coordinates>
            </Point>
        </Placemark>
        <Placemark id="967">
            <name>Ongéan</name>
            <Point id="966">
                <coordinates>-0.10031,51.45032,0.0</coordinates>
            </Point>
        </Placemark>
        <Placemark id="969">
            <name>The West End At War</name>
            <Point id="968">
                <coordinates>-0.13307,51.51381,0.0</coordinates>
            </Point>
        </Placemark>
        <Placemark id="971">
            <name>Prefab Walking Tour - Excalibur Estate</name>
            <Point id="970">
                <coordinates>0.00134,51.43589,0.0</coordinates>
            </Point>
        </Placemark>
        <Placemark id="973">
            <name>Olympia - Heatherwick Studio Architecture &amp; Design Tour</name>
            <Point id="972">
                <coordinates>-0.21066,51.49797,0.0</coordinates>
            </Point>
        </Placemark>
        <Placemark id="975">
            <name>Charing Cross Library</name>
            <Point id="974">
                <coordinates>-0.12805,51.51024,0.0</coordinates>
            </Point>
        </Placemark>
    </Document>
</kml>
