<?xml version="1.0" encoding="UTF-8"?>
<kml xmlns="http://www.opengis.net/kml/2.2" xmlns:gx="http://www.google.com/kml/ext/2.2">
    <Document id="1297">
        <Placemark id="1299">
            <name>Eastbury Manor House</name>
            <Point id="1298">
                <coordinates>0.0995563,51.5343105,0.0</coordinates>
            </Point>
        </Placemark>
        <Placemark id="1301">
            <name>Red House</name>
            <Point id="1300">
                <coordinates>0.1294782,51.4553355,0.0</coordinates>
            </Point>
        </Placemark>
        <Placemark id="1303">
            <name>Burlington House: Society of Antiquaries of London</name>
            <Point id="1302">
                <coordinates>-0.13894,51.50846,0.0</coordinates>
            </Point>
        </Placemark>
        <Placemark id="1305">
            <name>Swakeleys Estate</name>
            <Point id="1304">
                <coordinates>-0.45721,51.5651,0.0</coordinates>
            </Point>
        </Placemark>
        <Placemark id="1307">
            <name>Burlington House: Linnean Society of London</name>
            <Point id="1306">
                <coordinates>-0.13911,51.50853,0.0</coordinates>
            </Point>
        </Placemark>
        <Placemark id="1309">
            <name>St Mary's Church, Battersea</name>
            <Point id="1308">
                <coordinates>-0.1747989,51.4765358,0.0</coordinates>
            </Point>
        </Placemark>
        <Placemark id="1311">
            <name>Conway Hall</name>
            <Point id="1310">
                <coordinates>-0.118179,51.51987740000001,0.0</coordinates>
            </Point>
        </Placemark>
        <Placemark id="1313">
            <name>St Pancras Church &amp; Crypt</name>
            <Point id="1312">
                <coordinates>-0.13021,51.52713,0.0</coordinates>
            </Point>
        </Placemark>
        <Placemark id="1315">
            <name>Barnard's Inn Hall</name>
            <Point id="1314">
                <coordinates>-0.1098755,51.5175436,0.0</coordinates>
            </Point>
        </Placemark>
        <Placemark id="1317">
            <name>Romanian Cultural Institute</name>
            <Point id="1316">
                <coordinates>-0.1539844,51.500248,0.0</coordinates>
            </Point>
        </Placemark>
        <Placemark id="1319">
            <name>St Anne's Church, Kew Green</name>
            <Point id="1318">
                <coordinates>-0.28804,51.4838,0.0</coordinates>
            </Point>
        </Placemark>
        <Placemark id="1321">
            <name>The Clockworks</name>
            <Point id="1320">
                <coordinates>-0.1045063,51.4329214,0.0</coordinates>
            </Point>
        </Placemark>
        <Placemark id="1323">
            <name>St Anne's Church, Limehouse</name>
            <Point id="1322">
                <coordinates>-0.03011,51.51167,0.0</coordinates>
            </Point>
        </Placemark>
        <Placemark id="1325">
            <name>Fitzrovia Chapel</name>
            <Point id="1324">
                <coordinates>-0.13826,51.51895,0.0</coordinates>
            </Point>
        </Placemark>
        <Placemark id="1327">
            <name>Preedy Glass</name>
            <Point id="1326">
                <coordinates>-0.2729878,51.5285209,0.0</coordinates>
            </Point>
        </Placemark>
        <Placemark id="1329">
            <name>Our Yard at Clitterhouse Farm</name>
            <Point id="1328">
                <coordinates>-0.21653,51.56693,0.0</coordinates>
            </Point>
        </Placemark>
        <Placemark id="1331">
            <name>St Bride's Church, Fleet Street</name>
            <Point id="1330">
                <coordinates>-0.105544,51.5137695,0.0</coordinates>
            </Point>
        </Placemark>
        <Placemark id="1333">
            <name>Boston Manor House</name>
            <Point id="1332">
                <coordinates>-0.3183739,51.49191829999999,0.0</coordinates>
            </Point>
        </Placemark>
        <Placemark id="1335">
            <name>Fleet Street Heritage Wall and Sundial</name>
            <Point id="1334">
                <coordinates>-0.1080343,51.51412879999999,0.0</coordinates>
            </Point>
        </Placemark>
        <Placemark id="1337">
            <name>People's Museum Somers Town</name>
            <Point id="1336">
                <coordinates>-0.13095,51.53106,0.0</coordinates>
            </Point>
        </Placemark>
        <Placemark id="1339">
            <name>From Forest to Morris: A walk around Walthamstow</name>
            <Point id="1338">
                <coordinates>-0.0194102,51.5828202,0.0</coordinates>
            </Point>
        </Placemark>
        <Placemark id="1341">
            <name>Poroban studio</name>
            <Point id="1340">
                <coordinates>-0.0790748,51.48900930000001,0.0</coordinates>
            </Point>
        </Placemark>
        <Placemark id="1343">
            <name>Andaz London Liverpool Street</name>
            <Point id="1342">
                <coordinates>-0.0813472,51.517312,0.0</coordinates>
            </Point>
        </Placemark>
        <Placemark id="1345">
            <name>London Open Form Pavilion of Air</name>
            <Point id="1344">
                <coordinates>-0.17464,51.50466,0.0</coordinates>
            </Point>
        </Placemark>
        <Placemark id="1347">
            <name>Hounslow House</name>
            <Point id="1346">
                <coordinates>-0.36726,51.46843,0.0</coordinates>
            </Point>
        </Placemark>
        <Placemark id="1349">
            <name>Museum of Croydon Behind the Scenes Tour</name>
            <Point id="1348">
                <coordinates>-0.09939,51.37226,0.0</coordinates>
            </Point>
        </Placemark>
        <Placemark id="1351">
            <name>Morris+Company | 'Waste Not: Materials, Making and the Circular Economy' Exhibition</name>
            <Point id="1350">
                <coordinates>-0.05552,51.54152,0.0</coordinates>
            </Point>
        </Placemark>
        <Placemark id="1353">
            <name>E.ON's Citigen energy centre</name>
            <Point id="1352">
                <coordinates>-0.10418,51.51927,0.0</coordinates>
            </Point>
        </Placemark>
        <Placemark id="1355">
            <name>Croydon Urban Room</name>
            <Point id="1354">
                <coordinates>-0.10075,51.37522,0.0</coordinates>
            </Point>
        </Placemark>
        <Placemark id="1357">
            <name>London National Park City Visitors Centre</name>
            <Point id="1356">
                <coordinates>-0.14246,51.51756,0.0</coordinates>
            </Point>
        </Placemark>
        <Placemark id="1359">
            <name>St Lawrence</name>
            <Point id="1358">
                <coordinates>-0.31018,51.48232,0.0</coordinates>
            </Point>
        </Placemark>
        <Placemark id="1361">
            <name>Past Forward: Where Heritage Meets Innovation | Open studios at DIA</name>
            <Point id="1360">
                <coordinates>-0.14662,51.5221,0.0</coordinates>
            </Point>
        </Placemark>
        <Placemark id="1363">
            <name>Wolves Lane Horticultural Centre</name>
            <Point id="1362">
                <coordinates>-0.10409,51.60487,0.0</coordinates>
            </Point>
        </Placemark>
        <Placemark id="1365">
            <name>IMPACT Community Arts Centre</name>
            <Point id="1364">
                <coordinates>-0.32577,51.53539,0.0</coordinates>
            </Point>
        </Placemark>
        <Placemark id="1367">
            <name>outhouse gallery</name>
            <Point id="1366">
                <coordinates>-0.08556,51.4755,0.0</coordinates>
            </Point>
        </Placemark>
        <Placemark id="1369">
            <name>Explore the authentically recreated Colony Room</name>
            <Point id="1368">
                <coordinates>-0.13932,51.51092,0.0</coordinates>
            </Point>
        </Placemark>
        <Placemark id="1371">
            <name>Memorial Community Church</name>
            <Point id="1370">
                <coordinates>0.02405,51.52302,0.0</coordinates>
            </Point>
        </Placemark>
        <Placemark id="1373">
            <name>St Alban the Martyr, South Norwood</name>
            <Point id="1372">
                <coordinates>-0.09275,51.39807,0.0</coordinates>
            </Point>
        </Placemark>
        <Placemark id="1375">
            <name>Soho - forever changing</name>
            <Point id="1374">
                <coordinates>-0.13021,51.51324,0.0</coordinates>
            </Point>
        </Placemark>
        <Placemark id="1377">
            <name>The Literary City</name>
            <Point id="1376">
                <coordinates>-0.09308,51.51644,0.0</coordinates>
            </Point>
        </Placemark>
        <Placemark id="1379">
            <name>The King's Foundation - Charlotte Road</name>
            <Point id="1378">
                <coordinates>-0.08132,51.5257,0.0</coordinates>
            </Point>
        </Placemark>
        <Placemark id="1381">
            <name>Resonance FM Studios</name>
            <Point id="1380">
                <coordinates>-0.1,51.50345,0.0</coordinates>
            </Point>
        </Placemark>
        <Placemark id="1383">
            <name>Streets of change: growing up in North Kensington</name>
            <Point id="1382">
                <coordinates>-0.2099,51.51652,0.0</coordinates>
            </Point>
        </Placemark>
        <Placemark id="1385">
            <name>Designed to be forgotten: women in South Kensington</name>
            <Point id="1384">
                <coordinates>-0.17349,51.49695,0.0</coordinates>
            </Point>
        </Placemark>
        <Placemark id="1387">
            <name>Garage Gallery E17</name>
            <Point id="1386">
                <coordinates>-0.01252,51.58081,0.0</coordinates>
            </Point>
        </Placemark>
        <Placemark id="1389">
            <name>St Mary &amp; St Joseph Roman Catholic Church, Poplar</name>
            <Point id="1388">
                <coordinates>-0.02052,51.51203,0.0</coordinates>
            </Point>
        </Placemark>
        <Placemark id="1391">
            <name>The Purpose of Light: Exhibition by Misan Harriman</name>
            <Point id="1390">
                <coordinates>-0.13826,51.51651,0.0</coordinates>
            </Point>
        </Placemark>
        <Placemark id="1393">
            <name>Worlds End Studios</name>
            <Point id="1392">
                <coordinates>-0.18379,51.47832,0.0</coordinates>
            </Point>
        </Placemark>
        <Placemark id="1395">
            <name>1 Pontypool Place</name>
            <Point id="1394">
                <coordinates>-0.10591,51.50192,0.0</coordinates>
            </Point>
        </Placemark>
        <Placemark id="1397">
            <name>Herne Hill Velodrome</name>
            <Point id="1396">
                <coordinates>-0.09099,51.45121,0.0</coordinates>
            </Point>
        </Placemark>
        <Placemark id="1399">
            <name>141 Coldershaw Road, W13</name>
            <Point id="1398">
                <coordinates>-0.32522,51.50504,0.0</coordinates>
            </Point>
        </Placemark>
        <Placemark id="1401">
            <name>Secrets and Symbols of the City</name>
            <Point id="1400">
                <coordinates>-0.09906,51.51328,0.0</coordinates>
            </Point>
        </Placemark>
        <Placemark id="1403">
            <name>Bodney Road Studios</name>
            <Point id="1402">
                <coordinates>-0.06106,51.55002,0.0</coordinates>
            </Point>
        </Placemark>
        <Placemark id="1405">
            <name>Lorenzo Zandri - Urban Narrative</name>
            <Point id="1404">
                <coordinates>-0.06096,51.55002,0.0</coordinates>
            </Point>
        </Placemark>
        <Placemark id="1407">
            <name>Unit 13</name>
            <Point id="1406">
                <coordinates>-0.05639,51.54066,0.0</coordinates>
            </Point>
        </Placemark>
        <Placemark id="1409">
            <name>The Gaumont State Theatre</name>
            <Point id="1408">
                <coordinates>-0.19789,51.54153,0.0</coordinates>
            </Point>
        </Placemark>
        <Placemark id="1411">
            <name>County Hall Kingston</name>
            <Point id="1410">
                <coordinates>-0.30416,51.40435,0.0</coordinates>
            </Point>
        </Placemark>
        <Placemark id="1413">
            <name>60 Years of the BT Tower: Signals and Sightlines</name>
            <Point id="1412">
                <coordinates>-0.13151,51.51949,0.0</coordinates>
            </Point>
        </Placemark>
        <Placemark id="1415">
            <name>North Lambeth: Architecture, state and society</name>
            <Point id="1414">
                <coordinates>-0.12003,51.49918,0.0</coordinates>
            </Point>
        </Placemark>
        <Placemark id="1417">
            <name>From bomb site to blueprint: walking the rebuilt City</name>
            <Point id="1416">
                <coordinates>-0.09993,51.51368,0.0</coordinates>
            </Point>
        </Placemark>
        <Placemark id="1419">
            <name>Common Edge: Art, Community and Protest in Wanstead and Leytonstone</name>
            <Point id="1418">
                <coordinates>0.02866,51.57565,0.0</coordinates>
            </Point>
        </Placemark>
        <Placemark id="1421">
            <name>String House - Camberwell</name>
            <Point id="1420">
                <coordinates>-0.08554,51.46614,0.0</coordinates>
            </Point>
        </Placemark>
        <Placemark id="1423">
            <name>Destination Battersea</name>
            <Point id="1422">
                <coordinates>-0.14769,51.47695,0.0</coordinates>
            </Point>
        </Placemark>
        <Placemark id="1425">
            <name>JCDecaux UK – Tour &amp; Presentation</name>
            <Point id="1424">
                <coordinates>-0.31799,51.48564,0.0</coordinates>
            </Point>
        </Placemark>
        <Placemark id="1427">
            <name>Green Lodge</name>
            <Point id="1426">
                <coordinates>-0.23711,51.45098,0.0</coordinates>
            </Point>
        </Placemark>
        <Placemark id="1429">
            <name>Borough Yards: Panel discussion</name>
            <Point id="1428">
                <coordinates>-0.09149,51.50571,0.0</coordinates>
            </Point>
        </Placemark>
        <Placemark id="1431">
            <name>Southlands Arts Centre</name>
            <Point id="1430">
                <coordinates>-0.47577,51.50154,0.0</coordinates>
            </Point>
        </Placemark>
        <Placemark id="1433">
            <name>Ibraaz</name>
            <Point id="1432">
                <coordinates>-0.14195,51.51741,0.0</coordinates>
            </Point>
        </Placemark>
        <Placemark id="1435">
            <name>Refugees at Home at International House</name>
            <Point id="1434">
                <coordinates>-0.11298,51.46412,0.0</coordinates>
            </Point>
        </Placemark>
        <Placemark id="1437">
            <name>Jewish Westminster</name>
            <Point id="1436">
                <coordinates>-0.1253,51.50843,0.0</coordinates>
            </Point>
        </Placemark>
        <Placemark id="1439">
            <name>Ongéan</name>
            <Point id="1438">
                <coordinates>-0.10031,51.45032,0.0</coordinates>
            </Point>
        </Placemark>
    </Document>
</kml>
