<?xml version="1.0" encoding="UTF-8"?>
<kml xmlns="http://www.opengis.net/kml/2.2" xmlns:gx="http://www.google.com/kml/ext/2.2">
    <Document id="1471">
        <Placemark id="1473">
            <name>National Audit Office</name>
            <Point id="1472">
                <coordinates>-0.14872,51.49161,0.0</coordinates>
            </Point>
        </Placemark>
        <Placemark id="1475">
            <name>Dr Johnson's House</name>
            <Point id="1474">
                <coordinates>-0.1081791,51.5150637,0.0</coordinates>
            </Point>
        </Placemark>
        <Placemark id="1477">
            <name>Eastbury Manor House</name>
            <Point id="1476">
                <coordinates>0.0995563,51.5343105,0.0</coordinates>
            </Point>
        </Placemark>
        <Placemark id="1479">
            <name>Greenwich Yacht Club</name>
            <Point id="1478">
                <coordinates>0.0177407,51.494727,0.0</coordinates>
            </Point>
        </Placemark>
        <Placemark id="1481">
            <name>Guildhall</name>
            <Point id="1480">
                <coordinates>-0.0919,51.51589,0.0</coordinates>
            </Point>
        </Placemark>
        <Placemark id="1483">
            <name>Haberdashers' Hall</name>
            <Point id="1482">
                <coordinates>-0.1018903,51.51806149999999,0.0</coordinates>
            </Point>
        </Placemark>
        <Placemark id="1485">
            <name>Hackney Empire</name>
            <Point id="1484">
                <coordinates>-0.0557,51.54545,0.0</coordinates>
            </Point>
        </Placemark>
        <Placemark id="1487">
            <name>Bromley and Sheppard's College</name>
            <Point id="1486">
                <coordinates>0.01227,51.408,0.0</coordinates>
            </Point>
        </Placemark>
        <Placemark id="1489">
            <name>Highgate School Chapel, Library, Museum</name>
            <Point id="1488">
                <coordinates>-0.1492358,51.5721393,0.0</coordinates>
            </Point>
        </Placemark>
        <Placemark id="1491">
            <name>Isokon Building (Lawn Road Flats)</name>
            <Point id="1490">
                <coordinates>-0.16184,51.55221,0.0</coordinates>
            </Point>
        </Placemark>
        <Placemark id="1493">
            <name>Kenwood</name>
            <Point id="1492">
                <coordinates>-0.1675998,51.5713284,0.0</coordinates>
            </Point>
        </Placemark>
        <Placemark id="1495">
            <name>Kirkaldy's Testing Works</name>
            <Point id="1494">
                <coordinates>-0.10146,51.50606,0.0</coordinates>
            </Point>
        </Placemark>
        <Placemark id="1497">
            <name>Lillington Gardens Estate</name>
            <Point id="1496">
                <coordinates>-0.13632,51.49112,0.0</coordinates>
            </Point>
        </Placemark>
        <Placemark id="1499">
            <name>Lloyd's of London</name>
            <Point id="1498">
                <coordinates>-0.08260959999999999,51.5131437,0.0</coordinates>
            </Point>
        </Placemark>
        <Placemark id="1501">
            <name>The Lloyd's Register Building</name>
            <Point id="1500">
                <coordinates>-0.0788,51.51249,0.0</coordinates>
            </Point>
        </Placemark>
        <Placemark id="1503">
            <name>St Mary Magdalene Church</name>
            <Point id="1502">
                <coordinates>-0.09681,51.6538,0.0</coordinates>
            </Point>
        </Placemark>
        <Placemark id="1505">
            <name>Walthamstow Pumphouse Museum</name>
            <Point id="1504">
                <coordinates>-0.03476,51.57672,0.0</coordinates>
            </Point>
        </Placemark>
        <Placemark id="1507">
            <name>Marx Memorial Library &amp; Workers' School</name>
            <Point id="1506">
                <coordinates>-0.10569,51.52297,0.0</coordinates>
            </Point>
        </Placemark>
        <Placemark id="1509">
            <name>Hopkins Architects</name>
            <Point id="1508">
                <coordinates>-0.16598,51.52433,0.0</coordinates>
            </Point>
        </Placemark>
        <Placemark id="1511">
            <name>Museum of London Docklands</name>
            <Point id="1510">
                <coordinates>-0.02386,51.50747,0.0</coordinates>
            </Point>
        </Placemark>
        <Placemark id="1513">
            <name>Bower House</name>
            <Point id="1512">
                <coordinates>0.18282,51.61287,0.0</coordinates>
            </Point>
        </Placemark>
        <Placemark id="1515">
            <name>Paxton Locher House</name>
            <Point id="1514">
                <coordinates>-0.10457,51.52298,0.0</coordinates>
            </Point>
        </Placemark>
        <Placemark id="1517">
            <name>St Paul's Bow Common</name>
            <Point id="1516">
                <coordinates>-0.02968,51.51725,0.0</coordinates>
            </Point>
        </Placemark>
        <Placemark id="1519">
            <name>Guided Tours and Exhibition at Pioneer Centre, Peckham</name>
            <Point id="1518">
                <coordinates>-0.0538132,51.4722385,0.0</coordinates>
            </Point>
        </Placemark>
        <Placemark id="1521">
            <name>Guildhall Art Gallery</name>
            <Point id="1520">
                <coordinates>-0.09159,51.51551,0.0</coordinates>
            </Point>
        </Placemark>
        <Placemark id="1523">
            <name>Ravensbourne University London</name>
            <Point id="1522">
                <coordinates>0.00584,51.50191,0.0</coordinates>
            </Point>
        </Placemark>
        <Placemark id="1525">
            <name>Royal College of Physicians</name>
            <Point id="1524">
                <coordinates>-0.14488,51.52577,0.0</coordinates>
            </Point>
        </Placemark>
        <Placemark id="1527">
            <name>Royal Courts of Justice</name>
            <Point id="1526">
                <coordinates>-0.1135807,51.513803,0.0</coordinates>
            </Point>
        </Placemark>
        <Placemark id="1529">
            <name>Royal Small Arms Factory</name>
            <Point id="1528">
                <coordinates>-0.0165,51.66838,0.0</coordinates>
            </Point>
        </Placemark>
        <Placemark id="1531">
            <name>Shoreditch Town Hall</name>
            <Point id="1530">
                <coordinates>-0.07925789999999999,51.52713550000001,0.0</coordinates>
            </Point>
        </Placemark>
        <Placemark id="1533">
            <name>Sir John Soane's Museum</name>
            <Point id="1532">
                <coordinates>-0.11737,51.51704,0.0</coordinates>
            </Point>
        </Placemark>
        <Placemark id="1535">
            <name>Twickenham Museum</name>
            <Point id="1534">
                <coordinates>-0.32552,51.44673,0.0</coordinates>
            </Point>
        </Placemark>
        <Placemark id="1537">
            <name>St Mary Aldermary</name>
            <Point id="1536">
                <coordinates>-0.09353,51.51299,0.0</coordinates>
            </Point>
        </Placemark>
        <Placemark id="1539">
            <name>Swakeleys Estate</name>
            <Point id="1538">
                <coordinates>-0.45595,51.56499,0.0</coordinates>
            </Point>
        </Placemark>
        <Placemark id="1541">
            <name>Temple Bar</name>
            <Point id="1540">
                <coordinates>-0.09844,51.51508,0.0</coordinates>
            </Point>
        </Placemark>
        <Placemark id="1543">
            <name>Bank of England Museum</name>
            <Point id="1542">
                <coordinates>-0.08763,51.51402,0.0</coordinates>
            </Point>
        </Placemark>
        <Placemark id="1545">
            <name>The Hospital Chapel of St Mary &amp; St Thomas</name>
            <Point id="1544">
                <coordinates>0.0692996,51.5579973,0.0</coordinates>
            </Point>
        </Placemark>
        <Placemark id="1547">
            <name>Burlington House: Linnean Society of London</name>
            <Point id="1546">
                <coordinates>-0.13911,51.50853,0.0</coordinates>
            </Point>
        </Placemark>
        <Placemark id="1549">
            <name>The Royal Society</name>
            <Point id="1548">
                <coordinates>-0.13235,51.50593,0.0</coordinates>
            </Point>
        </Placemark>
        <Placemark id="1551">
            <name>Swiss Cottage Library</name>
            <Point id="1550">
                <coordinates>-0.17294,51.54231,0.0</coordinates>
            </Point>
        </Placemark>
        <Placemark id="1553">
            <name>Trinity Buoy Wharf/Container City</name>
            <Point id="1552">
                <coordinates>0.00894,51.50862,0.0</coordinates>
            </Point>
        </Placemark>
        <Placemark id="1555">
            <name>Allies and Morrison Open Studio</name>
            <Point id="1554">
                <coordinates>-0.09962,51.50562,0.0</coordinates>
            </Point>
        </Placemark>
        <Placemark id="1557">
            <name>Union Chapel</name>
            <Point id="1556">
                <coordinates>-0.10287,51.54476,0.0</coordinates>
            </Point>
        </Placemark>
        <Placemark id="1559">
            <name>Regent Street Cinema (The University of Westminster)</name>
            <Point id="1558">
                <coordinates>-0.14285,51.5168,0.0</coordinates>
            </Point>
        </Placemark>
        <Placemark id="1561">
            <name>BBC Broadcasting House</name>
            <Point id="1560">
                <coordinates>-0.1437,51.51825,0.0</coordinates>
            </Point>
        </Placemark>
        <Placemark id="1563">
            <name>Wimbledon Windmill Museum</name>
            <Point id="1562">
                <coordinates>-0.23263,51.43312,0.0</coordinates>
            </Point>
        </Placemark>
        <Placemark id="1565">
            <name>Wrotham Park</name>
            <Point id="1564">
                <coordinates>-0.1937,51.67215,0.0</coordinates>
            </Point>
        </Placemark>
        <Placemark id="1567">
            <name>Parish Church of St Andrew, Enfield</name>
            <Point id="1566">
                <coordinates>-0.08199,51.65278,0.0</coordinates>
            </Point>
        </Placemark>
        <Placemark id="1569">
            <name>St Andrew's Kingsbury (new church)</name>
            <Point id="1568">
                <coordinates>-0.26418,51.5667,0.0</coordinates>
            </Point>
        </Placemark>
        <Placemark id="1571">
            <name>St Augustine's Church</name>
            <Point id="1570">
                <coordinates>-0.1916647,51.53353509999999,0.0</coordinates>
            </Point>
        </Placemark>
        <Placemark id="1573">
            <name>St Giles Parish Church, Camberwell</name>
            <Point id="1572">
                <coordinates>-0.08982,51.47387,0.0</coordinates>
            </Point>
        </Placemark>
        <Placemark id="1575">
            <name>St James the Less Church</name>
            <Point id="1574">
                <coordinates>-0.13496,51.49082,0.0</coordinates>
            </Point>
        </Placemark>
        <Placemark id="1577">
            <name>St Mary Magdalene Church &amp; Nature Reserve</name>
            <Point id="1576">
                <coordinates>0.05883790000000001,51.5222513,0.0</coordinates>
            </Point>
        </Placemark>
        <Placemark id="1579">
            <name>St Mary's Church, Battersea</name>
            <Point id="1578">
                <coordinates>-0.17138,51.47864,0.0</coordinates>
            </Point>
        </Placemark>
        <Placemark id="1581">
            <name>St Pancras Old Church</name>
            <Point id="1580">
                <coordinates>-0.13005,51.53443,0.0</coordinates>
            </Point>
        </Placemark>
        <Placemark id="1583">
            <name>St Paul's, Newington</name>
            <Point id="1582">
                <coordinates>-0.10166,51.48463,0.0</coordinates>
            </Point>
        </Placemark>
        <Placemark id="1585">
            <name>Brentham Garden Suburb</name>
            <Point id="1584">
                <coordinates>-0.309085,51.5287856,0.0</coordinates>
            </Point>
        </Placemark>
        <Placemark id="1587">
            <name>Quaker Meeting House - Brentford &amp; Isleworth</name>
            <Point id="1586">
                <coordinates>-0.3260394,51.4791863,0.0</coordinates>
            </Point>
        </Placemark>
        <Placemark id="1589">
            <name>The Brunel Museum</name>
            <Point id="1588">
                <coordinates>-0.05212,51.50121,0.0</coordinates>
            </Point>
        </Placemark>
        <Placemark id="1591">
            <name>BT Tower</name>
            <Point id="1590">
                <coordinates>-0.13901,51.52139,0.0</coordinates>
            </Point>
        </Placemark>
        <Placemark id="1593">
            <name>Bullers Wood School for Girls</name>
            <Point id="1592">
                <coordinates>0.0449388,51.4082358,0.0</coordinates>
            </Point>
        </Placemark>
        <Placemark id="1595">
            <name>Carpenters' Hall</name>
            <Point id="1594">
                <coordinates>-0.086,51.51667,0.0</coordinates>
            </Point>
        </Placemark>
        <Placemark id="1597">
            <name>Cecil Sharp House</name>
            <Point id="1596">
                <coordinates>-0.1493065,51.5381546,0.0</coordinates>
            </Point>
        </Placemark>
        <Placemark id="1599">
            <name>Highpoint</name>
            <Point id="1598">
                <coordinates>-0.15057,51.57494,0.0</coordinates>
            </Point>
        </Placemark>
        <Placemark id="1601">
            <name>Burlington House: Royal Society of Chemistry</name>
            <Point id="1600">
                <coordinates>-0.1391903,51.50893,0.0</coordinates>
            </Point>
        </Placemark>
        <Placemark id="1603">
            <name>St Martin-in-the-Fields</name>
            <Point id="1602">
                <coordinates>-0.12707,51.50883,0.0</coordinates>
            </Point>
        </Placemark>
        <Placemark id="1605">
            <name>Crown Court Church of Scotland</name>
            <Point id="1604">
                <coordinates>-0.12106,51.51341,0.0</coordinates>
            </Point>
        </Placemark>
        <Placemark id="1607">
            <name>Leadenhall Market</name>
            <Point id="1606">
                <coordinates>-0.08505,51.51207,0.0</coordinates>
            </Point>
        </Placemark>
        <Placemark id="1609">
            <name>Zoroastrian Centre For Europe (formerly Grosvenor Cinema)</name>
            <Point id="1608">
                <coordinates>-0.37068,51.57401,0.0</coordinates>
            </Point>
        </Placemark>
        <Placemark id="1611">
            <name>Leathersellers' Hall</name>
            <Point id="1610">
                <coordinates>-0.08128,51.51516,0.0</coordinates>
            </Point>
        </Placemark>
        <Placemark id="1613">
            <name>Westminster Quaker Meeting House</name>
            <Point id="1612">
                <coordinates>-0.12677,51.51077,0.0</coordinates>
            </Point>
        </Placemark>
        <Placemark id="1615">
            <name>Fairfield Halls</name>
            <Point id="1614">
                <coordinates>-0.09601,51.3722,0.0</coordinates>
            </Point>
        </Placemark>
        <Placemark id="1617">
            <name>Baitul Futuh Mosque</name>
            <Point id="1616">
                <coordinates>-0.1995107,51.3976407,0.0</coordinates>
            </Point>
        </Placemark>
        <Placemark id="1619">
            <name>St Pancras Church &amp; Crypt</name>
            <Point id="1618">
                <coordinates>-0.13075,51.52727,0.0</coordinates>
            </Point>
        </Placemark>
        <Placemark id="1621">
            <name>St Lawrence Jewry</name>
            <Point id="1620">
                <coordinates>-0.0923729,51.51554640000001,0.0</coordinates>
            </Point>
        </Placemark>
        <Placemark id="1623">
            <name>City Information Centre</name>
            <Point id="1622">
                <coordinates>-0.09886,51.5131,0.0</coordinates>
            </Point>
        </Placemark>
        <Placemark id="1625">
            <name>Blackheath Quaker Meeting House</name>
            <Point id="1624">
                <coordinates>0.007056300000000001,51.4650118,0.0</coordinates>
            </Point>
        </Placemark>
        <Placemark id="1627">
            <name>Four Corners</name>
            <Point id="1626">
                <coordinates>-0.0488433,51.52875179999999,0.0</coordinates>
            </Point>
        </Placemark>
        <Placemark id="1629">
            <name>The London Archives</name>
            <Point id="1628">
                <coordinates>-0.10789,51.52497,0.0</coordinates>
            </Point>
        </Placemark>
        <Placemark id="1631">
            <name>Burlington House: Royal Astronomical Society</name>
            <Point id="1630">
                <coordinates>-0.139365,51.5082999,0.0</coordinates>
            </Point>
        </Placemark>
        <Placemark id="1633">
            <name>Lakeside Centre: Open Art Studios</name>
            <Point id="1632">
                <coordinates>0.1242316,51.5009688,0.0</coordinates>
            </Point>
        </Placemark>
        <Placemark id="1635">
            <name>St Patrick's Church</name>
            <Point id="1634">
                <coordinates>0.09542,51.53441,0.0</coordinates>
            </Point>
        </Placemark>
        <Placemark id="1637">
            <name>Hermitage Community Moorings</name>
            <Point id="1636">
                <coordinates>-0.0665883,51.5044166,0.0</coordinates>
            </Point>
        </Placemark>
        <Placemark id="1639">
            <name>A Ruskinian Walk Through Shared Heritage</name>
            <Point id="1638">
                <coordinates>-0.27587,51.49461,0.0</coordinates>
            </Point>
        </Placemark>
        <Placemark id="1641">
            <name>Burlington House: The Geological Society of London</name>
            <Point id="1640">
                <coordinates>-0.13875,51.50869,0.0</coordinates>
            </Point>
        </Placemark>
        <Placemark id="1643">
            <name>Dalston Eastern Curve Garden</name>
            <Point id="1642">
                <coordinates>-0.0733723,51.5469316,0.0</coordinates>
            </Point>
        </Placemark>
        <Placemark id="1645">
            <name>Romanian Cultural Institute</name>
            <Point id="1644">
                <coordinates>-0.1539844,51.500248,0.0</coordinates>
            </Point>
        </Placemark>
        <Placemark id="1647">
            <name>Christ Church Southgate and the Minchenden Oak Garden</name>
            <Point id="1646">
                <coordinates>-0.12838,51.62466,0.0</coordinates>
            </Point>
        </Placemark>
        <Placemark id="1649">
            <name>Our Lady of the Assumption Church</name>
            <Point id="1648">
                <coordinates>-0.0536863,51.5283145,0.0</coordinates>
            </Point>
        </Placemark>
        <Placemark id="1651">
            <name>St Anne's Church, Kew Green</name>
            <Point id="1650">
                <coordinates>-0.28954,51.48394,0.0</coordinates>
            </Point>
        </Placemark>
        <Placemark id="1653">
            <name>Museum of the Order of St John</name>
            <Point id="1652">
                <coordinates>-0.102746,51.5219889,0.0</coordinates>
            </Point>
        </Placemark>
        <Placemark id="1655">
            <name>Billingsgate Roman House &amp; Baths</name>
            <Point id="1654">
                <coordinates>-0.08305,51.50928,0.0</coordinates>
            </Point>
        </Placemark>
        <Placemark id="1657">
            <name>The Clockworks</name>
            <Point id="1656">
                <coordinates>-0.10448,51.43295,0.0</coordinates>
            </Point>
        </Placemark>
        <Placemark id="1659">
            <name>St Mary Magdalene</name>
            <Point id="1658">
                <coordinates>-0.30158,51.46024,0.0</coordinates>
            </Point>
        </Placemark>
        <Placemark id="1661">
            <name>Royal College of Nursing</name>
            <Point id="1660">
                <coordinates>-0.1457657,51.5160929,0.0</coordinates>
            </Point>
        </Placemark>
        <Placemark id="1663">
            <name>Guildhall Library</name>
            <Point id="1662">
                <coordinates>-0.09265029999999999,51.5161211,0.0</coordinates>
            </Point>
        </Placemark>
        <Placemark id="1665">
            <name>St Anne's Church, Limehouse</name>
            <Point id="1664">
                <coordinates>-0.03039,51.5107,0.0</coordinates>
            </Point>
        </Placemark>
        <Placemark id="1667">
            <name>St Bonifatius RC German Church</name>
            <Point id="1666">
                <coordinates>-0.06727,51.51579,0.0</coordinates>
            </Point>
        </Placemark>
        <Placemark id="1669">
            <name>Kaymet Factory</name>
            <Point id="1668">
                <coordinates>-0.0710449,51.48474239999999,0.0</coordinates>
            </Point>
        </Placemark>
        <Placemark id="1671">
            <name>Phoenix Gardens Community Building</name>
            <Point id="1670">
                <coordinates>-0.1285292,51.5144001,0.0</coordinates>
            </Point>
        </Placemark>
        <Placemark id="1673">
            <name>Blackhorse Workshop</name>
            <Point id="1672">
                <coordinates>-0.03902129999999999,51.59183840000001,0.0</coordinates>
            </Point>
        </Placemark>
        <Placemark id="1675">
            <name>The Priory and Old Library, Orpington</name>
            <Point id="1674">
                <coordinates>0.10407,51.37865,0.0</coordinates>
            </Point>
        </Placemark>
        <Placemark id="1677">
            <name>Shrewsbury House</name>
            <Point id="1676">
                <coordinates>0.07305,51.47355,0.0</coordinates>
            </Point>
        </Placemark>
        <Placemark id="1679">
            <name>Royal College of Pharmacy Museum</name>
            <Point id="1678">
                <coordinates>-0.06841,51.50898,0.0</coordinates>
            </Point>
        </Placemark>
        <Placemark id="1681">
            <name>Aga Khan Centre</name>
            <Point id="1680">
                <coordinates>-0.1248,51.53757,0.0</coordinates>
            </Point>
        </Placemark>
        <Placemark id="1683">
            <name>King's College London: Museum of Life Sciences</name>
            <Point id="1682">
                <coordinates>-0.08944,51.50305,0.0</coordinates>
            </Point>
        </Placemark>
        <Placemark id="1685">
            <name>Embassy of the Republic of Poland</name>
            <Point id="1684">
                <coordinates>-0.14556,51.52081,0.0</coordinates>
            </Point>
        </Placemark>
        <Placemark id="1687">
            <name>St Alphege Church, Edmonton</name>
            <Point id="1686">
                <coordinates>-0.05327,51.63397,0.0</coordinates>
            </Point>
        </Placemark>
        <Placemark id="1689">
            <name>St Michael and All Angels Church</name>
            <Point id="1688">
                <coordinates>-0.02968,51.58545,0.0</coordinates>
            </Point>
        </Placemark>
        <Placemark id="1691">
            <name>Tuckey Design Studio</name>
            <Point id="1690">
                <coordinates>-0.21419,51.49872,0.0</coordinates>
            </Point>
        </Placemark>
        <Placemark id="1693">
            <name>English National Ballet</name>
            <Point id="1692">
                <coordinates>0.0061236,51.5129037,0.0</coordinates>
            </Point>
        </Placemark>
        <Placemark id="1695">
            <name>Our Yard at Clitterhouse Farm</name>
            <Point id="1694">
                <coordinates>-0.21653,51.56693,0.0</coordinates>
            </Point>
        </Placemark>
        <Placemark id="1697">
            <name>Founders' Hall</name>
            <Point id="1696">
                <coordinates>-0.0990206,51.5192561,0.0</coordinates>
            </Point>
        </Placemark>
        <Placemark id="1699">
            <name>Coopers' Hall</name>
            <Point id="1698">
                <coordinates>-0.07922,51.5168,0.0</coordinates>
            </Point>
        </Placemark>
        <Placemark id="1701">
            <name>Trent Park: House of Secrets</name>
            <Point id="1700">
                <coordinates>-0.135,51.66005,0.0</coordinates>
            </Point>
        </Placemark>
        <Placemark id="1703">
            <name>Holy Cross Church, Cromer Street</name>
            <Point id="1702">
                <coordinates>-0.1235712,51.5275753,0.0</coordinates>
            </Point>
        </Placemark>
        <Placemark id="1705">
            <name>Lansbury Lawrence Primary School</name>
            <Point id="1704">
                <coordinates>-0.01703,51.51349,0.0</coordinates>
            </Point>
        </Placemark>
        <Placemark id="1707">
            <name>Slavery and the City</name>
            <Point id="1706">
                <coordinates>-0.09755699999999999,51.5148819,0.0</coordinates>
            </Point>
        </Placemark>
        <Placemark id="1709">
            <name>Crystal Palace Park Dinosaurs  – a tour with a London Blue Badge Tourist Guide</name>
            <Point id="1708">
                <coordinates>-0.07257999999999999,51.41811000000001,0.0</coordinates>
            </Point>
        </Placemark>
        <Placemark id="1711">
            <name>Glenkerry House</name>
            <Point id="1710">
                <coordinates>-0.0108145,51.5141859,0.0</coordinates>
            </Point>
        </Placemark>
        <Placemark id="1713">
            <name>Sands End Arts &amp; Community Centre</name>
            <Point id="1712">
                <coordinates>-0.19681,51.46974,0.0</coordinates>
            </Point>
        </Placemark>
        <Placemark id="1715">
            <name>St Bride's Church, Fleet Street</name>
            <Point id="1714">
                <coordinates>-0.10554,51.51376,0.0</coordinates>
            </Point>
        </Placemark>
        <Placemark id="1717">
            <name>RC Church of St Mellitus</name>
            <Point id="1716">
                <coordinates>-0.1132266,51.5673623,0.0</coordinates>
            </Point>
        </Placemark>
        <Placemark id="1719">
            <name>Boston Manor House</name>
            <Point id="1718">
                <coordinates>-0.3183739,51.49191829999999,0.0</coordinates>
            </Point>
        </Placemark>
        <Placemark id="1721">
            <name>The Great Fire of London</name>
            <Point id="1720">
                <coordinates>-0.09212,51.5151,0.0</coordinates>
            </Point>
        </Placemark>
        <Placemark id="1723">
            <name>Historic &amp; Modern Buildings in the City</name>
            <Point id="1722">
                <coordinates>-0.09204,51.51543,0.0</coordinates>
            </Point>
        </Placemark>
        <Placemark id="1725">
            <name>Quentin Blake Centre for Illustration - New River Head</name>
            <Point id="1724">
                <coordinates>-0.1099428,51.528361,0.0</coordinates>
            </Point>
        </Placemark>
        <Placemark id="1727">
            <name>12 Church Grove</name>
            <Point id="1726">
                <coordinates>-0.0171736,51.4573883,0.0</coordinates>
            </Point>
        </Placemark>
        <Placemark id="1729">
            <name>Fleet Street Heritage Wall and Sundial</name>
            <Point id="1728">
                <coordinates>-0.1080343,51.51412879999999,0.0</coordinates>
            </Point>
        </Placemark>
        <Placemark id="1731">
            <name>Olden Community Garden</name>
            <Point id="1730">
                <coordinates>-0.1044575,51.5523926,0.0</coordinates>
            </Point>
        </Placemark>
        <Placemark id="1733">
            <name>Soho Photography Quarter</name>
            <Point id="1732">
                <coordinates>-0.1390767,51.51496789999999,0.0</coordinates>
            </Point>
        </Placemark>
        <Placemark id="1735">
            <name>Jacksons Lane Arts Centre</name>
            <Point id="1734">
                <coordinates>-0.1454343,51.5765813,0.0</coordinates>
            </Point>
        </Placemark>
        <Placemark id="1737">
            <name>Thornhill Square</name>
            <Point id="1736">
                <coordinates>-0.11595,51.54089,0.0</coordinates>
            </Point>
        </Placemark>
        <Placemark id="1739">
            <name>London's Roman Amphitheatre</name>
            <Point id="1738">
                <coordinates>-0.0914547,51.5155471,0.0</coordinates>
            </Point>
        </Placemark>
        <Placemark id="1741">
            <name>People's Museum Somers Town</name>
            <Point id="1740">
                <coordinates>-0.13095,51.53106,0.0</coordinates>
            </Point>
        </Placemark>
        <Placemark id="1743">
            <name>Art in Perpetuity Trust</name>
            <Point id="1742">
                <coordinates>-0.02099,51.47686,0.0</coordinates>
            </Point>
        </Placemark>
        <Placemark id="1745">
            <name>Muswell Hill Baptist Church</name>
            <Point id="1744">
                <coordinates>-0.1411344,51.5916775,0.0</coordinates>
            </Point>
        </Placemark>
        <Placemark id="1747">
            <name>From Forest to Morris: A walk around Walthamstow</name>
            <Point id="1746">
                <coordinates>-0.0194102,51.5828202,0.0</coordinates>
            </Point>
        </Placemark>
        <Placemark id="1749">
            <name>Fruit to Fashion: how a kitchen garden became a world famous piazza</name>
            <Point id="1748">
                <coordinates>-0.1224538,51.51146319999999,0.0</coordinates>
            </Point>
        </Placemark>
        <Placemark id="1751">
            <name>St John the Evangelist, Upper Norwood</name>
            <Point id="1750">
                <coordinates>-0.07931,51.41148,0.0</coordinates>
            </Point>
        </Placemark>
        <Placemark id="1753">
            <name>London Open Form Pavilion of Air</name>
            <Point id="1752">
                <coordinates>-0.17464,51.50466,0.0</coordinates>
            </Point>
        </Placemark>
        <Placemark id="1755">
            <name>Cody Dock - Lea Way Celebration</name>
            <Point id="1754">
                <coordinates>-0.00173,51.51929,0.0</coordinates>
            </Point>
        </Placemark>
        <Placemark id="1757">
            <name>Church of St Andrew the Apostle</name>
            <Point id="1756">
                <coordinates>-0.00156,51.44193,0.0</coordinates>
            </Point>
        </Placemark>
        <Placemark id="1759">
            <name>Beck Road Studios: Artist Open Studios &amp; Exhibitions</name>
            <Point id="1758">
                <coordinates>-0.05804,51.53687,0.0</coordinates>
            </Point>
        </Placemark>
        <Placemark id="1761">
            <name>The Barbican &amp; The City Gardens</name>
            <Point id="1760">
                <coordinates>-0.09194,51.51543,0.0</coordinates>
            </Point>
        </Placemark>
        <Placemark id="1763">
            <name>The London Centre</name>
            <Point id="1762">
                <coordinates>-0.09292,51.51606,0.0</coordinates>
            </Point>
        </Placemark>
        <Placemark id="1765">
            <name>Museum of Croydon Behind the Scenes Tour</name>
            <Point id="1764">
                <coordinates>-0.09939,51.37226,0.0</coordinates>
            </Point>
        </Placemark>
        <Placemark id="1767">
            <name>Lewisham Arthouse</name>
            <Point id="1766">
                <coordinates>-0.03076,51.4715,0.0</coordinates>
            </Point>
        </Placemark>
        <Placemark id="1769">
            <name>Morris+Company | 'Waste Not: Materials, Making and the Circular Economy' Exhibition</name>
            <Point id="1768">
                <coordinates>-0.05552,51.54152,0.0</coordinates>
            </Point>
        </Placemark>
        <Placemark id="1771">
            <name>West Wickham Library</name>
            <Point id="1770">
                <coordinates>-0.01397,51.37585,0.0</coordinates>
            </Point>
        </Placemark>
        <Placemark id="1773">
            <name>Sitopia Farm</name>
            <Point id="1772">
                <coordinates>0.07925,51.46739,0.0</coordinates>
            </Point>
        </Placemark>
        <Placemark id="1775">
            <name>The Annunciation Marble Arch</name>
            <Point id="1774">
                <coordinates>-0.15858,51.5144,0.0</coordinates>
            </Point>
        </Placemark>
        <Placemark id="1777">
            <name>Brick Sixty Studio</name>
            <Point id="1776">
                <coordinates>-0.03435,51.53216,0.0</coordinates>
            </Point>
        </Placemark>
        <Placemark id="1779">
            <name>The Old Fire Station Community Centre N16</name>
            <Point id="1778">
                <coordinates>-0.07325,51.56055,0.0</coordinates>
            </Point>
        </Placemark>
        <Placemark id="1781">
            <name>St Mark's Church, Biggin Hill</name>
            <Point id="1780">
                <coordinates>0.03515,51.31178,0.0</coordinates>
            </Point>
        </Placemark>
        <Placemark id="1783">
            <name>Old Admiralty Building (OAB)</name>
            <Point id="1782">
                <coordinates>-0.1282,51.50693,0.0</coordinates>
            </Point>
        </Placemark>
        <Placemark id="1785">
            <name>Inner Space Meditation Centre, Covent Garden</name>
            <Point id="1784">
                <coordinates>-0.12523,51.51459,0.0</coordinates>
            </Point>
        </Placemark>
        <Placemark id="1787">
            <name>Georgian Clerkenwell's speculative housing boom</name>
            <Point id="1786">
                <coordinates>-0.10605,51.52956,0.0</coordinates>
            </Point>
        </Placemark>
        <Placemark id="1789">
            <name>The Butcher, The Baker and The Candlestick Maker</name>
            <Point id="1788">
                <coordinates>-0.09183999999999999,51.51543,0.0</coordinates>
            </Point>
        </Placemark>
        <Placemark id="1791">
            <name>University of East London - Architecture and Visual Art</name>
            <Point id="1790">
                <coordinates>0.06417,51.50736,0.0</coordinates>
            </Point>
        </Placemark>
        <Placemark id="1793">
            <name>Myddelton House Gardens</name>
            <Point id="1792">
                <coordinates>-0.06078,51.67527,0.0</coordinates>
            </Point>
        </Placemark>
        <Placemark id="1795">
            <name>The Old Fire Station</name>
            <Point id="1794">
                <coordinates>-0.11725,51.55854,0.0</coordinates>
            </Point>
        </Placemark>
        <Placemark id="1797">
            <name>Triangle House</name>
            <Point id="1796">
                <coordinates>-0.19943,51.55031,0.0</coordinates>
            </Point>
        </Placemark>
        <Placemark id="1799">
            <name>St Margaret's Parish  Church Barking</name>
            <Point id="1798">
                <coordinates>0.07587,51.53557,0.0</coordinates>
            </Point>
        </Placemark>
        <Placemark id="1801">
            <name>Farmers and Fletchers' Hall</name>
            <Point id="1800">
                <coordinates>-0.09798,51.51981,0.0</coordinates>
            </Point>
        </Placemark>
        <Placemark id="1803">
            <name>Croydon Urban Room</name>
            <Point id="1802">
                <coordinates>-0.10075,51.37522,0.0</coordinates>
            </Point>
        </Placemark>
        <Placemark id="1805">
            <name>St. George Villa</name>
            <Point id="1804">
                <coordinates>-0.00502,51.58036,0.0</coordinates>
            </Point>
        </Placemark>
        <Placemark id="1807">
            <name>Architectural Walk in Brockley</name>
            <Point id="1806">
                <coordinates>-0.03007,51.47099,0.0</coordinates>
            </Point>
        </Placemark>
        <Placemark id="1809">
            <name>44 Monsell Road</name>
            <Point id="1808">
                <coordinates>-0.1039,51.56033,0.0</coordinates>
            </Point>
        </Placemark>
        <Placemark id="1811">
            <name>Station Lodge</name>
            <Point id="1810">
                <coordinates>-0.2383,51.39618,0.0</coordinates>
            </Point>
        </Placemark>
        <Placemark id="1813">
            <name>Islington New River walking tour</name>
            <Point id="1812">
                <coordinates>-0.09209,51.54868,0.0</coordinates>
            </Point>
        </Placemark>
        <Placemark id="1815">
            <name>Devil’s Botany Distillery</name>
            <Point id="1814">
                <coordinates>-0.03101,51.56937,0.0</coordinates>
            </Point>
        </Placemark>
        <Placemark id="1817">
            <name>Cumberland Road Studios, Wood Green</name>
            <Point id="1816">
                <coordinates>-0.11274,51.59726,0.0</coordinates>
            </Point>
        </Placemark>
        <Placemark id="1819">
            <name>Art and architecture in Thamesmead</name>
            <Point id="1818">
                <coordinates>0.12163,51.49115,0.0</coordinates>
            </Point>
        </Placemark>
        <Placemark id="1821">
            <name>Georgian Grafton Street: Sprüth Magers Gallery</name>
            <Point id="1820">
                <coordinates>-0.14383,51.50994,0.0</coordinates>
            </Point>
        </Placemark>
        <Placemark id="1823">
            <name>outhouse gallery</name>
            <Point id="1822">
                <coordinates>-0.08556,51.4755,0.0</coordinates>
            </Point>
        </Placemark>
        <Placemark id="1825">
            <name>Lost Aldwych</name>
            <Point id="1824">
                <coordinates>-0.11365,51.51094,0.0</coordinates>
            </Point>
        </Placemark>
        <Placemark id="1827">
            <name>Warehouse Art Collective</name>
            <Point id="1826">
                <coordinates>-0.08742,51.57644,0.0</coordinates>
            </Point>
        </Placemark>
        <Placemark id="1829">
            <name>St Marks Schoolhouse</name>
            <Point id="1828">
                <coordinates>-0.16983,51.4605,0.0</coordinates>
            </Point>
        </Placemark>
        <Placemark id="1831">
            <name>The John Morden Centre and Morden College Almshouses</name>
            <Point id="1830">
                <coordinates>0.01951,51.46952,0.0</coordinates>
            </Point>
        </Placemark>
        <Placemark id="1833">
            <name>Explore the authentically recreated Colony Room</name>
            <Point id="1832">
                <coordinates>-0.13932,51.51092,0.0</coordinates>
            </Point>
        </Placemark>
        <Placemark id="1835">
            <name>The Arches</name>
            <Point id="1834">
                <coordinates>-0.05733,51.53685,0.0</coordinates>
            </Point>
        </Placemark>
        <Placemark id="1837">
            <name>Memorial Community Church</name>
            <Point id="1836">
                <coordinates>0.02405,51.52302,0.0</coordinates>
            </Point>
        </Placemark>
        <Placemark id="1839">
            <name>Drawing Matter</name>
            <Point id="1838">
                <coordinates>-0.12269,51.5163,0.0</coordinates>
            </Point>
        </Placemark>
        <Placemark id="1841">
            <name>St Alban the Martyr, South Norwood</name>
            <Point id="1840">
                <coordinates>-0.09295,51.39877,0.0</coordinates>
            </Point>
        </Placemark>
        <Placemark id="1843">
            <name>The King's Foundation - Charlotte Road</name>
            <Point id="1842">
                <coordinates>-0.08132,51.5257,0.0</coordinates>
            </Point>
        </Placemark>
        <Placemark id="1845">
            <name>Queer Britain</name>
            <Point id="1844">
                <coordinates>-0.12392,51.53568,0.0</coordinates>
            </Point>
        </Placemark>
        <Placemark id="1847">
            <name>A IS FOR ARCHITECTURE - 493 Hackney Road</name>
            <Point id="1846">
                <coordinates>-0.05868,51.53245,0.0</coordinates>
            </Point>
        </Placemark>
        <Placemark id="1849">
            <name>Regent's Park Estate Story Trail  Guided Tour</name>
            <Point id="1848">
                <coordinates>-0.14035,51.52583,0.0</coordinates>
            </Point>
        </Placemark>
        <Placemark id="1851">
            <name>David Lean Cinema Tour</name>
            <Point id="1850">
                <coordinates>-0.09929,51.37226,0.0</coordinates>
            </Point>
        </Placemark>
        <Placemark id="1853">
            <name>New Fauconberg Cottage</name>
            <Point id="1852">
                <coordinates>-0.27213,51.4867,0.0</coordinates>
            </Point>
        </Placemark>
        <Placemark id="1855">
            <name>All's well in Camberwell: walking London's local government history</name>
            <Point id="1854">
                <coordinates>-0.09235,51.47486,0.0</coordinates>
            </Point>
        </Placemark>
        <Placemark id="1857">
            <name>The Crafted Environment: Merton Abbey Mills</name>
            <Point id="1856">
                <coordinates>-0.18355,51.41297,0.0</coordinates>
            </Point>
        </Placemark>
        <Placemark id="1859">
            <name>Tooting Bec House</name>
            <Point id="1858">
                <coordinates>-0.15937,51.43738,0.0</coordinates>
            </Point>
        </Placemark>
        <Placemark id="1861">
            <name>Garage Gallery E17</name>
            <Point id="1860">
                <coordinates>-0.01252,51.58081,0.0</coordinates>
            </Point>
        </Placemark>
        <Placemark id="1863">
            <name>London Aquatics Centre</name>
            <Point id="1862">
                <coordinates>-0.01055,51.54018,0.0</coordinates>
            </Point>
        </Placemark>
        <Placemark id="1865">
            <name>St Mary &amp; St Joseph Roman Catholic Church, Poplar</name>
            <Point id="1864">
                <coordinates>-0.02052,51.51203,0.0</coordinates>
            </Point>
        </Placemark>
        <Placemark id="1867">
            <name>One Paved Court</name>
            <Point id="1866">
                <coordinates>-0.30658,51.46039,0.0</coordinates>
            </Point>
        </Placemark>
        <Placemark id="1869">
            <name>9 Wavell Court, Croydon</name>
            <Point id="1868">
                <coordinates>-0.07964,51.37633,0.0</coordinates>
            </Point>
        </Placemark>
        <Placemark id="1871">
            <name>St Mary's Church Harrow on the Hill</name>
            <Point id="1870">
                <coordinates>-0.33726,51.57411,0.0</coordinates>
            </Point>
        </Placemark>
        <Placemark id="1873">
            <name>Broadway Theatre</name>
            <Point id="1872">
                <coordinates>-0.02038,51.44531,0.0</coordinates>
            </Point>
        </Placemark>
        <Placemark id="1875">
            <name>The Purpose of Light: Exhibition by Misan Harriman</name>
            <Point id="1874">
                <coordinates>-0.13826,51.51651,0.0</coordinates>
            </Point>
        </Placemark>
        <Placemark id="1877">
            <name>TOMA House + Studio</name>
            <Point id="1876">
                <coordinates>0.03201,51.5537,0.0</coordinates>
            </Point>
        </Placemark>
        <Placemark id="1879">
            <name>Christ's Chapel of God's Gift at Dulwich</name>
            <Point id="1878">
                <coordinates>-0.08643,51.44632,0.0</coordinates>
            </Point>
        </Placemark>
        <Placemark id="1881">
            <name>Castlands Road</name>
            <Point id="1880">
                <coordinates>-0.03279,51.43557,0.0</coordinates>
            </Point>
        </Placemark>
        <Placemark id="1883">
            <name>Water Lane Building - Trigon Fire Safety</name>
            <Point id="1882">
                <coordinates>-0.30656,51.4596,0.0</coordinates>
            </Point>
        </Placemark>
        <Placemark id="1885">
            <name>Paekakariki Press</name>
            <Point id="1884">
                <coordinates>-0.02127,51.58806,0.0</coordinates>
            </Point>
        </Placemark>
        <Placemark id="1887">
            <name>25 Brunswick Street</name>
            <Point id="1886">
                <coordinates>-0.00859,51.58183,0.0</coordinates>
            </Point>
        </Placemark>
        <Placemark id="1889">
            <name>Mycenae House and Gardens</name>
            <Point id="1888">
                <coordinates>0.01631,51.47963,0.0</coordinates>
            </Point>
        </Placemark>
        <Placemark id="1891">
            <name>Christ Lutheran Church, Petts Wood</name>
            <Point id="1890">
                <coordinates>0.09517,51.39046,0.0</coordinates>
            </Point>
        </Placemark>
        <Placemark id="1893">
            <name>Piccadilly Rocks!</name>
            <Point id="1892">
                <coordinates>-0.13933,51.50858,0.0</coordinates>
            </Point>
        </Placemark>
        <Placemark id="1895">
            <name>Strongroom</name>
            <Point id="1894">
                <coordinates>-0.08011,51.52596,0.0</coordinates>
            </Point>
        </Placemark>
        <Placemark id="1897">
            <name>The St Michael Steiner School</name>
            <Point id="1896">
                <coordinates>-0.39635,51.43436,0.0</coordinates>
            </Point>
        </Placemark>
        <Placemark id="1899">
            <name>1 Pontypool Place</name>
            <Point id="1898">
                <coordinates>-0.10591,51.50192,0.0</coordinates>
            </Point>
        </Placemark>
        <Placemark id="1901">
            <name>Mulberry Academy London Dock</name>
            <Point id="1900">
                <coordinates>-0.06569,51.50905,0.0</coordinates>
            </Point>
        </Placemark>
        <Placemark id="1903">
            <name>Herne Hill Velodrome</name>
            <Point id="1902">
                <coordinates>-0.09099,51.45121,0.0</coordinates>
            </Point>
        </Placemark>
        <Placemark id="1905">
            <name>141 Coldershaw Road, W13</name>
            <Point id="1904">
                <coordinates>-0.32522,51.50504,0.0</coordinates>
            </Point>
        </Placemark>
        <Placemark id="1907">
            <name>Wapping Hydraulic Power Station</name>
            <Point id="1906">
                <coordinates>-0.05187,51.50749,0.0</coordinates>
            </Point>
        </Placemark>
        <Placemark id="1909">
            <name>ACAVA Camden Undercraft Studios</name>
            <Point id="1908">
                <coordinates>-0.15496,51.55286,0.0</coordinates>
            </Point>
        </Placemark>
        <Placemark id="1911">
            <name>The Catford House</name>
            <Point id="1910">
                <coordinates>-0.02266,51.44527,0.0</coordinates>
            </Point>
        </Placemark>
        <Placemark id="1913">
            <name>Revolution, Reform and Regeneration: Somers Town Tours</name>
            <Point id="1912">
                <coordinates>-0.12874,51.53159,0.0</coordinates>
            </Point>
        </Placemark>
        <Placemark id="1915">
            <name>What makes a good school?</name>
            <Point id="1914">
                <coordinates>-0.05656,51.49523,0.0</coordinates>
            </Point>
        </Placemark>
        <Placemark id="1917">
            <name>Bodney Road Studios</name>
            <Point id="1916">
                <coordinates>-0.06106,51.55002,0.0</coordinates>
            </Point>
        </Placemark>
        <Placemark id="1919">
            <name>Lorenzo Zandri - Urban Narrative</name>
            <Point id="1918">
                <coordinates>-0.06096,51.55002,0.0</coordinates>
            </Point>
        </Placemark>
        <Placemark id="1921">
            <name>UAL School of pre-degree studies at 40 Lime Grove</name>
            <Point id="1920">
                <coordinates>-0.22823,51.50367,0.0</coordinates>
            </Point>
        </Placemark>
        <Placemark id="1923">
            <name>Migration tales: Local heroes in Hornsey and Crouch End</name>
            <Point id="1922">
                <coordinates>-0.12671,51.57485,0.0</coordinates>
            </Point>
        </Placemark>
        <Placemark id="1925">
            <name>Birds Portchmouth Russum Architects  - Open Office</name>
            <Point id="1924">
                <coordinates>-0.09498,51.53226,0.0</coordinates>
            </Point>
        </Placemark>
        <Placemark id="1927">
            <name>18 Lauradale Road</name>
            <Point id="1926">
                <coordinates>-0.15351,51.58844,0.0</coordinates>
            </Point>
        </Placemark>
        <Placemark id="1929">
            <name>St Paul's Church, Winchmore Hill</name>
            <Point id="1928">
                <coordinates>-0.10593,51.63546,0.0</coordinates>
            </Point>
        </Placemark>
        <Placemark id="1931">
            <name>Unit 13</name>
            <Point id="1930">
                <coordinates>-0.05639,51.54066,0.0</coordinates>
            </Point>
        </Placemark>
        <Placemark id="1933">
            <name>Morden Extension Centenary: Tours</name>
            <Point id="1932">
                <coordinates>-0.13835,51.46178,0.0</coordinates>
            </Point>
        </Placemark>
        <Placemark id="1935">
            <name>6 Fitzroy Square, The Georgian Group</name>
            <Point id="1934">
                <coordinates>-0.13954,51.52331,0.0</coordinates>
            </Point>
        </Placemark>
        <Placemark id="1937">
            <name>St Aldhelm's Church, Edmonton - an overlooked gem</name>
            <Point id="1936">
                <coordinates>-0.08045,51.61685,0.0</coordinates>
            </Point>
        </Placemark>
        <Placemark id="1939">
            <name>County Hall Kingston</name>
            <Point id="1938">
                <coordinates>-0.30416,51.40435,0.0</coordinates>
            </Point>
        </Placemark>
        <Placemark id="1941">
            <name>Royalty Studios - Building Tours by Architect</name>
            <Point id="1940">
                <coordinates>-0.21026,51.51657,0.0</coordinates>
            </Point>
        </Placemark>
        <Placemark id="1943">
            <name>Sacred Heart High School, 212 Hammersmith Road, W6 7DG</name>
            <Point id="1942">
                <coordinates>-0.22307,51.49349,0.0</coordinates>
            </Point>
        </Placemark>
        <Placemark id="1945">
            <name>2 Belgrave Road: Victorian house with Luis Barragán inspired interior</name>
            <Point id="1944">
                <coordinates>-0.02119,51.57916,0.0</coordinates>
            </Point>
        </Placemark>
        <Placemark id="1947">
            <name>Straw-ctural Designers</name>
            <Point id="1946">
                <coordinates>-0.11904,51.53474,0.0</coordinates>
            </Point>
        </Placemark>
        <Placemark id="1949">
            <name>Women of learning and law on the Strand</name>
            <Point id="1948">
                <coordinates>-0.11889,51.51181,0.0</coordinates>
            </Point>
        </Placemark>
        <Placemark id="1951">
            <name>St Peter’s Church</name>
            <Point id="1950">
                <coordinates>-0.09527,51.36352,0.0</coordinates>
            </Point>
        </Placemark>
        <Placemark id="1953">
            <name>String House - Camberwell</name>
            <Point id="1952">
                <coordinates>-0.08554,51.46614,0.0</coordinates>
            </Point>
        </Placemark>
        <Placemark id="1955">
            <name>Making public spaces and making spaces public</name>
            <Point id="1954">
                <coordinates>-0.08802,51.51351,0.0</coordinates>
            </Point>
        </Placemark>
        <Placemark id="1957">
            <name>Life and debt in Southwark</name>
            <Point id="1956">
                <coordinates>-0.09244,51.50179,0.0</coordinates>
            </Point>
        </Placemark>
        <Placemark id="1959">
            <name>Forgotten stories at Ally Pally: Empire, Commonwealth and hidden histories</name>
            <Point id="1958">
                <coordinates>-0.13081,51.59423,0.0</coordinates>
            </Point>
        </Placemark>
        <Placemark id="1961">
            <name>Alexandra Palace: Mindful walking and drawing tour</name>
            <Point id="1960">
                <coordinates>-0.13071000000000002,51.59423,0.0</coordinates>
            </Point>
        </Placemark>
        <Placemark id="1963">
            <name>From Elephant to Peckham</name>
            <Point id="1962">
                <coordinates>-0.0985,51.49401,0.0</coordinates>
            </Point>
        </Placemark>
        <Placemark id="1965">
            <name>Vyner Studios</name>
            <Point id="1964">
                <coordinates>-0.05478,51.53486,0.0</coordinates>
            </Point>
        </Placemark>
        <Placemark id="1967">
            <name>The Evolution of Eye Care: Museum Tour</name>
            <Point id="1966">
                <coordinates>-0.13553,51.5264,0.0</coordinates>
            </Point>
        </Placemark>
        <Placemark id="1969">
            <name>Artist Niamh Hannaford at One North Quay Canary Wharf</name>
            <Point id="1968">
                <coordinates>-0.02641,51.50562,0.0</coordinates>
            </Point>
        </Placemark>
        <Placemark id="1971">
            <name>Gongoozlers of Regent's Canal &amp; Victoria Park</name>
            <Point id="1970">
                <coordinates>-0.04929,51.53334,0.0</coordinates>
            </Point>
        </Placemark>
        <Placemark id="1973">
            <name>Green Lodge</name>
            <Point id="1972">
                <coordinates>-0.23711,51.45098,0.0</coordinates>
            </Point>
        </Placemark>
        <Placemark id="1975">
            <name>The Story of Housing in Hackney: A Guided Walking Tour</name>
            <Point id="1974">
                <coordinates>-0.07606,51.53023,0.0</coordinates>
            </Point>
        </Placemark>
        <Placemark id="1977">
            <name>Bermondsey to Borough: hidden arches food walk</name>
            <Point id="1976">
                <coordinates>-0.06446,51.49811,0.0</coordinates>
            </Point>
        </Placemark>
        <Placemark id="1979">
            <name>Easi-house</name>
            <Point id="1978">
                <coordinates>-0.06973,51.46486,0.0</coordinates>
            </Point>
        </Placemark>
        <Placemark id="1981">
            <name>Gothic Lodge Garden</name>
            <Point id="1980">
                <coordinates>-0.09692,51.43606,0.0</coordinates>
            </Point>
        </Placemark>
        <Placemark id="1983">
            <name>Former Carbonic Gas Works, 142 Lea Bridge Road</name>
            <Point id="1982">
                <coordinates>-0.04632,51.56146,0.0</coordinates>
            </Point>
        </Placemark>
        <Placemark id="1985">
            <name>Cultivating Community - LightHouse Gardens &amp; IQL North</name>
            <Point id="1984">
                <coordinates>-0.0077,51.54589,0.0</coordinates>
            </Point>
        </Placemark>
        <Placemark id="1987">
            <name>Plaistow Hub</name>
            <Point id="1986">
                <coordinates>0.01781,51.53117,0.0</coordinates>
            </Point>
        </Placemark>
        <Placemark id="1989">
            <name>Jubilee Hall Parsonage Lane</name>
            <Point id="1988">
                <coordinates>-0.08698,51.65944,0.0</coordinates>
            </Point>
        </Placemark>
        <Placemark id="1991">
            <name>St Olave Hart Street</name>
            <Point id="1990">
                <coordinates>-0.07946,51.51094,0.0</coordinates>
            </Point>
        </Placemark>
        <Placemark id="1993">
            <name>Blythe Hill House</name>
            <Point id="1992">
                <coordinates>-0.03677,51.44602,0.0</coordinates>
            </Point>
        </Placemark>
        <Placemark id="1995">
            <name>The Print House</name>
            <Point id="1994">
                <coordinates>-0.07469,51.54693,0.0</coordinates>
            </Point>
        </Placemark>
        <Placemark id="1997">
            <name>Southlands Arts Centre</name>
            <Point id="1996">
                <coordinates>-0.47577,51.50154,0.0</coordinates>
            </Point>
        </Placemark>
        <Placemark id="1999">
            <name>William Mitchell's Mural at Brooklands Primary School</name>
            <Point id="1998">
                <coordinates>0.01855,51.4639,0.0</coordinates>
            </Point>
        </Placemark>
        <Placemark id="2001">
            <name>Flavours of Royal Docks: Food, Architecture &amp; Memory</name>
            <Point id="2000">
                <coordinates>0.01625,51.50731,0.0</coordinates>
            </Point>
        </Placemark>
        <Placemark id="2003">
            <name>The Ragged School SE1</name>
            <Point id="2002">
                <coordinates>-0.09399,51.5037,0.0</coordinates>
            </Point>
        </Placemark>
        <Placemark id="2005">
            <name>Ibraaz</name>
            <Point id="2004">
                <coordinates>-0.14195,51.51741,0.0</coordinates>
            </Point>
        </Placemark>
        <Placemark id="2007">
            <name>MEplace Nursery Islington</name>
            <Point id="2006">
                <coordinates>-0.09909,51.53805,0.0</coordinates>
            </Point>
        </Placemark>
        <Placemark id="2009">
            <name>Backstage at The Old Vic</name>
            <Point id="2008">
                <coordinates>-0.10905,51.50172,0.0</coordinates>
            </Point>
        </Placemark>
        <Placemark id="2011">
            <name>UNIVERSITY OF WESTMINSTER: NCS and Tower Tavern</name>
            <Point id="2010">
                <coordinates>-0.13968,51.52099,0.0</coordinates>
            </Point>
        </Placemark>
        <Placemark id="2013">
            <name>The Lansbury Estate: Festival of Britain, Poplar 2026</name>
            <Point id="2012">
                <coordinates>-0.01476,51.51134,0.0</coordinates>
            </Point>
        </Placemark>
        <Placemark id="2015">
            <name>Southbank Printmakers</name>
            <Point id="2014">
                <coordinates>-0.13776,51.51702,0.0</coordinates>
            </Point>
        </Placemark>
        <Placemark id="2017">
            <name>Holy Sepulchre, Holborn</name>
            <Point id="2016">
                <coordinates>-0.10233,51.51666,0.0</coordinates>
            </Point>
        </Placemark>
        <Placemark id="2019">
            <name>Ongéan</name>
            <Point id="2018">
                <coordinates>-0.10031,51.45032,0.0</coordinates>
            </Point>
        </Placemark>
        <Placemark id="2021">
            <name>'Povera' Shed Exhibition</name>
            <Point id="2020">
                <coordinates>-0.0195,51.43285,0.0</coordinates>
            </Point>
        </Placemark>
        <Placemark id="2023">
            <name>Corbett Community Library</name>
            <Point id="2022">
                <coordinates>-0.00162,51.44235,0.0</coordinates>
            </Point>
        </Placemark>
    </Document>
</kml>
