<?xml version="1.0" encoding="UTF-8"?>
<kml xmlns="http://www.opengis.net/kml/2.2" xmlns:gx="http://www.google.com/kml/ext/2.2">
    <Document id="1357">
        <Placemark id="1359">
            <name>Shaftesbury Theatre</name>
            <Point id="1358">
                <coordinates>-0.12596,51.51601,0.0</coordinates>
            </Point>
        </Placemark>
        <Placemark id="1361">
            <name>Lambeth Town Hall</name>
            <Point id="1360">
                <coordinates>-0.11629,51.46085,0.0</coordinates>
            </Point>
        </Placemark>
        <Placemark id="1363">
            <name>Lauderdale House</name>
            <Point id="1362">
                <coordinates>-0.143254,51.569267,0.0</coordinates>
            </Point>
        </Placemark>
        <Placemark id="1365">
            <name>Red House</name>
            <Point id="1364">
                <coordinates>0.12959,51.45574,0.0</coordinates>
            </Point>
        </Placemark>
        <Placemark id="1367">
            <name>RAF Biggin Hill Museum &amp; Chapel Tour</name>
            <Point id="1366">
                <coordinates>0.02349,51.32717,0.0</coordinates>
            </Point>
        </Placemark>
        <Placemark id="1369">
            <name>The City Churches: St Stephen Walbrook</name>
            <Point id="1368">
                <coordinates>-0.08994,51.51273,0.0</coordinates>
            </Point>
        </Placemark>
        <Placemark id="1371">
            <name>Burlington House: Linnean Society of London</name>
            <Point id="1370">
                <coordinates>-0.13911,51.50853,0.0</coordinates>
            </Point>
        </Placemark>
        <Placemark id="1373">
            <name>Wesley's Chapel and House</name>
            <Point id="1372">
                <coordinates>-0.08656,51.52375,0.0</coordinates>
            </Point>
        </Placemark>
        <Placemark id="1375">
            <name>St George's Cathedral</name>
            <Point id="1374">
                <coordinates>-0.1088368,51.4982463,0.0</coordinates>
            </Point>
        </Placemark>
        <Placemark id="1377">
            <name>St Mary's Church, Battersea</name>
            <Point id="1376">
                <coordinates>-0.17138,51.47864,0.0</coordinates>
            </Point>
        </Placemark>
        <Placemark id="1379">
            <name>St George's Bloomsbury</name>
            <Point id="1378">
                <coordinates>-0.12465,51.51769,0.0</coordinates>
            </Point>
        </Placemark>
        <Placemark id="1381">
            <name>St Pancras Church &amp; Crypt</name>
            <Point id="1380">
                <coordinates>-0.13075,51.52727,0.0</coordinates>
            </Point>
        </Placemark>
        <Placemark id="1383">
            <name>Barnard's Inn Hall</name>
            <Point id="1382">
                <coordinates>-0.1098755,51.5175436,0.0</coordinates>
            </Point>
        </Placemark>
        <Placemark id="1385">
            <name>Parish Church of St Mary The Virgin Lewisham</name>
            <Point id="1384">
                <coordinates>-0.01599,51.45567,0.0</coordinates>
            </Point>
        </Placemark>
        <Placemark id="1387">
            <name>St Anne's Church, Kew Green</name>
            <Point id="1386">
                <coordinates>-0.28954,51.48394,0.0</coordinates>
            </Point>
        </Placemark>
        <Placemark id="1389">
            <name>St Anne's Church, Limehouse</name>
            <Point id="1388">
                <coordinates>-0.03039,51.5107,0.0</coordinates>
            </Point>
        </Placemark>
        <Placemark id="1391">
            <name>Fitzrovia Chapel</name>
            <Point id="1390">
                <coordinates>-0.13826,51.51895,0.0</coordinates>
            </Point>
        </Placemark>
        <Placemark id="1393">
            <name>The Building Centre</name>
            <Point id="1392">
                <coordinates>-0.1315686,51.5195747,0.0</coordinates>
            </Point>
        </Placemark>
        <Placemark id="1395">
            <name>Brentford Then and Now/Brentford through the Ages</name>
            <Point id="1394">
                <coordinates>-0.30891,51.48316,0.0</coordinates>
            </Point>
        </Placemark>
        <Placemark id="1397">
            <name>King's Cross Masterplan</name>
            <Point id="1396">
                <coordinates>-0.12504,51.53218,0.0</coordinates>
            </Point>
        </Placemark>
        <Placemark id="1399">
            <name>Preedy Glass</name>
            <Point id="1398">
                <coordinates>-0.27315,51.52855,0.0</coordinates>
            </Point>
        </Placemark>
        <Placemark id="1401">
            <name>Our Yard at Clitterhouse Farm</name>
            <Point id="1400">
                <coordinates>-0.21581,51.56881,0.0</coordinates>
            </Point>
        </Placemark>
        <Placemark id="1403">
            <name>The Cartoon Museum</name>
            <Point id="1402">
                <coordinates>-0.13857,51.51759,0.0</coordinates>
            </Point>
        </Placemark>
        <Placemark id="1405">
            <name>Boston Manor House</name>
            <Point id="1404">
                <coordinates>-0.3183739,51.49191829999999,0.0</coordinates>
            </Point>
        </Placemark>
        <Placemark id="1407">
            <name>Fleet Street Heritage Wall and Sundial</name>
            <Point id="1406">
                <coordinates>-0.1080343,51.51412879999999,0.0</coordinates>
            </Point>
        </Placemark>
        <Placemark id="1409">
            <name>People's Museum Somers Town</name>
            <Point id="1408">
                <coordinates>-0.13092,51.53106,0.0</coordinates>
            </Point>
        </Placemark>
        <Placemark id="1411">
            <name>Switchboard Studios</name>
            <Point id="1410">
                <coordinates>-0.04198,51.59401,0.0</coordinates>
            </Point>
        </Placemark>
        <Placemark id="1413">
            <name>OmniDe</name>
            <Point id="1412">
                <coordinates>-0.1731,51.54837,0.0</coordinates>
            </Point>
        </Placemark>
        <Placemark id="1415">
            <name>London Open Form Pavilion of Air</name>
            <Point id="1414">
                <coordinates>-0.17548,51.50481,0.0</coordinates>
            </Point>
        </Placemark>
        <Placemark id="1417">
            <name>Museum of Croydon</name>
            <Point id="1416">
                <coordinates>-0.09939,51.37226,0.0</coordinates>
            </Point>
        </Placemark>
        <Placemark id="1419">
            <name>Morris+Company | 'Waste Not: Materials, Making and the Circular Economy' Exhibition</name>
            <Point id="1418">
                <coordinates>-0.05552,51.54152,0.0</coordinates>
            </Point>
        </Placemark>
        <Placemark id="1421">
            <name>St Barnabas Church</name>
            <Point id="1420">
                <coordinates>-0.02107,51.57685,0.0</coordinates>
            </Point>
        </Placemark>
        <Placemark id="1423">
            <name>All Saints Church, Tooting</name>
            <Point id="1422">
                <coordinates>-0.15707,51.43028,0.0</coordinates>
            </Point>
        </Placemark>
        <Placemark id="1425">
            <name>Sarabande Foundation</name>
            <Point id="1424">
                <coordinates>-0.06782,51.60602,0.0</coordinates>
            </Point>
        </Placemark>
        <Placemark id="1427">
            <name>St Anne's Church Wandsworth</name>
            <Point id="1426">
                <coordinates>-0.18773,51.45501,0.0</coordinates>
            </Point>
        </Placemark>
        <Placemark id="1429">
            <name>St James's Piccadilly</name>
            <Point id="1428">
                <coordinates>-0.1368,51.50876,0.0</coordinates>
            </Point>
        </Placemark>
        <Placemark id="1431">
            <name>Croydon Urban Room</name>
            <Point id="1430">
                <coordinates>-0.10075,51.37522,0.0</coordinates>
            </Point>
        </Placemark>
        <Placemark id="1433">
            <name>London National Park City Visitors Centre</name>
            <Point id="1432">
                <coordinates>-0.14246,51.51756,0.0</coordinates>
            </Point>
        </Placemark>
        <Placemark id="1435">
            <name>Past Forward: Where Heritage Meets Innovation | Open studios at DIA</name>
            <Point id="1434">
                <coordinates>-0.14662,51.5221,0.0</coordinates>
            </Point>
        </Placemark>
        <Placemark id="1437">
            <name>IMPACT Community Arts Centre</name>
            <Point id="1436">
                <coordinates>-0.32577,51.53539,0.0</coordinates>
            </Point>
        </Placemark>
        <Placemark id="1439">
            <name>The Mosaic Rooms</name>
            <Point id="1438">
                <coordinates>-0.19529,51.49487,0.0</coordinates>
            </Point>
        </Placemark>
        <Placemark id="1441">
            <name>Sacred Grounds / St Anne's Church and Garden</name>
            <Point id="1440">
                <coordinates>-0.13186,51.5124,0.0</coordinates>
            </Point>
        </Placemark>
        <Placemark id="1443">
            <name>St Mary the Virgin Primrose Hill</name>
            <Point id="1442">
                <coordinates>-0.16263,51.54221,0.0</coordinates>
            </Point>
        </Placemark>
        <Placemark id="1445">
            <name>The Literary City</name>
            <Point id="1444">
                <coordinates>-0.09308,51.51644,0.0</coordinates>
            </Point>
        </Placemark>
        <Placemark id="1447">
            <name>Film Locations of the City</name>
            <Point id="1446">
                <coordinates>-0.08352,51.51276,0.0</coordinates>
            </Point>
        </Placemark>
        <Placemark id="1449">
            <name>The King's Foundation - Charlotte Road</name>
            <Point id="1448">
                <coordinates>-0.08132,51.5257,0.0</coordinates>
            </Point>
        </Placemark>
        <Placemark id="1451">
            <name>Resonance FM Studios</name>
            <Point id="1450">
                <coordinates>-0.1,51.50345,0.0</coordinates>
            </Point>
        </Placemark>
        <Placemark id="1453">
            <name>Broadwater Farm Estate Tour inc visit to New Homes site</name>
            <Point id="1452">
                <coordinates>-0.0845,51.59571,0.0</coordinates>
            </Point>
        </Placemark>
        <Placemark id="1455">
            <name>Culture House</name>
            <Point id="1454">
                <coordinates>-0.22558,51.50508,0.0</coordinates>
            </Point>
        </Placemark>
        <Placemark id="1457">
            <name>Garage Gallery E17</name>
            <Point id="1456">
                <coordinates>-0.01252,51.58081,0.0</coordinates>
            </Point>
        </Placemark>
        <Placemark id="1459">
            <name>St Mary &amp; St Joseph Roman Catholic Church, Poplar</name>
            <Point id="1458">
                <coordinates>-0.02052,51.51203,0.0</coordinates>
            </Point>
        </Placemark>
        <Placemark id="1461">
            <name>The Purpose of Light: Exhibition by Misan Harriman</name>
            <Point id="1460">
                <coordinates>-0.13826,51.51651,0.0</coordinates>
            </Point>
        </Placemark>
        <Placemark id="1463">
            <name>Streatham Hill Theatre</name>
            <Point id="1462">
                <coordinates>-0.12588,51.44044,0.0</coordinates>
            </Point>
        </Placemark>
        <Placemark id="1465">
            <name>Worlds End Studios</name>
            <Point id="1464">
                <coordinates>-0.18379,51.47832,0.0</coordinates>
            </Point>
        </Placemark>
        <Placemark id="1467">
            <name>1 Pontypool Place</name>
            <Point id="1466">
                <coordinates>-0.10591,51.50192,0.0</coordinates>
            </Point>
        </Placemark>
        <Placemark id="1469">
            <name>North End &amp; Hampstead Garden Suburb Prehistory</name>
            <Point id="1468">
                <coordinates>-0.17997,51.56145,0.0</coordinates>
            </Point>
        </Placemark>
        <Placemark id="1471">
            <name>Millbank – Incarceration, reuse and renewal</name>
            <Point id="1470">
                <coordinates>-0.12778,51.49106,0.0</coordinates>
            </Point>
        </Placemark>
        <Placemark id="1473">
            <name>West Bermondsey</name>
            <Point id="1472">
                <coordinates>-0.0848,51.50426,0.0</coordinates>
            </Point>
        </Placemark>
        <Placemark id="1475">
            <name>The making of journeys in Greenwich</name>
            <Point id="1474">
                <coordinates>-0.02671,51.47888,0.0</coordinates>
            </Point>
        </Placemark>
        <Placemark id="1477">
            <name>County Hall Kingston</name>
            <Point id="1476">
                <coordinates>-0.30416,51.40435,0.0</coordinates>
            </Point>
        </Placemark>
        <Placemark id="1479">
            <name>Bankside: from arches to alleys</name>
            <Point id="1478">
                <coordinates>-0.10496,51.50392,0.0</coordinates>
            </Point>
        </Placemark>
        <Placemark id="1481">
            <name>Mornington Crescent: a walk through South Camden</name>
            <Point id="1480">
                <coordinates>-0.13889,51.53435,0.0</coordinates>
            </Point>
        </Placemark>
        <Placemark id="1483">
            <name>Local legends: stories from Tottenham’s streets</name>
            <Point id="1482">
                <coordinates>-0.08784,51.59387,0.0</coordinates>
            </Point>
        </Placemark>
        <Placemark id="1485">
            <name>Former Carbonic Gas Works, 142 Lea Bridge Road</name>
            <Point id="1484">
                <coordinates>-0.04632,51.56146,0.0</coordinates>
            </Point>
        </Placemark>
        <Placemark id="1487">
            <name>Creative Connections -  Beyond London Bridge</name>
            <Point id="1486">
                <coordinates>-0.08198,51.50342,0.0</coordinates>
            </Point>
        </Placemark>
        <Placemark id="1489">
            <name>Marble Arch Youth Assembly - Celebration Event</name>
            <Point id="1488">
                <coordinates>-0.16598,51.51461,0.0</coordinates>
            </Point>
        </Placemark>
        <Placemark id="1491">
            <name>Ibraaz</name>
            <Point id="1490">
                <coordinates>-0.14195,51.51741,0.0</coordinates>
            </Point>
        </Placemark>
        <Placemark id="1493">
            <name>Historic Monasteries of London</name>
            <Point id="1492">
                <coordinates>-0.11365,51.51094,0.0</coordinates>
            </Point>
        </Placemark>
        <Placemark id="1495">
            <name>Walk through the Stuart Dynasty and Cromwell’s Republic</name>
            <Point id="1494">
                <coordinates>-0.12729,51.49936,0.0</coordinates>
            </Point>
        </Placemark>
        <Placemark id="1497">
            <name>Southbank Printmakers</name>
            <Point id="1496">
                <coordinates>-0.13776,51.51702,0.0</coordinates>
            </Point>
        </Placemark>
        <Placemark id="1499">
            <name>Refugees, Radicals and Revellers in Soho</name>
            <Point id="1498">
                <coordinates>-0.13004,51.51628,0.0</coordinates>
            </Point>
        </Placemark>
        <Placemark id="1501">
            <name>The Annual Sedici Post Grad Group Exhibition</name>
            <Point id="1500">
                <coordinates>-0.03132,51.47699,0.0</coordinates>
            </Point>
        </Placemark>
        <Placemark id="1503">
            <name>Ongéan</name>
            <Point id="1502">
                <coordinates>-0.10031,51.45032,0.0</coordinates>
            </Point>
        </Placemark>
        <Placemark id="1505">
            <name>Corbett Community Library</name>
            <Point id="1504">
                <coordinates>-0.00162,51.44235,0.0</coordinates>
            </Point>
        </Placemark>
        <Placemark id="1507">
            <name>The West End At War</name>
            <Point id="1506">
                <coordinates>-0.13307,51.51381,0.0</coordinates>
            </Point>
        </Placemark>
        <Placemark id="1509">
            <name>ETAT Annual Art Exhibition, Thamesbank Community Centre</name>
            <Point id="1508">
                <coordinates>-0.14556,51.48659,0.0</coordinates>
            </Point>
        </Placemark>
        <Placemark id="1511">
            <name>Charing Cross Library</name>
            <Point id="1510">
                <coordinates>-0.12805,51.51024,0.0</coordinates>
            </Point>
        </Placemark>
    </Document>
</kml>
