<?xml version="1.0" encoding="UTF-8"?>
<kml xmlns="http://www.opengis.net/kml/2.2" xmlns:gx="http://www.google.com/kml/ext/2.2">
    <Document id="985">
        <Placemark id="987">
            <name>Dominion Theatre</name>
            <Point id="986">
                <coordinates>-0.1296672,51.51696099999999,0.0</coordinates>
            </Point>
        </Placemark>
        <Placemark id="989">
            <name>Ironmongers' Hall</name>
            <Point id="988">
                <coordinates>-0.09642,51.5181,0.0</coordinates>
            </Point>
        </Placemark>
        <Placemark id="991">
            <name>The City Churches: St Stephen Walbrook</name>
            <Point id="990">
                <coordinates>-0.08994,51.51273,0.0</coordinates>
            </Point>
        </Placemark>
        <Placemark id="993">
            <name>Burlington House: Linnean Society of London</name>
            <Point id="992">
                <coordinates>-0.13911,51.50853,0.0</coordinates>
            </Point>
        </Placemark>
        <Placemark id="995">
            <name>St Mary's Church, Battersea</name>
            <Point id="994">
                <coordinates>-0.17138,51.47864,0.0</coordinates>
            </Point>
        </Placemark>
        <Placemark id="997">
            <name>Chiswick Town Hall</name>
            <Point id="996">
                <coordinates>-0.2656707,51.4914109,0.0</coordinates>
            </Point>
        </Placemark>
        <Placemark id="999">
            <name>St Ethelburga's Centre for Reconciliation and Peace</name>
            <Point id="998">
                <coordinates>-0.08195,51.51548,0.0</coordinates>
            </Point>
        </Placemark>
        <Placemark id="1001">
            <name>St Pancras Church &amp; Crypt</name>
            <Point id="1000">
                <coordinates>-0.13075,51.52727,0.0</coordinates>
            </Point>
        </Placemark>
        <Placemark id="1003">
            <name>Wiener Holocaust Library</name>
            <Point id="1002">
                <coordinates>-0.128,51.52165,0.0</coordinates>
            </Point>
        </Placemark>
        <Placemark id="1005">
            <name>St Anne's Church, Limehouse</name>
            <Point id="1004">
                <coordinates>-0.03039,51.5107,0.0</coordinates>
            </Point>
        </Placemark>
        <Placemark id="1007">
            <name>Fitzrovia Chapel</name>
            <Point id="1006">
                <coordinates>-0.13826,51.51895,0.0</coordinates>
            </Point>
        </Placemark>
        <Placemark id="1009">
            <name>Westminster Abbey – East End</name>
            <Point id="1008">
                <coordinates>-0.12899,51.49855,0.0</coordinates>
            </Point>
        </Placemark>
        <Placemark id="1011">
            <name>The Cartoon Museum</name>
            <Point id="1010">
                <coordinates>-0.13857,51.51759,0.0</coordinates>
            </Point>
        </Placemark>
        <Placemark id="1013">
            <name>Exploring Spring Grove Isleworth</name>
            <Point id="1012">
                <coordinates>-0.33713,51.47507,0.0</coordinates>
            </Point>
        </Placemark>
        <Placemark id="1015">
            <name>St Bride's Church, Fleet Street</name>
            <Point id="1014">
                <coordinates>-0.10554,51.51376,0.0</coordinates>
            </Point>
        </Placemark>
        <Placemark id="1017">
            <name>Crossing the Boundary, breaking the ground</name>
            <Point id="1016">
                <coordinates>-0.17157,51.5311,0.0</coordinates>
            </Point>
        </Placemark>
        <Placemark id="1019">
            <name>London Open Form Pavilion of Air</name>
            <Point id="1018">
                <coordinates>-0.17464,51.50466,0.0</coordinates>
            </Point>
        </Placemark>
        <Placemark id="1021">
            <name>Morris+Company | 'Waste Not: Materials, Making and the Circular Economy' Exhibition</name>
            <Point id="1020">
                <coordinates>-0.05552,51.54152,0.0</coordinates>
            </Point>
        </Placemark>
        <Placemark id="1023">
            <name>St Bartholomew's Hospital</name>
            <Point id="1022">
                <coordinates>-0.10004,51.51749,0.0</coordinates>
            </Point>
        </Placemark>
        <Placemark id="1025">
            <name>Shaftesbury Hall</name>
            <Point id="1024">
                <coordinates>-0.12107,51.60712,0.0</coordinates>
            </Point>
        </Placemark>
        <Placemark id="1027">
            <name>Croydon Urban Room</name>
            <Point id="1026">
                <coordinates>-0.10075,51.37522,0.0</coordinates>
            </Point>
        </Placemark>
        <Placemark id="1029">
            <name>London National Park City Visitors Centre</name>
            <Point id="1028">
                <coordinates>-0.14246,51.51756,0.0</coordinates>
            </Point>
        </Placemark>
        <Placemark id="1031">
            <name>Islington New River walking tour</name>
            <Point id="1030">
                <coordinates>-0.09209,51.54868,0.0</coordinates>
            </Point>
        </Placemark>
        <Placemark id="1033">
            <name>IMPACT Community Arts Centre</name>
            <Point id="1032">
                <coordinates>-0.32577,51.53539,0.0</coordinates>
            </Point>
        </Placemark>
        <Placemark id="1035">
            <name>Explore the authentically recreated Colony Room</name>
            <Point id="1034">
                <coordinates>-0.13932,51.51092,0.0</coordinates>
            </Point>
        </Placemark>
        <Placemark id="1037">
            <name>Film Locations of the City</name>
            <Point id="1036">
                <coordinates>-0.08352,51.51276,0.0</coordinates>
            </Point>
        </Placemark>
        <Placemark id="1039">
            <name>Resonance FM Studios</name>
            <Point id="1038">
                <coordinates>-0.1,51.50345,0.0</coordinates>
            </Point>
        </Placemark>
        <Placemark id="1041">
            <name>The City at night</name>
            <Point id="1040">
                <coordinates>-0.10505,51.52011,0.0</coordinates>
            </Point>
        </Placemark>
        <Placemark id="1043">
            <name>St Mary &amp; St Joseph Roman Catholic Church, Poplar</name>
            <Point id="1042">
                <coordinates>-0.02052,51.51203,0.0</coordinates>
            </Point>
        </Placemark>
        <Placemark id="1045">
            <name>The Purpose of Light: Exhibition by Misan Harriman</name>
            <Point id="1044">
                <coordinates>-0.13826,51.51651,0.0</coordinates>
            </Point>
        </Placemark>
        <Placemark id="1047">
            <name>Streatham Hill Theatre</name>
            <Point id="1046">
                <coordinates>-0.12588,51.44044,0.0</coordinates>
            </Point>
        </Placemark>
        <Placemark id="1049">
            <name>Worlds End Studios</name>
            <Point id="1048">
                <coordinates>-0.18379,51.47832,0.0</coordinates>
            </Point>
        </Placemark>
        <Placemark id="1051">
            <name>Money, Money, Money</name>
            <Point id="1050">
                <coordinates>-0.09906,51.51328,0.0</coordinates>
            </Point>
        </Placemark>
        <Placemark id="1053">
            <name>Traditional Roofing in Hampstead Garden Suburb</name>
            <Point id="1052">
                <coordinates>-0.19421,51.57222,0.0</coordinates>
            </Point>
        </Placemark>
        <Placemark id="1055">
            <name>Freud Museum London</name>
            <Point id="1054">
                <coordinates>-0.17735,51.54834,0.0</coordinates>
            </Point>
        </Placemark>
        <Placemark id="1057">
            <name>Tooting: Places, people and planning – a brief walk through time</name>
            <Point id="1056">
                <coordinates>-0.15951,51.43552,0.0</coordinates>
            </Point>
        </Placemark>
        <Placemark id="1059">
            <name>Silvertown: A sailor's story</name>
            <Point id="1058">
                <coordinates>0.01625,51.50731,0.0</coordinates>
            </Point>
        </Placemark>
        <Placemark id="1061">
            <name>Fear and loathing on the South Bank of the Thames</name>
            <Point id="1060">
                <coordinates>-0.07738,51.50413,0.0</coordinates>
            </Point>
        </Placemark>
        <Placemark id="1063">
            <name>Mornington Crescent to Great Portland Street</name>
            <Point id="1062">
                <coordinates>-0.13889,51.53435,0.0</coordinates>
            </Point>
        </Placemark>
        <Placemark id="1065">
            <name>Hidden City: Lost rivers, super sewers and sacred springs</name>
            <Point id="1064">
                <coordinates>-0.08755,51.5138,0.0</coordinates>
            </Point>
        </Placemark>
        <Placemark id="1067">
            <name>Former Carbonic Gas Works, 142 Lea Bridge Road</name>
            <Point id="1066">
                <coordinates>-0.04632,51.56146,0.0</coordinates>
            </Point>
        </Placemark>
        <Placemark id="1069">
            <name>From Limehouse to Canary Wharf</name>
            <Point id="1068">
                <coordinates>-0.03145,51.51214,0.0</coordinates>
            </Point>
        </Placemark>
        <Placemark id="1071">
            <name>Beckenham Library</name>
            <Point id="1070">
                <coordinates>-0.03691,51.40855,0.0</coordinates>
            </Point>
        </Placemark>
        <Placemark id="1073">
            <name>Open (Public) House! Historic Pub Tour in Croydon</name>
            <Point id="1072">
                <coordinates>-0.09937,51.37216,0.0</coordinates>
            </Point>
        </Placemark>
        <Placemark id="1075">
            <name>Designer-led tour of Gordon Street, Bloomsbury</name>
            <Point id="1074">
                <coordinates>-0.13283,51.52584,0.0</coordinates>
            </Point>
        </Placemark>
        <Placemark id="1077">
            <name>Bharatiya Vidya Bhavan</name>
            <Point id="1076">
                <coordinates>-0.20673,51.4896,0.0</coordinates>
            </Point>
        </Placemark>
        <Placemark id="1079">
            <name>Stratford Waterfront at East Bank</name>
            <Point id="1078">
                <coordinates>-0.01667,51.54298,0.0</coordinates>
            </Point>
        </Placemark>
        <Placemark id="1081">
            <name>Bankside Yards Historic Arches:  then, now, next</name>
            <Point id="1080">
                <coordinates>-0.10397,51.50715,0.0</coordinates>
            </Point>
        </Placemark>
        <Placemark id="1083">
            <name>Sanderson Hotel: A Modernist Landmark Reimagined</name>
            <Point id="1082">
                <coordinates>-0.13721,51.51747,0.0</coordinates>
            </Point>
        </Placemark>
        <Placemark id="1085">
            <name>Southbank Printmakers</name>
            <Point id="1084">
                <coordinates>-0.13776,51.51702,0.0</coordinates>
            </Point>
        </Placemark>
        <Placemark id="1087">
            <name>Sex in the City - a tour of Covent Garden's history</name>
            <Point id="1086">
                <coordinates>-0.12416,51.513,0.0</coordinates>
            </Point>
        </Placemark>
        <Placemark id="1089">
            <name>Jewish Westminster</name>
            <Point id="1088">
                <coordinates>-0.1253,51.50843,0.0</coordinates>
            </Point>
        </Placemark>
        <Placemark id="1091">
            <name>Refugees, Radicals and Revellers in Soho</name>
            <Point id="1090">
                <coordinates>-0.13004,51.51628,0.0</coordinates>
            </Point>
        </Placemark>
        <Placemark id="1093">
            <name>Corbett Community Library</name>
            <Point id="1092">
                <coordinates>-0.00162,51.44235,0.0</coordinates>
            </Point>
        </Placemark>
    </Document>
</kml>
