<?xml version="1.0" encoding="UTF-8"?>
<kml xmlns="http://www.opengis.net/kml/2.2" xmlns:gx="http://www.google.com/kml/ext/2.2">
    <Document id="1165">
        <Placemark id="1167">
            <name>The Swedenborg Society</name>
            <Point id="1166">
                <coordinates>-0.12291,51.51802,0.0</coordinates>
            </Point>
        </Placemark>
        <Placemark id="1169">
            <name>Pitzhanger Manor &amp; Gallery</name>
            <Point id="1168">
                <coordinates>-0.30835,51.51129,0.0</coordinates>
            </Point>
        </Placemark>
        <Placemark id="1171">
            <name>Burlington House: Linnean Society of London</name>
            <Point id="1170">
                <coordinates>-0.13911,51.50853,0.0</coordinates>
            </Point>
        </Placemark>
        <Placemark id="1173">
            <name>Parish Church of St Andrew, Enfield</name>
            <Point id="1172">
                <coordinates>-0.08285,51.65298,0.0</coordinates>
            </Point>
        </Placemark>
        <Placemark id="1175">
            <name>St George in the East</name>
            <Point id="1174">
                <coordinates>-0.05974,51.51024,0.0</coordinates>
            </Point>
        </Placemark>
        <Placemark id="1177">
            <name>St George's Cathedral</name>
            <Point id="1176">
                <coordinates>-0.1088368,51.4982463,0.0</coordinates>
            </Point>
        </Placemark>
        <Placemark id="1179">
            <name>St Mary's Church, Battersea</name>
            <Point id="1178">
                <coordinates>-0.17138,51.47864,0.0</coordinates>
            </Point>
        </Placemark>
        <Placemark id="1181">
            <name>St George's Bloomsbury</name>
            <Point id="1180">
                <coordinates>-0.12465,51.51769,0.0</coordinates>
            </Point>
        </Placemark>
        <Placemark id="1183">
            <name>Isleworth Public Hall</name>
            <Point id="1182">
                <coordinates>-0.3256,51.46865,0.0</coordinates>
            </Point>
        </Placemark>
        <Placemark id="1185">
            <name>Crown Court Church of Scotland</name>
            <Point id="1184">
                <coordinates>-0.12106,51.51341,0.0</coordinates>
            </Point>
        </Placemark>
        <Placemark id="1187">
            <name>St Pancras Church &amp; Crypt</name>
            <Point id="1186">
                <coordinates>-0.13075,51.52727,0.0</coordinates>
            </Point>
        </Placemark>
        <Placemark id="1189">
            <name>Barnard's Inn Hall</name>
            <Point id="1188">
                <coordinates>-0.1098755,51.5175436,0.0</coordinates>
            </Point>
        </Placemark>
        <Placemark id="1191">
            <name>Parish Church of St Mary The Virgin Lewisham</name>
            <Point id="1190">
                <coordinates>-0.01599,51.45567,0.0</coordinates>
            </Point>
        </Placemark>
        <Placemark id="1193">
            <name>St Anne's Church, Kew Green</name>
            <Point id="1192">
                <coordinates>-0.28954,51.48394,0.0</coordinates>
            </Point>
        </Placemark>
        <Placemark id="1195">
            <name>Billingsgate Roman House &amp; Baths</name>
            <Point id="1194">
                <coordinates>-0.08305,51.50928,0.0</coordinates>
            </Point>
        </Placemark>
        <Placemark id="1197">
            <name>St Anne's Church, Limehouse</name>
            <Point id="1196">
                <coordinates>-0.03039,51.5107,0.0</coordinates>
            </Point>
        </Placemark>
        <Placemark id="1199">
            <name>8-10 Moorgate</name>
            <Point id="1198">
                <coordinates>-0.08929,51.5155,0.0</coordinates>
            </Point>
        </Placemark>
        <Placemark id="1201">
            <name>Fitzrovia Chapel</name>
            <Point id="1200">
                <coordinates>-0.13826,51.51895,0.0</coordinates>
            </Point>
        </Placemark>
        <Placemark id="1203">
            <name>The Building Centre</name>
            <Point id="1202">
                <coordinates>-0.1315686,51.5195747,0.0</coordinates>
            </Point>
        </Placemark>
        <Placemark id="1205">
            <name>Ram Quarter</name>
            <Point id="1204">
                <coordinates>-0.1930382,51.4578437,0.0</coordinates>
            </Point>
        </Placemark>
        <Placemark id="1207">
            <name>St Bride's Church, Fleet Street</name>
            <Point id="1206">
                <coordinates>-0.10554,51.51376,0.0</coordinates>
            </Point>
        </Placemark>
        <Placemark id="1209">
            <name>People's Museum Somers Town</name>
            <Point id="1208">
                <coordinates>-0.13092,51.53106,0.0</coordinates>
            </Point>
        </Placemark>
        <Placemark id="1211">
            <name>St Mary's Church Bromley</name>
            <Point id="1210">
                <coordinates>0.01496,51.41262,0.0</coordinates>
            </Point>
        </Placemark>
        <Placemark id="1213">
            <name>London Open Form Pavilion of Air</name>
            <Point id="1212">
                <coordinates>-0.17464,51.50466,0.0</coordinates>
            </Point>
        </Placemark>
        <Placemark id="1215">
            <name>A House within a House</name>
            <Point id="1214">
                <coordinates>-0.1727607,51.5495728,0.0</coordinates>
            </Point>
        </Placemark>
        <Placemark id="1217">
            <name>Museum of Croydon</name>
            <Point id="1216">
                <coordinates>-0.09939,51.37226,0.0</coordinates>
            </Point>
        </Placemark>
        <Placemark id="1219">
            <name>National Youth Theatre</name>
            <Point id="1218">
                <coordinates>-0.122,51.55948,0.0</coordinates>
            </Point>
        </Placemark>
        <Placemark id="1221">
            <name>Morris+Company | 'Waste Not: Materials, Making and the Circular Economy' Exhibition</name>
            <Point id="1220">
                <coordinates>-0.05552,51.54152,0.0</coordinates>
            </Point>
        </Placemark>
        <Placemark id="1223">
            <name>Woodside Loft, 4 Singleton Scarp</name>
            <Point id="1222">
                <coordinates>-0.19194,51.61619,0.0</coordinates>
            </Point>
        </Placemark>
        <Placemark id="1225">
            <name>Brook Green walk</name>
            <Point id="1224">
                <coordinates>-0.22501,51.49343,0.0</coordinates>
            </Point>
        </Placemark>
        <Placemark id="1227">
            <name>The Operations Support Centre - London Fire Brigade</name>
            <Point id="1226">
                <coordinates>-0.11847,51.35569,0.0</coordinates>
            </Point>
        </Placemark>
        <Placemark id="1229">
            <name>St Anne's Church Wandsworth</name>
            <Point id="1228">
                <coordinates>-0.18773,51.45501,0.0</coordinates>
            </Point>
        </Placemark>
        <Placemark id="1231">
            <name>St James's Piccadilly</name>
            <Point id="1230">
                <coordinates>-0.1368,51.50876,0.0</coordinates>
            </Point>
        </Placemark>
        <Placemark id="1233">
            <name>Croydon Urban Room</name>
            <Point id="1232">
                <coordinates>-0.10075,51.37522,0.0</coordinates>
            </Point>
        </Placemark>
        <Placemark id="1235">
            <name>London National Park City Visitors Centre</name>
            <Point id="1234">
                <coordinates>-0.14246,51.51756,0.0</coordinates>
            </Point>
        </Placemark>
        <Placemark id="1237">
            <name>IMPACT Community Arts Centre</name>
            <Point id="1236">
                <coordinates>-0.32577,51.53539,0.0</coordinates>
            </Point>
        </Placemark>
        <Placemark id="1239">
            <name>Rock 'n' Roll Camden Tour</name>
            <Point id="1238">
                <coordinates>-0.15186,51.54325,0.0</coordinates>
            </Point>
        </Placemark>
        <Placemark id="1241">
            <name>Explore the authentically recreated Colony Room</name>
            <Point id="1240">
                <coordinates>-0.13932,51.51092,0.0</coordinates>
            </Point>
        </Placemark>
        <Placemark id="1243">
            <name>Resonance FM Studios</name>
            <Point id="1242">
                <coordinates>-0.1,51.50345,0.0</coordinates>
            </Point>
        </Placemark>
        <Placemark id="1245">
            <name>Taming the Thames: Londoners and London's river</name>
            <Point id="1244">
                <coordinates>-0.10379,51.51168,0.0</coordinates>
            </Point>
        </Placemark>
        <Placemark id="1247">
            <name>Designed to be forgotten: women in South Kensington</name>
            <Point id="1246">
                <coordinates>-0.17349,51.49695,0.0</coordinates>
            </Point>
        </Placemark>
        <Placemark id="1249">
            <name>St Mary &amp; St Joseph Roman Catholic Church, Poplar</name>
            <Point id="1248">
                <coordinates>-0.02052,51.51203,0.0</coordinates>
            </Point>
        </Placemark>
        <Placemark id="1251">
            <name>The Purpose of Light: Exhibition by Misan Harriman</name>
            <Point id="1250">
                <coordinates>-0.13826,51.51651,0.0</coordinates>
            </Point>
        </Placemark>
        <Placemark id="1253">
            <name>Christ's Chapel of God's Gift at Dulwich</name>
            <Point id="1252">
                <coordinates>-0.08643,51.44632,0.0</coordinates>
            </Point>
        </Placemark>
        <Placemark id="1255">
            <name>Streatham Hill Theatre</name>
            <Point id="1254">
                <coordinates>-0.12588,51.44044,0.0</coordinates>
            </Point>
        </Placemark>
        <Placemark id="1257">
            <name>Worlds End Studios</name>
            <Point id="1256">
                <coordinates>-0.18379,51.47832,0.0</coordinates>
            </Point>
        </Placemark>
        <Placemark id="1259">
            <name>Brixton House Theatre</name>
            <Point id="1258">
                <coordinates>-0.11089,51.46188,0.0</coordinates>
            </Point>
        </Placemark>
        <Placemark id="1261">
            <name>Piccadilly Rocks!</name>
            <Point id="1260">
                <coordinates>-0.13933,51.50858,0.0</coordinates>
            </Point>
        </Placemark>
        <Placemark id="1263">
            <name>Herne Hill Velodrome</name>
            <Point id="1262">
                <coordinates>-0.09099,51.45121,0.0</coordinates>
            </Point>
        </Placemark>
        <Placemark id="1265">
            <name>Money, Money, Money</name>
            <Point id="1264">
                <coordinates>-0.09906,51.51328,0.0</coordinates>
            </Point>
        </Placemark>
        <Placemark id="1267">
            <name>County Hall Kingston</name>
            <Point id="1266">
                <coordinates>-0.30416,51.40435,0.0</coordinates>
            </Point>
        </Placemark>
        <Placemark id="1269">
            <name>Crafts Council Gallery</name>
            <Point id="1268">
                <coordinates>-0.10846,51.53224,0.0</coordinates>
            </Point>
        </Placemark>
        <Placemark id="1271">
            <name>Hampstead Vanished and Imagined</name>
            <Point id="1270">
                <coordinates>-0.17681,51.5574,0.0</coordinates>
            </Point>
        </Placemark>
        <Placemark id="1273">
            <name>Architecture Defrosted</name>
            <Point id="1272">
                <coordinates>-0.13117,51.50604,0.0</coordinates>
            </Point>
        </Placemark>
        <Placemark id="1275">
            <name>St Michael's Chester Square</name>
            <Point id="1274">
                <coordinates>-0.15097,51.49427,0.0</coordinates>
            </Point>
        </Placemark>
        <Placemark id="1277">
            <name>Deptford Little Farm - Guided Vegetable Tour</name>
            <Point id="1276">
                <coordinates>-0.0422,51.48725,0.0</coordinates>
            </Point>
        </Placemark>
        <Placemark id="1279">
            <name>Open Studio: VOGT Landscape Ltd</name>
            <Point id="1278">
                <coordinates>-0.09049,51.5381,0.0</coordinates>
            </Point>
        </Placemark>
        <Placemark id="1281">
            <name>Former Carbonic Gas Works, 142 Lea Bridge Road</name>
            <Point id="1280">
                <coordinates>-0.04632,51.56146,0.0</coordinates>
            </Point>
        </Placemark>
        <Placemark id="1283">
            <name>From Limehouse to Canary Wharf</name>
            <Point id="1282">
                <coordinates>-0.03145,51.51214,0.0</coordinates>
            </Point>
        </Placemark>
        <Placemark id="1285">
            <name>Open (Public) House! Historic Pub Tour in Croydon</name>
            <Point id="1284">
                <coordinates>-0.09937,51.37216,0.0</coordinates>
            </Point>
        </Placemark>
        <Placemark id="1287">
            <name>Green Lanes: A street shaped by migration</name>
            <Point id="1286">
                <coordinates>-0.09641,51.57096,0.0</coordinates>
            </Point>
        </Placemark>
        <Placemark id="1289">
            <name>Stratford Waterfront at East Bank</name>
            <Point id="1288">
                <coordinates>-0.01667,51.54298,0.0</coordinates>
            </Point>
        </Placemark>
        <Placemark id="1291">
            <name>Ibraaz</name>
            <Point id="1290">
                <coordinates>-0.14195,51.51741,0.0</coordinates>
            </Point>
        </Placemark>
        <Placemark id="1293">
            <name>Walking Tour:  Charles I - Monster or Martyr ?</name>
            <Point id="1292">
                <coordinates>-0.12643,51.50084,0.0</coordinates>
            </Point>
        </Placemark>
        <Placemark id="1295">
            <name>Timber Square</name>
            <Point id="1294">
                <coordinates>-0.10018,51.50474,0.0</coordinates>
            </Point>
        </Placemark>
        <Placemark id="1297">
            <name>Southbank Printmakers</name>
            <Point id="1296">
                <coordinates>-0.13776,51.51702,0.0</coordinates>
            </Point>
        </Placemark>
        <Placemark id="1299">
            <name>Aldgate walking tour</name>
            <Point id="1298">
                <coordinates>-0.0755,51.51447,0.0</coordinates>
            </Point>
        </Placemark>
    </Document>
</kml>
