<?xml version="1.0" encoding="UTF-8"?>
<kml xmlns="http://www.opengis.net/kml/2.2" xmlns:gx="http://www.google.com/kml/ext/2.2">
    <Document id="1">
        <Placemark id="3">
            <name>Shaftesbury Theatre</name>
            <Point id="2">
                <coordinates>-0.1261448,51.516203,0.0</coordinates>
            </Point>
        </Placemark>
        <Placemark id="5">
            <name>Devonport Mausoleum</name>
            <Point id="4">
                <coordinates>-0.00617,51.48106,0.0</coordinates>
            </Point>
        </Placemark>
        <Placemark id="7">
            <name>Dorich House Museum</name>
            <Point id="6">
                <coordinates>-0.2630588,51.4333564,0.0</coordinates>
            </Point>
        </Placemark>
        <Placemark id="9">
            <name>Dr Johnson's House</name>
            <Point id="8">
                <coordinates>-0.1081791,51.5150637,0.0</coordinates>
            </Point>
        </Placemark>
        <Placemark id="11">
            <name>Former Edmonton Girls' Charity School</name>
            <Point id="10">
                <coordinates>-0.0622921,51.6251909,0.0</coordinates>
            </Point>
        </Placemark>
        <Placemark id="13">
            <name>Foster + Partners</name>
            <Point id="12">
                <coordinates>-0.168501,51.48025,0.0</coordinates>
            </Point>
        </Placemark>
        <Placemark id="15">
            <name>Friends House</name>
            <Point id="14">
                <coordinates>-0.13223,51.52657,0.0</coordinates>
            </Point>
        </Placemark>
        <Placemark id="17">
            <name>Institut français du Royaume-Uni</name>
            <Point id="16">
                <coordinates>-0.1771684,51.4946504,0.0</coordinates>
            </Point>
        </Placemark>
        <Placemark id="19">
            <name>Kingston Library, Museum and Art Gallery</name>
            <Point id="18">
                <coordinates>-0.30046,51.40953,0.0</coordinates>
            </Point>
        </Placemark>
        <Placemark id="21">
            <name>Kenwood</name>
            <Point id="20">
                <coordinates>-0.1675998,51.5713284,0.0</coordinates>
            </Point>
        </Placemark>
        <Placemark id="23">
            <name>Old Royal Naval College - King William Court</name>
            <Point id="22">
                <coordinates>-0.00606,51.48257,0.0</coordinates>
            </Point>
        </Placemark>
        <Placemark id="25">
            <name>King's College London, The Maughan Library</name>
            <Point id="24">
                <coordinates>-0.11128,51.51507,0.0</coordinates>
            </Point>
        </Placemark>
        <Placemark id="27">
            <name>The Swedenborg Society</name>
            <Point id="26">
                <coordinates>-0.12291,51.51802,0.0</coordinates>
            </Point>
        </Placemark>
        <Placemark id="29">
            <name>Lincoln's Inn</name>
            <Point id="28">
                <coordinates>-0.11453,51.51598,0.0</coordinates>
            </Point>
        </Placemark>
        <Placemark id="31">
            <name>Mansion House</name>
            <Point id="30">
                <coordinates>-0.0900498,51.5128676,0.0</coordinates>
            </Point>
        </Placemark>
        <Placemark id="33">
            <name>Markfield Beam Engine and House</name>
            <Point id="32">
                <coordinates>-0.06145199999999999,51.5818841,0.0</coordinates>
            </Point>
        </Placemark>
        <Placemark id="35">
            <name>Marshall Street Leisure Centre</name>
            <Point id="34">
                <coordinates>-0.1382929,51.5136182,0.0</coordinates>
            </Point>
        </Placemark>
        <Placemark id="37">
            <name>St Mary's Wimbledon Garden Hall</name>
            <Point id="36">
                <coordinates>-0.21046,51.42819,0.0</coordinates>
            </Point>
        </Placemark>
        <Placemark id="39">
            <name>Nunhead Cemetery</name>
            <Point id="38">
                <coordinates>-0.05311,51.4643,0.0</coordinates>
            </Point>
        </Placemark>
        <Placemark id="41">
            <name>Old Royal Naval College</name>
            <Point id="40">
                <coordinates>-0.00847,51.48268,0.0</coordinates>
            </Point>
        </Placemark>
        <Placemark id="43">
            <name>Painters' Hall</name>
            <Point id="42">
                <coordinates>-0.09499049999999999,51.5116609,0.0</coordinates>
            </Point>
        </Placemark>
        <Placemark id="45">
            <name>Pollard Thomas Edwards - Diespeker Wharf</name>
            <Point id="44">
                <coordinates>-0.0993428,51.5324006,0.0</coordinates>
            </Point>
        </Placemark>
        <Placemark id="47">
            <name>The Old Town Hall, Richmond</name>
            <Point id="46">
                <coordinates>-0.3068136,51.4588156,0.0</coordinates>
            </Point>
        </Placemark>
        <Placemark id="49">
            <name>Quaker Meeting House - Wandsworth</name>
            <Point id="48">
                <coordinates>-0.1917397,51.4565224,0.0</coordinates>
            </Point>
        </Placemark>
        <Placemark id="51">
            <name>Old Royal Naval College - Queen Anne Court</name>
            <Point id="50">
                <coordinates>-0.00524,51.48387,0.0</coordinates>
            </Point>
        </Placemark>
        <Placemark id="53">
            <name>Old Royal Naval College - Queen Mary Court</name>
            <Point id="52">
                <coordinates>-0.00403,51.48283,0.0</coordinates>
            </Point>
        </Placemark>
        <Placemark id="55">
            <name>Reform Club</name>
            <Point id="54">
                <coordinates>-0.1332457,51.5065129,0.0</coordinates>
            </Point>
        </Placemark>
        <Placemark id="57">
            <name>Rogers House, Wimbledon</name>
            <Point id="56">
                <coordinates>-0.2222801,51.426534,0.0</coordinates>
            </Point>
        </Placemark>
        <Placemark id="59">
            <name>Royal College of General Practitioners</name>
            <Point id="58">
                <coordinates>-0.1340191,51.5265851,0.0</coordinates>
            </Point>
        </Placemark>
        <Placemark id="61">
            <name>Royal Hospital Chelsea, Home of the Chelsea Pensioners</name>
            <Point id="60">
                <coordinates>-0.1582174,51.4878309,0.0</coordinates>
            </Point>
        </Placemark>
        <Placemark id="63">
            <name>Turner's House in Twickenham</name>
            <Point id="62">
                <coordinates>-0.31631,51.45384,0.0</coordinates>
            </Point>
        </Placemark>
        <Placemark id="65">
            <name>Senate House</name>
            <Point id="64">
                <coordinates>-0.1309,51.52296,0.0</coordinates>
            </Point>
        </Placemark>
        <Placemark id="67">
            <name>BAPS Shri Swaminarayan Mandir</name>
            <Point id="66">
                <coordinates>-0.26243,51.54789,0.0</coordinates>
            </Point>
        </Placemark>
        <Placemark id="69">
            <name>Society for the Protection of Ancient Buildings (SPAB)</name>
            <Point id="68">
                <coordinates>-0.07836,51.52038,0.0</coordinates>
            </Point>
        </Placemark>
        <Placemark id="71">
            <name>Twickenham Museum</name>
            <Point id="70">
                <coordinates>-0.32552,51.44673,0.0</coordinates>
            </Point>
        </Placemark>
        <Placemark id="73">
            <name>The Fan Museum</name>
            <Point id="72">
                <coordinates>-0.00801,51.47904,0.0</coordinates>
            </Point>
        </Placemark>
        <Placemark id="75">
            <name>Brixton Windmill</name>
            <Point id="74">
                <coordinates>-0.1235,51.45319,0.0</coordinates>
            </Point>
        </Placemark>
        <Placemark id="77">
            <name>Temple Bar</name>
            <Point id="76">
                <coordinates>-0.09844,51.51508,0.0</coordinates>
            </Point>
        </Placemark>
        <Placemark id="79">
            <name>Table Top Museums at The Art Workers’ Guild</name>
            <Point id="78">
                <coordinates>-0.12272,51.52149,0.0</coordinates>
            </Point>
        </Placemark>
        <Placemark id="81">
            <name>The Great Barn, Harmondsworth</name>
            <Point id="80">
                <coordinates>-0.47975,51.48961,0.0</coordinates>
            </Point>
        </Placemark>
        <Placemark id="83">
            <name>Argentine Ambassador's Residence</name>
            <Point id="82">
                <coordinates>-0.1531897,51.50055039999999,0.0</coordinates>
            </Point>
        </Placemark>
        <Placemark id="85">
            <name>The Stanley Picker Trust, Picker House</name>
            <Point id="84">
                <coordinates>-0.26898,51.42213,0.0</coordinates>
            </Point>
        </Placemark>
        <Placemark id="87">
            <name>Tooting Bec Lido</name>
            <Point id="86">
                <coordinates>-0.13911,51.43182,0.0</coordinates>
            </Point>
        </Placemark>
        <Placemark id="89">
            <name>Trinity Buoy Wharf/Container City</name>
            <Point id="88">
                <coordinates>0.00894,51.50862,0.0</coordinates>
            </Point>
        </Placemark>
        <Placemark id="91">
            <name>City of Westminster Archives Centre</name>
            <Point id="90">
                <coordinates>-0.13008,51.4975,0.0</coordinates>
            </Point>
        </Placemark>
        <Placemark id="93">
            <name>Redlees Studios</name>
            <Point id="92">
                <coordinates>-0.3307186,51.4671646,0.0</coordinates>
            </Point>
        </Placemark>
        <Placemark id="95">
            <name>Benjamin Franklin House</name>
            <Point id="94">
                <coordinates>-0.1248869,51.5076423,0.0</coordinates>
            </Point>
        </Placemark>
        <Placemark id="97">
            <name>Wimbledon Windmill Museum</name>
            <Point id="96">
                <coordinates>-0.23263,51.43312,0.0</coordinates>
            </Point>
        </Placemark>
        <Placemark id="99">
            <name>Parish Church of St Andrew, Enfield</name>
            <Point id="98">
                <coordinates>-0.08199,51.65278,0.0</coordinates>
            </Point>
        </Placemark>
        <Placemark id="101">
            <name>St Augustine's Church</name>
            <Point id="100">
                <coordinates>-0.1916647,51.53353509999999,0.0</coordinates>
            </Point>
        </Placemark>
        <Placemark id="103">
            <name>St Mary's Church, Battersea</name>
            <Point id="102">
                <coordinates>-0.17138,51.47864,0.0</coordinates>
            </Point>
        </Placemark>
        <Placemark id="105">
            <name>St Paul's, Newington</name>
            <Point id="104">
                <coordinates>-0.10166,51.48463,0.0</coordinates>
            </Point>
        </Placemark>
        <Placemark id="107">
            <name>Ealing Common Walk</name>
            <Point id="106">
                <coordinates>-0.29062,51.51424,0.0</coordinates>
            </Point>
        </Placemark>
        <Placemark id="109">
            <name>Canada House</name>
            <Point id="108">
                <coordinates>-0.12892,51.50802,0.0</coordinates>
            </Point>
        </Placemark>
        <Placemark id="111">
            <name>Charlton House &amp; Gardens</name>
            <Point id="110">
                <coordinates>0.03717,51.48059,0.0</coordinates>
            </Point>
        </Placemark>
        <Placemark id="113">
            <name>Crown Court Church of Scotland</name>
            <Point id="112">
                <coordinates>-0.12106,51.51341,0.0</coordinates>
            </Point>
        </Placemark>
        <Placemark id="115">
            <name>Zoroastrian Centre For Europe (formerly Grosvenor Cinema)</name>
            <Point id="114">
                <coordinates>-0.37068,51.57401,0.0</coordinates>
            </Point>
        </Placemark>
        <Placemark id="117">
            <name>Whitgift Almshouses</name>
            <Point id="116">
                <coordinates>-0.0998395,51.3739482,0.0</coordinates>
            </Point>
        </Placemark>
        <Placemark id="119">
            <name>The Tin Tabernacle / Cambridge Hall</name>
            <Point id="118">
                <coordinates>-0.19289,51.5355,0.0</coordinates>
            </Point>
        </Placemark>
        <Placemark id="121">
            <name>St Pancras Church &amp; Crypt</name>
            <Point id="120">
                <coordinates>-0.13075,51.52727,0.0</coordinates>
            </Point>
        </Placemark>
        <Placemark id="123">
            <name>National Theatre Studio</name>
            <Point id="122">
                <coordinates>-0.1079907,51.5026749,0.0</coordinates>
            </Point>
        </Placemark>
        <Placemark id="125">
            <name>Carshalton Water Tower and Historic Gardens</name>
            <Point id="124">
                <coordinates>-0.16684,51.36508,0.0</coordinates>
            </Point>
        </Placemark>
        <Placemark id="127">
            <name>Lumley Chapel</name>
            <Point id="126">
                <coordinates>-0.2162826,51.360717,0.0</coordinates>
            </Point>
        </Placemark>
        <Placemark id="129">
            <name>All Saints Carshalton</name>
            <Point id="128">
                <coordinates>-0.16291,51.36488,0.0</coordinates>
            </Point>
        </Placemark>
        <Placemark id="131">
            <name>City Information Centre</name>
            <Point id="130">
                <coordinates>-0.09886,51.5131,0.0</coordinates>
            </Point>
        </Placemark>
        <Placemark id="133">
            <name>WM College</name>
            <Point id="132">
                <coordinates>-0.13605,51.53526,0.0</coordinates>
            </Point>
        </Placemark>
        <Placemark id="135">
            <name>St Mary's Wimbledon, Parish Church</name>
            <Point id="134">
                <coordinates>-0.21138,51.42798,0.0</coordinates>
            </Point>
        </Placemark>
        <Placemark id="137">
            <name>Wimbledon Village Club, Museum and Lecture Hall</name>
            <Point id="136">
                <coordinates>-0.21656,51.42321,0.0</coordinates>
            </Point>
        </Placemark>
        <Placemark id="139">
            <name>St John the Baptist Church, Wimbledon</name>
            <Point id="138">
                <coordinates>-0.2164071,51.4201861,0.0</coordinates>
            </Point>
        </Placemark>
        <Placemark id="141">
            <name>A Ruskinian Walk Through Shared Heritage</name>
            <Point id="140">
                <coordinates>-0.27587,51.49461,0.0</coordinates>
            </Point>
        </Placemark>
        <Placemark id="143">
            <name>15 Edge Hill</name>
            <Point id="142">
                <coordinates>-0.2194,51.41664,0.0</coordinates>
            </Point>
        </Placemark>
        <Placemark id="145">
            <name>Our Lady of the Assumption Church</name>
            <Point id="144">
                <coordinates>-0.0536863,51.5283145,0.0</coordinates>
            </Point>
        </Placemark>
        <Placemark id="147">
            <name>St Anne's Church, Kew Green</name>
            <Point id="146">
                <coordinates>-0.28954,51.48394,0.0</coordinates>
            </Point>
        </Placemark>
        <Placemark id="149">
            <name>Billingsgate Roman House &amp; Baths</name>
            <Point id="148">
                <coordinates>-0.08305,51.50928,0.0</coordinates>
            </Point>
        </Placemark>
        <Placemark id="151">
            <name>City Hall</name>
            <Point id="150">
                <coordinates>0.01621,51.50718,0.0</coordinates>
            </Point>
        </Placemark>
        <Placemark id="153">
            <name>Southwark Integrated Waste Management Facility</name>
            <Point id="152">
                <coordinates>-0.05796,51.48299,0.0</coordinates>
            </Point>
        </Placemark>
        <Placemark id="155">
            <name>Kew House</name>
            <Point id="154">
                <coordinates>-0.28586,51.48255,0.0</coordinates>
            </Point>
        </Placemark>
        <Placemark id="157">
            <name>Fullwell Cross Library</name>
            <Point id="156">
                <coordinates>0.08505,51.59318,0.0</coordinates>
            </Point>
        </Placemark>
        <Placemark id="159">
            <name>St Pancras Chambers and Clock Tower</name>
            <Point id="158">
                <coordinates>-0.12467,51.53014,0.0</coordinates>
            </Point>
        </Placemark>
        <Placemark id="161">
            <name>University of Greenwich, Stockwell Street</name>
            <Point id="160">
                <coordinates>-0.00908,51.47997,0.0</coordinates>
            </Point>
        </Placemark>
        <Placemark id="163">
            <name>St Anne's Church, Limehouse</name>
            <Point id="162">
                <coordinates>-0.03039,51.5107,0.0</coordinates>
            </Point>
        </Placemark>
        <Placemark id="165">
            <name>&quot;Change: 40 Years of SOM London,” a special exhibition exploring design as a cultural practice</name>
            <Point id="164">
                <coordinates>-0.15295,51.51942,0.0</coordinates>
            </Point>
        </Placemark>
        <Placemark id="167">
            <name>Mount Pleasant</name>
            <Point id="166">
                <coordinates>-0.1130917,51.5218569,0.0</coordinates>
            </Point>
        </Placemark>
        <Placemark id="169">
            <name>Tin House</name>
            <Point id="168">
                <coordinates>-0.23139,51.50572,0.0</coordinates>
            </Point>
        </Placemark>
        <Placemark id="171">
            <name>Kaymet Factory</name>
            <Point id="170">
                <coordinates>-0.0710449,51.48474239999999,0.0</coordinates>
            </Point>
        </Placemark>
        <Placemark id="173">
            <name>Moravian Close</name>
            <Point id="172">
                <coordinates>-0.1762358,51.4836113,0.0</coordinates>
            </Point>
        </Placemark>
        <Placemark id="175">
            <name>Kingston Guildhall and History Centre</name>
            <Point id="174">
                <coordinates>-0.30596,51.40824,0.0</coordinates>
            </Point>
        </Placemark>
        <Placemark id="177">
            <name>Polish Social and Cultural Association</name>
            <Point id="176">
                <coordinates>-0.237489,51.4935842,0.0</coordinates>
            </Point>
        </Placemark>
        <Placemark id="179">
            <name>Kingston Historic walk</name>
            <Point id="178">
                <coordinates>-0.3062179,51.40975359999999,0.0</coordinates>
            </Point>
        </Placemark>
        <Placemark id="181">
            <name>International Maritime Organization</name>
            <Point id="180">
                <coordinates>-0.1210654,51.4936018,0.0</coordinates>
            </Point>
        </Placemark>
        <Placemark id="183">
            <name>Victoria: Hidden in Plain Sight</name>
            <Point id="182">
                <coordinates>-0.14111,51.4971,0.0</coordinates>
            </Point>
        </Placemark>
        <Placemark id="185">
            <name>Estorick Collection of Modern Italian Art</name>
            <Point id="184">
                <coordinates>-0.10064,51.54393,0.0</coordinates>
            </Point>
        </Placemark>
        <Placemark id="187">
            <name>Olympic Legacy Masterplan</name>
            <Point id="186">
                <coordinates>-0.01485,51.54758,0.0</coordinates>
            </Point>
        </Placemark>
        <Placemark id="189">
            <name>Royal Hospital for Neuro-disability</name>
            <Point id="188">
                <coordinates>-0.2141958,51.45162699999999,0.0</coordinates>
            </Point>
        </Placemark>
        <Placemark id="191">
            <name>Bethlehem Chapel Richmond upon Thames</name>
            <Point id="190">
                <coordinates>-0.30367,51.45904,0.0</coordinates>
            </Point>
        </Placemark>
        <Placemark id="193">
            <name>Park Royal Fire Station</name>
            <Point id="192">
                <coordinates>-0.265605,51.5377088,0.0</coordinates>
            </Point>
        </Placemark>
        <Placemark id="195">
            <name>St Margaret's Church, Lee</name>
            <Point id="194">
                <coordinates>0.00054,51.46278,0.0</coordinates>
            </Point>
        </Placemark>
        <Placemark id="197">
            <name>Our Yard at Clitterhouse Farm</name>
            <Point id="196">
                <coordinates>-0.21653,51.56693,0.0</coordinates>
            </Point>
        </Placemark>
        <Placemark id="199">
            <name>Illuminated River Walk: Explore London’s Bridges After Dark</name>
            <Point id="198">
                <coordinates>-0.11981,51.50093,0.0</coordinates>
            </Point>
        </Placemark>
        <Placemark id="201">
            <name>Founders' Hall</name>
            <Point id="200">
                <coordinates>-0.0990206,51.5192561,0.0</coordinates>
            </Point>
        </Placemark>
        <Placemark id="203">
            <name>Croydon Minster</name>
            <Point id="202">
                <coordinates>-0.10608,51.37271,0.0</coordinates>
            </Point>
        </Placemark>
        <Placemark id="205">
            <name>1.20 Oxo Tower Wharf</name>
            <Point id="204">
                <coordinates>-0.10827,51.50846,0.0</coordinates>
            </Point>
        </Placemark>
        <Placemark id="207">
            <name>Christ Church</name>
            <Point id="206">
                <coordinates>-0.1888,51.35499,0.0</coordinates>
            </Point>
        </Placemark>
        <Placemark id="209">
            <name>Slavery and the City</name>
            <Point id="208">
                <coordinates>-0.09755699999999999,51.5148819,0.0</coordinates>
            </Point>
        </Placemark>
        <Placemark id="211">
            <name>Sands End Arts &amp; Community Centre</name>
            <Point id="210">
                <coordinates>-0.19681,51.46974,0.0</coordinates>
            </Point>
        </Placemark>
        <Placemark id="213">
            <name>Hinde Street Methodist Church</name>
            <Point id="212">
                <coordinates>-0.151156,51.5171666,0.0</coordinates>
            </Point>
        </Placemark>
        <Placemark id="215">
            <name>St Bride's Church, Fleet Street</name>
            <Point id="214">
                <coordinates>-0.10554,51.51376,0.0</coordinates>
            </Point>
        </Placemark>
        <Placemark id="217">
            <name>Boston Manor House</name>
            <Point id="216">
                <coordinates>-0.3183739,51.49191829999999,0.0</coordinates>
            </Point>
        </Placemark>
        <Placemark id="219">
            <name>East Croydon History Walk</name>
            <Point id="218">
                <coordinates>-0.0836,51.3752,0.0</coordinates>
            </Point>
        </Placemark>
        <Placemark id="221">
            <name>South Norwood Library</name>
            <Point id="220">
                <coordinates>-0.07868,51.39722,0.0</coordinates>
            </Point>
        </Placemark>
        <Placemark id="223">
            <name>Brandon Centre</name>
            <Point id="222">
                <coordinates>-0.1447966,51.5467627,0.0</coordinates>
            </Point>
        </Placemark>
        <Placemark id="225">
            <name>The Victorian Society</name>
            <Point id="224">
                <coordinates>-0.25377,51.49613,0.0</coordinates>
            </Point>
        </Placemark>
        <Placemark id="227">
            <name>6 Moretown (Gensler London Studio)</name>
            <Point id="226">
                <coordinates>-0.06809,51.50782,0.0</coordinates>
            </Point>
        </Placemark>
        <Placemark id="229">
            <name>La Sainte Union Catholic School</name>
            <Point id="228">
                <coordinates>-0.1497769,51.5599528,0.0</coordinates>
            </Point>
        </Placemark>
        <Placemark id="231">
            <name>People's Museum Somers Town</name>
            <Point id="230">
                <coordinates>-0.13095,51.53106,0.0</coordinates>
            </Point>
        </Placemark>
        <Placemark id="233">
            <name>Lambeth Palace Library</name>
            <Point id="232">
                <coordinates>-0.1207935,51.49518140000001,0.0</coordinates>
            </Point>
        </Placemark>
        <Placemark id="235">
            <name>St Matthew's Church</name>
            <Point id="234">
                <coordinates>-0.29574,51.51328,0.0</coordinates>
            </Point>
        </Placemark>
        <Placemark id="237">
            <name>Timothy Hatton Architects – The Foundry</name>
            <Point id="236">
                <coordinates>-0.23739,51.50675,0.0</coordinates>
            </Point>
        </Placemark>
        <Placemark id="239">
            <name>Sheppard Robson, 77 Parkway</name>
            <Point id="238">
                <coordinates>-0.14534,51.5373399,0.0</coordinates>
            </Point>
        </Placemark>
        <Placemark id="241">
            <name>Bazalgette Mausoleum</name>
            <Point id="240">
                <coordinates>-0.21071,51.42844,0.0</coordinates>
            </Point>
        </Placemark>
        <Placemark id="243">
            <name>All Saints Church, Upper Norwood</name>
            <Point id="242">
                <coordinates>-0.0863,51.41129,0.0</coordinates>
            </Point>
        </Placemark>
        <Placemark id="245">
            <name>All Saints Church, Edmonton</name>
            <Point id="244">
                <coordinates>-0.065944,51.62622649999999,0.0</coordinates>
            </Point>
        </Placemark>
        <Placemark id="247">
            <name>From Forest to Morris: A walk around Walthamstow</name>
            <Point id="246">
                <coordinates>-0.0194102,51.5828202,0.0</coordinates>
            </Point>
        </Placemark>
        <Placemark id="249">
            <name>St Mary's Church Bromley</name>
            <Point id="248">
                <coordinates>0.01496,51.41262,0.0</coordinates>
            </Point>
        </Placemark>
        <Placemark id="251">
            <name>London Scottish House (London Scottish Regimental Headquarters)</name>
            <Point id="250">
                <coordinates>-0.1331912,51.4952653,0.0</coordinates>
            </Point>
        </Placemark>
        <Placemark id="253">
            <name>3D Printing at Design District</name>
            <Point id="252">
                <coordinates>0.00503,51.49988,0.0</coordinates>
            </Point>
        </Placemark>
        <Placemark id="255">
            <name>Gaunson Creative Open Studios part of Markfield Road Festival</name>
            <Point id="254">
                <coordinates>-0.0635681,51.5838118,0.0</coordinates>
            </Point>
        </Placemark>
        <Placemark id="257">
            <name>Scadbury Moated Manor</name>
            <Point id="256">
                <coordinates>0.08723,51.4148,0.0</coordinates>
            </Point>
        </Placemark>
        <Placemark id="259">
            <name>Zaha Hadid Foundation</name>
            <Point id="258">
                <coordinates>-0.07155,51.50273,0.0</coordinates>
            </Point>
        </Placemark>
        <Placemark id="261">
            <name>Hoxton Hall</name>
            <Point id="260">
                <coordinates>-0.07967,51.53189,0.0</coordinates>
            </Point>
        </Placemark>
        <Placemark id="263">
            <name>1-4 Suffolk Street: Uni of Notre Dame &amp; G.K Chesterton</name>
            <Point id="262">
                <coordinates>-0.1304929,51.50831849999999,0.0</coordinates>
            </Point>
        </Placemark>
        <Placemark id="265">
            <name>St Paul's Waldorf School</name>
            <Point id="264">
                <coordinates>-0.08774,51.54648,0.0</coordinates>
            </Point>
        </Placemark>
        <Placemark id="267">
            <name>Rufford Mews Apartment</name>
            <Point id="266">
                <coordinates>-0.12174,51.53991,0.0</coordinates>
            </Point>
        </Placemark>
        <Placemark id="269">
            <name>London Fire Brigade Memorial Hall</name>
            <Point id="268">
                <coordinates>-0.1215,51.49253,0.0</coordinates>
            </Point>
        </Placemark>
        <Placemark id="271">
            <name>The Thorney Island Society Archives</name>
            <Point id="270">
                <coordinates>-0.1316,51.49751,0.0</coordinates>
            </Point>
        </Placemark>
        <Placemark id="273">
            <name>Eastcote Walking Tour</name>
            <Point id="272">
                <coordinates>-0.39714,51.57655,0.0</coordinates>
            </Point>
        </Placemark>
        <Placemark id="275">
            <name>Hidden Isleworth - a walking tour with varied buildings</name>
            <Point id="274">
                <coordinates>-0.33027,51.46626,0.0</coordinates>
            </Point>
        </Placemark>
        <Placemark id="277">
            <name>London Open Form Pavilion of Air</name>
            <Point id="276">
                <coordinates>-0.17464,51.50466,0.0</coordinates>
            </Point>
        </Placemark>
        <Placemark id="279">
            <name>WWII fighter pen tours at former RAF Kenley</name>
            <Point id="278">
                <coordinates>-0.08914,51.3106,0.0</coordinates>
            </Point>
        </Placemark>
        <Placemark id="281">
            <name>Edmonton – the making of a north London suburb: past, present &amp; future</name>
            <Point id="280">
                <coordinates>-0.06708,51.61474,0.0</coordinates>
            </Point>
        </Placemark>
        <Placemark id="283">
            <name>Calamity and civility: contrasts in Clerkenwell</name>
            <Point id="282">
                <coordinates>-0.0996,51.5211,0.0</coordinates>
            </Point>
        </Placemark>
        <Placemark id="285">
            <name>The London Centre</name>
            <Point id="284">
                <coordinates>-0.09292,51.51606,0.0</coordinates>
            </Point>
        </Placemark>
        <Placemark id="287">
            <name>Museum of Croydon Behind the Scenes Tour</name>
            <Point id="286">
                <coordinates>-0.09939,51.37226,0.0</coordinates>
            </Point>
        </Placemark>
        <Placemark id="289">
            <name>National Youth Theatre</name>
            <Point id="288">
                <coordinates>-0.122,51.55948,0.0</coordinates>
            </Point>
        </Placemark>
        <Placemark id="291">
            <name>Crystal Palace Subway</name>
            <Point id="290">
                <coordinates>-0.07729,51.42209,0.0</coordinates>
            </Point>
        </Placemark>
        <Placemark id="293">
            <name>Little Mouse Cheese Shop</name>
            <Point id="292">
                <coordinates>-0.07715,51.39806,0.0</coordinates>
            </Point>
        </Placemark>
        <Placemark id="295">
            <name>Good Shepherd Studios</name>
            <Point id="294">
                <coordinates>0.01224,51.5642,0.0</coordinates>
            </Point>
        </Placemark>
        <Placemark id="297">
            <name>Petty France and its environs</name>
            <Point id="296">
                <coordinates>-0.13453,51.49795,0.0</coordinates>
            </Point>
        </Placemark>
        <Placemark id="299">
            <name>Company Drinks Pavilion and Garden</name>
            <Point id="298">
                <coordinates>0.08381,51.54403,0.0</coordinates>
            </Point>
        </Placemark>
        <Placemark id="301">
            <name>Woodside Loft, 4 Singleton Scarp</name>
            <Point id="300">
                <coordinates>-0.19194,51.61619,0.0</coordinates>
            </Point>
        </Placemark>
        <Placemark id="303">
            <name>Kensal House, Past Present and Future</name>
            <Point id="302">
                <coordinates>-0.21522,51.52536,0.0</coordinates>
            </Point>
        </Placemark>
        <Placemark id="305">
            <name>St Mary the Virgin Church</name>
            <Point id="304">
                <coordinates>0.01767,51.37859,0.0</coordinates>
            </Point>
        </Placemark>
        <Placemark id="307">
            <name>Armourers' Hall</name>
            <Point id="306">
                <coordinates>-0.08936,51.51719,0.0</coordinates>
            </Point>
        </Placemark>
        <Placemark id="309">
            <name>Brick Sixty Studio</name>
            <Point id="308">
                <coordinates>-0.03435,51.53216,0.0</coordinates>
            </Point>
        </Placemark>
        <Placemark id="311">
            <name>The Biscuit Building</name>
            <Point id="310">
                <coordinates>-0.07608,51.52412,0.0</coordinates>
            </Point>
        </Placemark>
        <Placemark id="313">
            <name>St Marylebone Parish Church</name>
            <Point id="312">
                <coordinates>-0.1524,51.52278,0.0</coordinates>
            </Point>
        </Placemark>
        <Placemark id="315">
            <name>All Saints Church, Kenley</name>
            <Point id="314">
                <coordinates>-0.09911,51.3221,0.0</coordinates>
            </Point>
        </Placemark>
        <Placemark id="317">
            <name>Howard Hodgkin Studio</name>
            <Point id="316">
                <coordinates>-0.21155,51.59579,0.0</coordinates>
            </Point>
        </Placemark>
        <Placemark id="319">
            <name>St Michael's Church, Croydon</name>
            <Point id="318">
                <coordinates>-0.10085,51.37826,0.0</coordinates>
            </Point>
        </Placemark>
        <Placemark id="321">
            <name>Inner Space Meditation Centre, Covent Garden</name>
            <Point id="320">
                <coordinates>-0.12523,51.51459,0.0</coordinates>
            </Point>
        </Placemark>
        <Placemark id="323">
            <name>Energy and Sustainability through time: King's Cross</name>
            <Point id="322">
                <coordinates>-0.12535,51.53234,0.0</coordinates>
            </Point>
        </Placemark>
        <Placemark id="325">
            <name>De Lane Lea Studios, 75 Dean Street</name>
            <Point id="324">
                <coordinates>-0.13307,51.51381,0.0</coordinates>
            </Point>
        </Placemark>
        <Placemark id="327">
            <name>Private House and Summer House</name>
            <Point id="326">
                <coordinates>-0.31419,51.42285,0.0</coordinates>
            </Point>
        </Placemark>
        <Placemark id="329">
            <name>Wooden Annex</name>
            <Point id="328">
                <coordinates>-0.07991,51.42585,0.0</coordinates>
            </Point>
        </Placemark>
        <Placemark id="331">
            <name>St Margaret's Parish  Church Barking</name>
            <Point id="330">
                <coordinates>0.07587,51.53557,0.0</coordinates>
            </Point>
        </Placemark>
        <Placemark id="333">
            <name>Croydon Urban Room</name>
            <Point id="332">
                <coordinates>-0.10075,51.37522,0.0</coordinates>
            </Point>
        </Placemark>
        <Placemark id="335">
            <name>Royal Botanic Gardens, Kew - Herbarium</name>
            <Point id="334">
                <coordinates>-0.29117,51.48527,0.0</coordinates>
            </Point>
        </Placemark>
        <Placemark id="337">
            <name>‘Strictly Entertainment’- Shepherd’s Bush 1915-2013</name>
            <Point id="336">
                <coordinates>-0.22483,51.51188,0.0</coordinates>
            </Point>
        </Placemark>
        <Placemark id="339">
            <name>Devil’s Botany Distillery</name>
            <Point id="338">
                <coordinates>-0.03101,51.56937,0.0</coordinates>
            </Point>
        </Placemark>
        <Placemark id="341">
            <name>Heatherwick Studio at Making House</name>
            <Point id="340">
                <coordinates>-0.12016,51.52873,0.0</coordinates>
            </Point>
        </Placemark>
        <Placemark id="343">
            <name>Resilience in Highgate: multi-sensory walk</name>
            <Point id="342">
                <coordinates>-0.14377,51.57635,0.0</coordinates>
            </Point>
        </Placemark>
        <Placemark id="345">
            <name>Harfield Gardens House</name>
            <Point id="344">
                <coordinates>-0.08454,51.46663,0.0</coordinates>
            </Point>
        </Placemark>
        <Placemark id="347">
            <name>Postwar and post-welfare North London walking tour</name>
            <Point id="346">
                <coordinates>-0.16452,51.55033,0.0</coordinates>
            </Point>
        </Placemark>
        <Placemark id="349">
            <name>outhouse gallery</name>
            <Point id="348">
                <coordinates>-0.08556,51.4755,0.0</coordinates>
            </Point>
        </Placemark>
        <Placemark id="351">
            <name>Queensrollahouse</name>
            <Point id="350">
                <coordinates>-0.26931,51.52641,0.0</coordinates>
            </Point>
        </Placemark>
        <Placemark id="353">
            <name>University of West London</name>
            <Point id="352">
                <coordinates>-0.30281,51.50665,0.0</coordinates>
            </Point>
        </Placemark>
        <Placemark id="355">
            <name>Explore the authentically recreated Colony Room</name>
            <Point id="354">
                <coordinates>-0.13932,51.51092,0.0</coordinates>
            </Point>
        </Placemark>
        <Placemark id="357">
            <name>The Smallest Gallery in Soho</name>
            <Point id="356">
                <coordinates>-0.13226,51.51302,0.0</coordinates>
            </Point>
        </Placemark>
        <Placemark id="359">
            <name>Memorial Community Church</name>
            <Point id="358">
                <coordinates>0.02405,51.52302,0.0</coordinates>
            </Point>
        </Placemark>
        <Placemark id="361">
            <name>Six Columns</name>
            <Point id="360">
                <coordinates>-0.08172,51.42454,0.0</coordinates>
            </Point>
        </Placemark>
        <Placemark id="363">
            <name>Romans in London walk</name>
            <Point id="362">
                <coordinates>-0.07666,51.51011,0.0</coordinates>
            </Point>
        </Placemark>
        <Placemark id="365">
            <name>St John the Baptist Church Erith</name>
            <Point id="364">
                <coordinates>0.17053,51.48672,0.0</coordinates>
            </Point>
        </Placemark>
        <Placemark id="367">
            <name>Queer Britain</name>
            <Point id="366">
                <coordinates>-0.12392,51.53568,0.0</coordinates>
            </Point>
        </Placemark>
        <Placemark id="369">
            <name>National Army Museum</name>
            <Point id="368">
                <coordinates>-0.16072,51.48633,0.0</coordinates>
            </Point>
        </Placemark>
        <Placemark id="371">
            <name>Gongoozlers of Regent's Canal &amp; Little Venice</name>
            <Point id="370">
                <coordinates>-0.18565,51.5216,0.0</coordinates>
            </Point>
        </Placemark>
        <Placemark id="373">
            <name>St Mary’s Church, Somers Town</name>
            <Point id="372">
                <coordinates>-0.1348,51.53136,0.0</coordinates>
            </Point>
        </Placemark>
        <Placemark id="375">
            <name>The Crafted Environment: Merton Abbey Mills</name>
            <Point id="374">
                <coordinates>-0.18355,51.41297,0.0</coordinates>
            </Point>
        </Placemark>
        <Placemark id="377">
            <name>London Film School - Shelton Street</name>
            <Point id="376">
                <coordinates>-0.12558,51.5136,0.0</coordinates>
            </Point>
        </Placemark>
        <Placemark id="379">
            <name>Tannery Arts: Winchester House Studios</name>
            <Point id="378">
                <coordinates>-0.10943,51.47968,0.0</coordinates>
            </Point>
        </Placemark>
        <Placemark id="381">
            <name>Sanderstead Library</name>
            <Point id="380">
                <coordinates>-0.08581,51.34097,0.0</coordinates>
            </Point>
        </Placemark>
        <Placemark id="383">
            <name>72 Kynaston Road</name>
            <Point id="382">
                <coordinates>-0.07848,51.56025,0.0</coordinates>
            </Point>
        </Placemark>
        <Placemark id="385">
            <name>St Mary &amp; St Joseph Roman Catholic Church, Poplar</name>
            <Point id="384">
                <coordinates>-0.02052,51.51203,0.0</coordinates>
            </Point>
        </Placemark>
        <Placemark id="387">
            <name>One Paved Court</name>
            <Point id="386">
                <coordinates>-0.30658,51.46039,0.0</coordinates>
            </Point>
        </Placemark>
        <Placemark id="389">
            <name>1930s Bloomsbury walking tour</name>
            <Point id="388">
                <coordinates>-0.13035,51.51668,0.0</coordinates>
            </Point>
        </Placemark>
        <Placemark id="391">
            <name>Internet infrastructure of London walking tour</name>
            <Point id="390">
                <coordinates>-0.07891,51.50843,0.0</coordinates>
            </Point>
        </Placemark>
        <Placemark id="393">
            <name>Grove Lane</name>
            <Point id="392">
                <coordinates>-0.08595,51.46672,0.0</coordinates>
            </Point>
        </Placemark>
        <Placemark id="395">
            <name>Dagenham Parish Church</name>
            <Point id="394">
                <coordinates>0.16194,51.53975,0.0</coordinates>
            </Point>
        </Placemark>
        <Placemark id="397">
            <name>Pollocks House of Cards and Paper Gardens</name>
            <Point id="396">
                <coordinates>-0.09895,51.37635,0.0</coordinates>
            </Point>
        </Placemark>
        <Placemark id="399">
            <name>London Film School - Parker Street</name>
            <Point id="398">
                <coordinates>-0.12133,51.51622,0.0</coordinates>
            </Point>
        </Placemark>
        <Placemark id="401">
            <name>The Great Barn</name>
            <Point id="400">
                <coordinates>-0.42824,51.57806,0.0</coordinates>
            </Point>
        </Placemark>
        <Placemark id="403">
            <name>The Manor House, Manor Farm, Ruislip</name>
            <Point id="402">
                <coordinates>-0.42737,51.5788,0.0</coordinates>
            </Point>
        </Placemark>
        <Placemark id="405">
            <name>The Dovecote, Eastcote House Gardens</name>
            <Point id="404">
                <coordinates>-0.40302,51.58687,0.0</coordinates>
            </Point>
        </Placemark>
        <Placemark id="407">
            <name>St Andrew's Church Leytonstone</name>
            <Point id="406">
                <coordinates>0.00757,51.57552,0.0</coordinates>
            </Point>
        </Placemark>
        <Placemark id="409">
            <name>London Mithraeum Bloomberg SPACE</name>
            <Point id="408">
                <coordinates>-0.09055,51.51233,0.0</coordinates>
            </Point>
        </Placemark>
        <Placemark id="411">
            <name>Family Day in the City</name>
            <Point id="410">
                <coordinates>-0.09171,51.51559,0.0</coordinates>
            </Point>
        </Placemark>
        <Placemark id="413">
            <name>The Purpose of Light: Exhibition by Misan Harriman</name>
            <Point id="412">
                <coordinates>-0.13826,51.51651,0.0</coordinates>
            </Point>
        </Placemark>
        <Placemark id="415">
            <name>Soho Square Gardens</name>
            <Point id="414">
                <coordinates>-0.13171,51.51542,0.0</coordinates>
            </Point>
        </Placemark>
        <Placemark id="417">
            <name>John Lobb</name>
            <Point id="416">
                <coordinates>-0.13725,51.50811,0.0</coordinates>
            </Point>
        </Placemark>
        <Placemark id="419">
            <name>Trinity Congregational Chapel, Brixton</name>
            <Point id="418">
                <coordinates>-0.11604,51.45802,0.0</coordinates>
            </Point>
        </Placemark>
        <Placemark id="421">
            <name>Florentia Village</name>
            <Point id="420">
                <coordinates>-0.08861,51.57641,0.0</coordinates>
            </Point>
        </Placemark>
        <Placemark id="423">
            <name>Strongroom</name>
            <Point id="422">
                <coordinates>-0.08011,51.52596,0.0</coordinates>
            </Point>
        </Placemark>
        <Placemark id="425">
            <name>Herne Hill Velodrome</name>
            <Point id="424">
                <coordinates>-0.09099,51.45121,0.0</coordinates>
            </Point>
        </Placemark>
        <Placemark id="427">
            <name>Mirpur: Atlantis of Kashmir at the Market</name>
            <Point id="426">
                <coordinates>-0.22651,51.50455,0.0</coordinates>
            </Point>
        </Placemark>
        <Placemark id="429">
            <name>Eco Punk</name>
            <Point id="428">
                <coordinates>0.04158,51.56012,0.0</coordinates>
            </Point>
        </Placemark>
        <Placemark id="431">
            <name>St Mark's Church, Wimbledon</name>
            <Point id="430">
                <coordinates>-0.20727,51.42259,0.0</coordinates>
            </Point>
        </Placemark>
        <Placemark id="433">
            <name>Sacred Heart Church</name>
            <Point id="432">
                <coordinates>-0.22097,51.4177,0.0</coordinates>
            </Point>
        </Placemark>
        <Placemark id="435">
            <name>St Andrew's Church N16</name>
            <Point id="434">
                <coordinates>-0.08027,51.57064,0.0</coordinates>
            </Point>
        </Placemark>
        <Placemark id="437">
            <name>Bloomsbury marginalia – working-class lives in Bloomsbury</name>
            <Point id="436">
                <coordinates>-0.12895,51.51725,0.0</coordinates>
            </Point>
        </Placemark>
        <Placemark id="439">
            <name>Birds Portchmouth Russum Architects  - Open Office</name>
            <Point id="438">
                <coordinates>-0.09498,51.53226,0.0</coordinates>
            </Point>
        </Placemark>
        <Placemark id="441">
            <name>Morden Extension Centenary - Treasure Hunt</name>
            <Point id="440">
                <coordinates>-0.1947,51.40224,0.0</coordinates>
            </Point>
        </Placemark>
        <Placemark id="443">
            <name>From Tiles to Tales: Feltham’s Mural and Mosaic Trail</name>
            <Point id="442">
                <coordinates>-0.4106,51.44792,0.0</coordinates>
            </Point>
        </Placemark>
        <Placemark id="445">
            <name>2 Belgrave Road: Victorian house with Luis Barragán inspired interior</name>
            <Point id="444">
                <coordinates>-0.02119,51.57916,0.0</coordinates>
            </Point>
        </Placemark>
        <Placemark id="447">
            <name>Open House 18 Woolwich Road</name>
            <Point id="446">
                <coordinates>0.01249,51.48607,0.0</coordinates>
            </Point>
        </Placemark>
        <Placemark id="449">
            <name>An ideal city tour with a landscape architect</name>
            <Point id="448">
                <coordinates>-0.12504,51.53218,0.0</coordinates>
            </Point>
        </Placemark>
        <Placemark id="451">
            <name>The South Wing</name>
            <Point id="450">
                <coordinates>-0.09654,51.36532,0.0</coordinates>
            </Point>
        </Placemark>
        <Placemark id="453">
            <name>Passivhaus for Camden's climate crisis</name>
            <Point id="452">
                <coordinates>-0.13257,51.54276,0.0</coordinates>
            </Point>
        </Placemark>
        <Placemark id="455">
            <name>Harringay Green Lanes eateries tour</name>
            <Point id="454">
                <coordinates>-0.10975,51.59728,0.0</coordinates>
            </Point>
        </Placemark>
        <Placemark id="457">
            <name>Irish Stories South of the River</name>
            <Point id="456">
                <coordinates>-0.10755,51.49766,0.0</coordinates>
            </Point>
        </Placemark>
        <Placemark id="459">
            <name>Obra</name>
            <Point id="458">
                <coordinates>-0.11853,51.53469,0.0</coordinates>
            </Point>
        </Placemark>
        <Placemark id="461">
            <name>Print Portal</name>
            <Point id="460">
                <coordinates>-0.05464,51.54974,0.0</coordinates>
            </Point>
        </Placemark>
        <Placemark id="463">
            <name>Lisson Grove Studios</name>
            <Point id="462">
                <coordinates>-0.16953,51.52556,0.0</coordinates>
            </Point>
        </Placemark>
        <Placemark id="465">
            <name>Punchdrunk Enrichment Stores</name>
            <Point id="464">
                <coordinates>-0.27507,51.56024,0.0</coordinates>
            </Point>
        </Placemark>
        <Placemark id="467">
            <name>Windermere av, Merton</name>
            <Point id="466">
                <coordinates>-0.19593,51.40414,0.0</coordinates>
            </Point>
        </Placemark>
        <Placemark id="469">
            <name>Green Lodge</name>
            <Point id="468">
                <coordinates>-0.23711,51.45098,0.0</coordinates>
            </Point>
        </Placemark>
        <Placemark id="471">
            <name>St John's Church, Ealing</name>
            <Point id="470">
                <coordinates>-0.31732,51.50992,0.0</coordinates>
            </Point>
        </Placemark>
        <Placemark id="473">
            <name>St Mary &amp; St John the Divine, Balham</name>
            <Point id="472">
                <coordinates>-0.15417,51.44255,0.0</coordinates>
            </Point>
        </Placemark>
        <Placemark id="475">
            <name>Peek-a-Blue</name>
            <Point id="474">
                <coordinates>-0.04353,51.55532,0.0</coordinates>
            </Point>
        </Placemark>
        <Placemark id="477">
            <name>West Ham Pumping Station</name>
            <Point id="476">
                <coordinates>0.00173,51.53127,0.0</coordinates>
            </Point>
        </Placemark>
        <Placemark id="479">
            <name>St Olave Hart Street</name>
            <Point id="478">
                <coordinates>-0.07946,51.51094,0.0</coordinates>
            </Point>
        </Placemark>
        <Placemark id="481">
            <name>Royal Trinity Hospice and grounds</name>
            <Point id="480">
                <coordinates>-0.14626,51.46189,0.0</coordinates>
            </Point>
        </Placemark>
        <Placemark id="483">
            <name>Wade House</name>
            <Point id="482">
                <coordinates>-0.41245,51.56877,0.0</coordinates>
            </Point>
        </Placemark>
        <Placemark id="485">
            <name>Barnsbury Flat</name>
            <Point id="484">
                <coordinates>-0.11282,51.53885,0.0</coordinates>
            </Point>
        </Placemark>
        <Placemark id="487">
            <name>Hillingdon Civic Centre</name>
            <Point id="486">
                <coordinates>-0.47661,51.54345,0.0</coordinates>
            </Point>
        </Placemark>
        <Placemark id="489">
            <name>Avery Hill Winter Garden</name>
            <Point id="488">
                <coordinates>0.07451,51.44821,0.0</coordinates>
            </Point>
        </Placemark>
        <Placemark id="491">
            <name>Pif-Paf: Right To Play</name>
            <Point id="490">
                <coordinates>-0.09757,51.37204,0.0</coordinates>
            </Point>
        </Placemark>
        <Placemark id="493">
            <name>Southlands Arts Centre</name>
            <Point id="492">
                <coordinates>-0.47577,51.50154,0.0</coordinates>
            </Point>
        </Placemark>
        <Placemark id="495">
            <name>In Situ: Croydon Space Station</name>
            <Point id="494">
                <coordinates>-0.09747,51.37204,0.0</coordinates>
            </Point>
        </Placemark>
        <Placemark id="497">
            <name>MATT + FIONA: Croydon Skyline</name>
            <Point id="496">
                <coordinates>-0.09737,51.37204,0.0</coordinates>
            </Point>
        </Placemark>
        <Placemark id="499">
            <name>The hidden Streets of Westminster</name>
            <Point id="498">
                <coordinates>-0.12804,51.5005,0.0</coordinates>
            </Point>
        </Placemark>
        <Placemark id="501">
            <name>Ibraaz</name>
            <Point id="500">
                <coordinates>-0.14195,51.51741,0.0</coordinates>
            </Point>
        </Placemark>
        <Placemark id="503">
            <name>Walking Tour:  Charles I - Monster or Martyr ?</name>
            <Point id="502">
                <coordinates>-0.12643,51.50084,0.0</coordinates>
            </Point>
        </Placemark>
        <Placemark id="505">
            <name>The Lansbury Estate: Festival of Britain, Poplar 2026</name>
            <Point id="504">
                <coordinates>-0.01476,51.51134,0.0</coordinates>
            </Point>
        </Placemark>
        <Placemark id="507">
            <name>LUC 60th Anniversary - TGA120</name>
            <Point id="506">
                <coordinates>-0.0812,51.51239,0.0</coordinates>
            </Point>
        </Placemark>
        <Placemark id="509">
            <name>LUC 60th Anniversary - Halliwick Recreation Ground</name>
            <Point id="508">
                <coordinates>-0.15136,51.60202,0.0</coordinates>
            </Point>
        </Placemark>
        <Placemark id="511">
            <name>LUC 60th Anniversary - Swiss Cottage Open Space</name>
            <Point id="510">
                <coordinates>-0.17202,51.54264,0.0</coordinates>
            </Point>
        </Placemark>
        <Placemark id="513">
            <name>LUC 60th Anniversary - Chandos Park</name>
            <Point id="512">
                <coordinates>-0.28547,51.6059,0.0</coordinates>
            </Point>
        </Placemark>
        <Placemark id="515">
            <name>LUC 60th Anniversary - West Reservoir</name>
            <Point id="514">
                <coordinates>-0.09214,51.56682,0.0</coordinates>
            </Point>
        </Placemark>
        <Placemark id="517">
            <name>Ongéan</name>
            <Point id="516">
                <coordinates>-0.10031,51.45032,0.0</coordinates>
            </Point>
        </Placemark>
        <Placemark id="519">
            <name>Corbett Community Library</name>
            <Point id="518">
                <coordinates>-0.00162,51.44235,0.0</coordinates>
            </Point>
        </Placemark>
        <Placemark id="521">
            <name>Lewisham Heritage at Catford Library</name>
            <Point id="520">
                <coordinates>-0.02129,51.44616,0.0</coordinates>
            </Point>
        </Placemark>
    </Document>
</kml>
