<?xml version="1.0" encoding="UTF-8"?>
<kml xmlns="http://www.opengis.net/kml/2.2" xmlns:gx="http://www.google.com/kml/ext/2.2">
    <Document id="997">
        <Placemark id="999">
            <name>Kenwood</name>
            <Point id="998">
                <coordinates>-0.1675998,51.5713284,0.0</coordinates>
            </Point>
        </Placemark>
        <Placemark id="1001">
            <name>The Swedenborg Society</name>
            <Point id="1000">
                <coordinates>-0.12291,51.51802,0.0</coordinates>
            </Point>
        </Placemark>
        <Placemark id="1003">
            <name>Royal College of Physicians</name>
            <Point id="1002">
                <coordinates>-0.14488,51.52577,0.0</coordinates>
            </Point>
        </Placemark>
        <Placemark id="1005">
            <name>Sinfonia Smith Square</name>
            <Point id="1004">
                <coordinates>-0.12721,51.4957,0.0</coordinates>
            </Point>
        </Placemark>
        <Placemark id="1007">
            <name>Suleymaniye Mosque</name>
            <Point id="1006">
                <coordinates>-0.07669,51.53483,0.0</coordinates>
            </Point>
        </Placemark>
        <Placemark id="1009">
            <name>St George's Cathedral</name>
            <Point id="1008">
                <coordinates>-0.1088368,51.4982463,0.0</coordinates>
            </Point>
        </Placemark>
        <Placemark id="1011">
            <name>St Mary's Church, Battersea</name>
            <Point id="1010">
                <coordinates>-0.17138,51.47864,0.0</coordinates>
            </Point>
        </Placemark>
        <Placemark id="1013">
            <name>St Pancras Church &amp; Crypt</name>
            <Point id="1012">
                <coordinates>-0.13075,51.52727,0.0</coordinates>
            </Point>
        </Placemark>
        <Placemark id="1015">
            <name>St Anne's Church, Limehouse</name>
            <Point id="1014">
                <coordinates>-0.03039,51.5107,0.0</coordinates>
            </Point>
        </Placemark>
        <Placemark id="1017">
            <name>Fitzrovia Chapel</name>
            <Point id="1016">
                <coordinates>-0.13826,51.51895,0.0</coordinates>
            </Point>
        </Placemark>
        <Placemark id="1019">
            <name>The Building Centre</name>
            <Point id="1018">
                <coordinates>-0.1315686,51.5195747,0.0</coordinates>
            </Point>
        </Placemark>
        <Placemark id="1021">
            <name>Central Hill Estate</name>
            <Point id="1020">
                <coordinates>-0.0843493,51.4194278,0.0</coordinates>
            </Point>
        </Placemark>
        <Placemark id="1023">
            <name>Willesden Jewish Cemetery</name>
            <Point id="1022">
                <coordinates>-0.24021,51.54544,0.0</coordinates>
            </Point>
        </Placemark>
        <Placemark id="1025">
            <name>King's Cross Masterplan</name>
            <Point id="1024">
                <coordinates>-0.12504,51.53218,0.0</coordinates>
            </Point>
        </Placemark>
        <Placemark id="1027">
            <name>St Bride's Church, Fleet Street</name>
            <Point id="1026">
                <coordinates>-0.10554,51.51376,0.0</coordinates>
            </Point>
        </Placemark>
        <Placemark id="1029">
            <name>St John at Hackney</name>
            <Point id="1028">
                <coordinates>-0.0522038,51.550593,0.0</coordinates>
            </Point>
        </Placemark>
        <Placemark id="1031">
            <name>Flood Meadows at Hampton Court</name>
            <Point id="1030">
                <coordinates>-0.311975,51.41091600000001,0.0</coordinates>
            </Point>
        </Placemark>
        <Placemark id="1033">
            <name>Stamford Brook walk</name>
            <Point id="1032">
                <coordinates>-0.24492,51.49515,0.0</coordinates>
            </Point>
        </Placemark>
        <Placemark id="1035">
            <name>The Photography Foundation Studio, Design District (D2)</name>
            <Point id="1034">
                <coordinates>0.00657,51.49975,0.0</coordinates>
            </Point>
        </Placemark>
        <Placemark id="1037">
            <name>Andaz London Liverpool Street</name>
            <Point id="1036">
                <coordinates>-0.0813472,51.517312,0.0</coordinates>
            </Point>
        </Placemark>
        <Placemark id="1039">
            <name>London Open Form Pavilion of Air</name>
            <Point id="1038">
                <coordinates>-0.17548,51.50481,0.0</coordinates>
            </Point>
        </Placemark>
        <Placemark id="1041">
            <name>Bethlem Royal Hospital</name>
            <Point id="1040">
                <coordinates>-0.02931,51.38092,0.0</coordinates>
            </Point>
        </Placemark>
        <Placemark id="1043">
            <name>Morris+Company | ‘The Circular City Starts With Community’</name>
            <Point id="1042">
                <coordinates>-0.05552,51.54152,0.0</coordinates>
            </Point>
        </Placemark>
        <Placemark id="1045">
            <name>St Bartholomew's Hospital</name>
            <Point id="1044">
                <coordinates>-0.10004,51.51749,0.0</coordinates>
            </Point>
        </Placemark>
        <Placemark id="1047">
            <name>Walworth Town Hall</name>
            <Point id="1046">
                <coordinates>-0.09687,51.49102,0.0</coordinates>
            </Point>
        </Placemark>
        <Placemark id="1049">
            <name>St Anne's Church Wandsworth</name>
            <Point id="1048">
                <coordinates>-0.18773,51.45501,0.0</coordinates>
            </Point>
        </Placemark>
        <Placemark id="1051">
            <name>St James's Piccadilly</name>
            <Point id="1050">
                <coordinates>-0.1368,51.50876,0.0</coordinates>
            </Point>
        </Placemark>
        <Placemark id="1053">
            <name>Croydon Urban Room</name>
            <Point id="1052">
                <coordinates>-0.10075,51.37522,0.0</coordinates>
            </Point>
        </Placemark>
        <Placemark id="1055">
            <name>London National Park City Visitors Centre</name>
            <Point id="1054">
                <coordinates>-0.14246,51.51756,0.0</coordinates>
            </Point>
        </Placemark>
        <Placemark id="1057">
            <name>IMPACT Community Arts Centre</name>
            <Point id="1056">
                <coordinates>-0.32577,51.53539,0.0</coordinates>
            </Point>
        </Placemark>
        <Placemark id="1059">
            <name>Sacred Grounds / St Anne's Church and Garden</name>
            <Point id="1058">
                <coordinates>-0.13186,51.5124,0.0</coordinates>
            </Point>
        </Placemark>
        <Placemark id="1061">
            <name>St Mary the Virgin Primrose Hill</name>
            <Point id="1060">
                <coordinates>-0.16263,51.54221,0.0</coordinates>
            </Point>
        </Placemark>
        <Placemark id="1063">
            <name>Resonance FM Studios</name>
            <Point id="1062">
                <coordinates>-0.1,51.50345,0.0</coordinates>
            </Point>
        </Placemark>
        <Placemark id="1065">
            <name>Flux Innovation Lounge, Greenwich Design District</name>
            <Point id="1064">
                <coordinates>0.00592,51.49951,0.0</coordinates>
            </Point>
        </Placemark>
        <Placemark id="1067">
            <name>Worlds End Studios</name>
            <Point id="1066">
                <coordinates>-0.18379,51.47832,0.0</coordinates>
            </Point>
        </Placemark>
        <Placemark id="1069">
            <name>Secrets and Symbols of the City</name>
            <Point id="1068">
                <coordinates>-0.09906,51.51328,0.0</coordinates>
            </Point>
        </Placemark>
        <Placemark id="1071">
            <name>Somers Town folk</name>
            <Point id="1070">
                <coordinates>-0.12759,51.52903,0.0</coordinates>
            </Point>
        </Placemark>
        <Placemark id="1073">
            <name>St Thomas with St Matthew, Clapton Common</name>
            <Point id="1072">
                <coordinates>-0.06428,51.56992,0.0</coordinates>
            </Point>
        </Placemark>
        <Placemark id="1075">
            <name>From Limehouse to Canary Wharf</name>
            <Point id="1074">
                <coordinates>-0.03145,51.51214,0.0</coordinates>
            </Point>
        </Placemark>
        <Placemark id="1077">
            <name>Reimagining Play in London's Green Spaces</name>
            <Point id="1076">
                <coordinates>-0.09292,51.51606,0.0</coordinates>
            </Point>
        </Placemark>
        <Placemark id="1079">
            <name>Parkland Walk</name>
            <Point id="1078">
                <coordinates>-0.10635,51.56999,0.0</coordinates>
            </Point>
        </Placemark>
        <Placemark id="1081">
            <name>Walking Tour:  Charles I - Monster or Martyr ?</name>
            <Point id="1080">
                <coordinates>-0.12643,51.50084,0.0</coordinates>
            </Point>
        </Placemark>
        <Placemark id="1083">
            <name>Southbank Printmakers</name>
            <Point id="1082">
                <coordinates>-0.13776,51.51702,0.0</coordinates>
            </Point>
        </Placemark>
        <Placemark id="1085">
            <name>Corbett Community Library</name>
            <Point id="1084">
                <coordinates>-0.00162,51.44235,0.0</coordinates>
            </Point>
        </Placemark>
        <Placemark id="1087">
            <name>The West End At War</name>
            <Point id="1086">
                <coordinates>-0.13307,51.51381,0.0</coordinates>
            </Point>
        </Placemark>
        <Placemark id="1089">
            <name>Aldgate walking tour</name>
            <Point id="1088">
                <coordinates>-0.0755,51.51447,0.0</coordinates>
            </Point>
        </Placemark>
        <Placemark id="1091">
            <name>Charing Cross Library</name>
            <Point id="1090">
                <coordinates>-0.12805,51.51024,0.0</coordinates>
            </Point>
        </Placemark>
        <Placemark id="1093">
            <name>Pimlico Library</name>
            <Point id="1092">
                <coordinates>-0.14007,51.48791,0.0</coordinates>
            </Point>
        </Placemark>
        <Placemark id="1095">
            <name>The Caravan Gallery comes to Croydon: North End</name>
            <Point id="1094">
                <coordinates>-0.10204,51.37706,0.0</coordinates>
            </Point>
        </Placemark>
        <Placemark id="1097">
            <name>Surrey Street Mural by Vic Lee</name>
            <Point id="1096">
                <coordinates>-0.10002,51.37049,0.0</coordinates>
            </Point>
        </Placemark>
    </Document>
</kml>
