<?xml version="1.0" encoding="UTF-8"?>
<kml xmlns="http://www.opengis.net/kml/2.2" xmlns:gx="http://www.google.com/kml/ext/2.2">
    <Document id="1993">
        <Placemark id="1995">
            <name>Dr Johnson's House</name>
            <Point id="1994">
                <coordinates>-0.1081791,51.5150637,0.0</coordinates>
            </Point>
        </Placemark>
        <Placemark id="1997">
            <name>Eastbury Manor House</name>
            <Point id="1996">
                <coordinates>0.0995563,51.5343105,0.0</coordinates>
            </Point>
        </Placemark>
        <Placemark id="1999">
            <name>Emanuel School</name>
            <Point id="1998">
                <coordinates>-0.17475,51.45728,0.0</coordinates>
            </Point>
        </Placemark>
        <Placemark id="2001">
            <name>Garrick's Temple to Shakespeare</name>
            <Point id="2000">
                <coordinates>-0.35449,51.41117,0.0</coordinates>
            </Point>
        </Placemark>
        <Placemark id="2003">
            <name>Buzz Bingo Hall (former Granada Cinema)</name>
            <Point id="2002">
                <coordinates>-0.1665,51.42661,0.0</coordinates>
            </Point>
        </Placemark>
        <Placemark id="2005">
            <name>Guildhall</name>
            <Point id="2004">
                <coordinates>-0.0919,51.51589,0.0</coordinates>
            </Point>
        </Placemark>
        <Placemark id="2007">
            <name>Hackney Empire</name>
            <Point id="2006">
                <coordinates>-0.0557,51.54545,0.0</coordinates>
            </Point>
        </Placemark>
        <Placemark id="2009">
            <name>House Mill</name>
            <Point id="2008">
                <coordinates>-0.00773,51.52741,0.0</coordinates>
            </Point>
        </Placemark>
        <Placemark id="2011">
            <name>Isokon Building (Lawn Road Flats)</name>
            <Point id="2010">
                <coordinates>-0.16216,51.55196,0.0</coordinates>
            </Point>
        </Placemark>
        <Placemark id="2013">
            <name>Kenwood</name>
            <Point id="2012">
                <coordinates>-0.1675998,51.5713284,0.0</coordinates>
            </Point>
        </Placemark>
        <Placemark id="2015">
            <name>Kingswood House</name>
            <Point id="2014">
                <coordinates>-0.08073,51.43006,0.0</coordinates>
            </Point>
        </Placemark>
        <Placemark id="2017">
            <name>Trinity Laban Conservatoire of Music and Dance</name>
            <Point id="2016">
                <coordinates>-0.02035,51.47955,0.0</coordinates>
            </Point>
        </Placemark>
        <Placemark id="2019">
            <name>Lauderdale House</name>
            <Point id="2018">
                <coordinates>-0.143254,51.569267,0.0</coordinates>
            </Point>
        </Placemark>
        <Placemark id="2021">
            <name>Walthamstow Pumphouse Museum</name>
            <Point id="2020">
                <coordinates>-0.03476,51.57672,0.0</coordinates>
            </Point>
        </Placemark>
        <Placemark id="2023">
            <name>Hopkins Architects</name>
            <Point id="2022">
                <coordinates>-0.16598,51.52433,0.0</coordinates>
            </Point>
        </Placemark>
        <Placemark id="2025">
            <name>Monoux Almshouses</name>
            <Point id="2024">
                <coordinates>-0.0115774,51.5855139,0.0</coordinates>
            </Point>
        </Placemark>
        <Placemark id="2027">
            <name>Museum of London Docklands</name>
            <Point id="2026">
                <coordinates>-0.02386,51.50747,0.0</coordinates>
            </Point>
        </Placemark>
        <Placemark id="2029">
            <name>Paxton Locher House</name>
            <Point id="2028">
                <coordinates>-0.10457,51.52298,0.0</coordinates>
            </Point>
        </Placemark>
        <Placemark id="2031">
            <name>Phoenix Cinema</name>
            <Point id="2030">
                <coordinates>-0.16348,51.58859,0.0</coordinates>
            </Point>
        </Placemark>
        <Placemark id="2033">
            <name>St Paul's Bow Common</name>
            <Point id="2032">
                <coordinates>-0.0295,51.51754,0.0</coordinates>
            </Point>
        </Placemark>
        <Placemark id="2035">
            <name>Guided Tours and Exhibition at Pioneer Centre, Peckham</name>
            <Point id="2034">
                <coordinates>-0.0538132,51.4722385,0.0</coordinates>
            </Point>
        </Placemark>
        <Placemark id="2037">
            <name>Guildhall Art Gallery</name>
            <Point id="2036">
                <coordinates>-0.09159,51.51551,0.0</coordinates>
            </Point>
        </Placemark>
        <Placemark id="2039">
            <name>Queen Elizabeth's Hunting Lodge</name>
            <Point id="2038">
                <coordinates>0.0170984,51.63455459999999,0.0</coordinates>
            </Point>
        </Placemark>
        <Placemark id="2041">
            <name>Richmond Lock Building (Surrey Side)</name>
            <Point id="2040">
                <coordinates>-0.3167538,51.4626306,0.0</coordinates>
            </Point>
        </Placemark>
        <Placemark id="2043">
            <name>Roe Green Village</name>
            <Point id="2042">
                <coordinates>-0.2675843,51.5905165,0.0</coordinates>
            </Point>
        </Placemark>
        <Placemark id="2045">
            <name>South London Theatre</name>
            <Point id="2044">
                <coordinates>-0.1029459,51.4319384,0.0</coordinates>
            </Point>
        </Placemark>
        <Placemark id="2047">
            <name>Stationers' Hall</name>
            <Point id="2046">
                <coordinates>-0.10154,51.51436,0.0</coordinates>
            </Point>
        </Placemark>
        <Placemark id="2049">
            <name>Swakeleys Estate</name>
            <Point id="2048">
                <coordinates>-0.45721,51.5651,0.0</coordinates>
            </Point>
        </Placemark>
        <Placemark id="2051">
            <name>Temple Bar</name>
            <Point id="2050">
                <coordinates>-0.09953,51.51428,0.0</coordinates>
            </Point>
        </Placemark>
        <Placemark id="2053">
            <name>Bank of England Museum</name>
            <Point id="2052">
                <coordinates>-0.08763,51.51402,0.0</coordinates>
            </Point>
        </Placemark>
        <Placemark id="2055">
            <name>The Great Barn, Harmondsworth</name>
            <Point id="2054">
                <coordinates>-0.47975,51.48961,0.0</coordinates>
            </Point>
        </Placemark>
        <Placemark id="2057">
            <name>The Royal Society</name>
            <Point id="2056">
                <coordinates>-0.13235,51.50593,0.0</coordinates>
            </Point>
        </Placemark>
        <Placemark id="2059">
            <name>Tower Gardens Garden Suburb</name>
            <Point id="2058">
                <coordinates>-0.0907723,51.5987078,0.0</coordinates>
            </Point>
        </Placemark>
        <Placemark id="2061">
            <name>Trinity Buoy Wharf/Container City</name>
            <Point id="2060">
                <coordinates>0.00894,51.50862,0.0</coordinates>
            </Point>
        </Placemark>
        <Placemark id="2063">
            <name>Regent Street Cinema (The University of Westminster)</name>
            <Point id="2062">
                <coordinates>-0.14285,51.5168,0.0</coordinates>
            </Point>
        </Placemark>
        <Placemark id="2065">
            <name>Methodist Central Hall Westminster</name>
            <Point id="2064">
                <coordinates>-0.129564,51.5002425,0.0</coordinates>
            </Point>
        </Placemark>
        <Placemark id="2067">
            <name>Wimbledon Windmill Museum</name>
            <Point id="2066">
                <coordinates>-0.23263,51.43312,0.0</coordinates>
            </Point>
        </Placemark>
        <Placemark id="2069">
            <name>York House</name>
            <Point id="2068">
                <coordinates>-0.31196,51.45488,0.0</coordinates>
            </Point>
        </Placemark>
        <Placemark id="2071">
            <name>Church of St Lawrence, Little Stanmore</name>
            <Point id="2070">
                <coordinates>-0.2892053,51.6079015,0.0</coordinates>
            </Point>
        </Placemark>
        <Placemark id="2073">
            <name>St Andrew's Kingsbury (new church)</name>
            <Point id="2072">
                <coordinates>-0.26241,51.56751,0.0</coordinates>
            </Point>
        </Placemark>
        <Placemark id="2075">
            <name>St Augustine's Church</name>
            <Point id="2074">
                <coordinates>-0.1916647,51.53353509999999,0.0</coordinates>
            </Point>
        </Placemark>
        <Placemark id="2077">
            <name>St Mary's Church, Battersea</name>
            <Point id="2076">
                <coordinates>-0.1747989,51.4765358,0.0</coordinates>
            </Point>
        </Placemark>
        <Placemark id="2079">
            <name>St Matthias Old Church - Community Centre</name>
            <Point id="2078">
                <coordinates>-0.01573,51.50944,0.0</coordinates>
            </Point>
        </Placemark>
        <Placemark id="2081">
            <name>St Paul's, Newington</name>
            <Point id="2080">
                <coordinates>-0.10069,51.48505,0.0</coordinates>
            </Point>
        </Placemark>
        <Placemark id="2083">
            <name>Brentham Garden Suburb</name>
            <Point id="2082">
                <coordinates>-0.309085,51.5287856,0.0</coordinates>
            </Point>
        </Placemark>
        <Placemark id="2085">
            <name>Rachwalsky House</name>
            <Point id="2084">
                <coordinates>-0.3152063,51.61962,0.0</coordinates>
            </Point>
        </Placemark>
        <Placemark id="2087">
            <name>Brockwell Hall</name>
            <Point id="2086">
                <coordinates>-0.10256,51.45317,0.0</coordinates>
            </Point>
        </Placemark>
        <Placemark id="2089">
            <name>The Brunel Museum</name>
            <Point id="2088">
                <coordinates>-0.05298,51.50161,0.0</coordinates>
            </Point>
        </Placemark>
        <Placemark id="2091">
            <name>BT Tower</name>
            <Point id="2090">
                <coordinates>-0.13901,51.52139,0.0</coordinates>
            </Point>
        </Placemark>
        <Placemark id="2093">
            <name>Burgh House</name>
            <Point id="2092">
                <coordinates>-0.17498,51.55817529999999,0.0</coordinates>
            </Point>
        </Placemark>
        <Placemark id="2095">
            <name>Chiswick House and Gardens</name>
            <Point id="2094">
                <coordinates>-0.258696,51.4838034,0.0</coordinates>
            </Point>
        </Placemark>
        <Placemark id="2097">
            <name>Crown Court Church of Scotland</name>
            <Point id="2096">
                <coordinates>-0.12106,51.51341,0.0</coordinates>
            </Point>
        </Placemark>
        <Placemark id="2099">
            <name>Leadenhall Market</name>
            <Point id="2098">
                <coordinates>-0.08505,51.51207,0.0</coordinates>
            </Point>
        </Placemark>
        <Placemark id="2101">
            <name>Quaker Meeting House, Wanstead</name>
            <Point id="2100">
                <coordinates>0.0195323,51.56983320000001,0.0</coordinates>
            </Point>
        </Placemark>
        <Placemark id="2103">
            <name>Walthamstow Wetlands</name>
            <Point id="2102">
                <coordinates>-0.05396,51.58553,0.0</coordinates>
            </Point>
        </Placemark>
        <Placemark id="2105">
            <name>Carshalton Water Tower and Historic Gardens</name>
            <Point id="2104">
                <coordinates>-0.16684,51.36508,0.0</coordinates>
            </Point>
        </Placemark>
        <Placemark id="2107">
            <name>St Lawrence Jewry</name>
            <Point id="2106">
                <coordinates>-0.0923729,51.51554640000001,0.0</coordinates>
            </Point>
        </Placemark>
        <Placemark id="2109">
            <name>City Information Centre</name>
            <Point id="2108">
                <coordinates>-0.09886,51.5131,0.0</coordinates>
            </Point>
        </Placemark>
        <Placemark id="2111">
            <name>Canons Park</name>
            <Point id="2110">
                <coordinates>-0.2943906,51.6087625,0.0</coordinates>
            </Point>
        </Placemark>
        <Placemark id="2113">
            <name>Hermitage Community Moorings</name>
            <Point id="2112">
                <coordinates>-0.0665883,51.5044166,0.0</coordinates>
            </Point>
        </Placemark>
        <Placemark id="2115">
            <name>Two Temple Place</name>
            <Point id="2114">
                <coordinates>-0.1122401,51.5116279,0.0</coordinates>
            </Point>
        </Placemark>
        <Placemark id="2117">
            <name>Stanley Arts</name>
            <Point id="2116">
                <coordinates>-0.0754022,51.4001227,0.0</coordinates>
            </Point>
        </Placemark>
        <Placemark id="2119">
            <name>Wanstead Heritage Walk</name>
            <Point id="2118">
                <coordinates>0.0287,51.57562,0.0</coordinates>
            </Point>
        </Placemark>
        <Placemark id="2121">
            <name>The British Academy</name>
            <Point id="2120">
                <coordinates>-0.1313,51.50639,0.0</coordinates>
            </Point>
        </Placemark>
        <Placemark id="2123">
            <name>Romanian Cultural Institute</name>
            <Point id="2122">
                <coordinates>-0.1539844,51.500248,0.0</coordinates>
            </Point>
        </Placemark>
        <Placemark id="2125">
            <name>Christ Church Southgate and the Minchenden Oak Garden</name>
            <Point id="2124">
                <coordinates>-0.12838,51.62466,0.0</coordinates>
            </Point>
        </Placemark>
        <Placemark id="2127">
            <name>Kingsland Basin Moorings (CHUG)</name>
            <Point id="2126">
                <coordinates>-0.0780208,51.5374898,0.0</coordinates>
            </Point>
        </Placemark>
        <Placemark id="2129">
            <name>Greenside Primary School</name>
            <Point id="2128">
                <coordinates>-0.237022,51.50356379999999,0.0</coordinates>
            </Point>
        </Placemark>
        <Placemark id="2131">
            <name>Clapham Old Town and Venn Street</name>
            <Point id="2130">
                <coordinates>-0.1383884,51.461786,0.0</coordinates>
            </Point>
        </Placemark>
        <Placemark id="2133">
            <name>Cressingham Gardens</name>
            <Point id="2132">
                <coordinates>-0.1118877,51.4470837,0.0</coordinates>
            </Point>
        </Placemark>
        <Placemark id="2135">
            <name>Seven Acre Lake, Canons Park Estate</name>
            <Point id="2134">
                <coordinates>-0.29128,51.61359,0.0</coordinates>
            </Point>
        </Placemark>
        <Placemark id="2137">
            <name>Guildhall Yard: Meet the Pearly Kings and Queens</name>
            <Point id="2136">
                <coordinates>-0.0921379,51.51525119999999,0.0</coordinates>
            </Point>
        </Placemark>
        <Placemark id="2139">
            <name>Bruno Court, The German Hospital</name>
            <Point id="2138">
                <coordinates>-0.0661,51.54689,0.0</coordinates>
            </Point>
        </Placemark>
        <Placemark id="2141">
            <name>Kaymet Factory</name>
            <Point id="2140">
                <coordinates>-0.0710449,51.48474239999999,0.0</coordinates>
            </Point>
        </Placemark>
        <Placemark id="2143">
            <name>Phoenix Gardens Community Building</name>
            <Point id="2142">
                <coordinates>-0.1285292,51.5144001,0.0</coordinates>
            </Point>
        </Placemark>
        <Placemark id="2145">
            <name>HG Wells' Bromley - in his own words</name>
            <Point id="2144">
                <coordinates>0.0146526,51.4052391,0.0</coordinates>
            </Point>
        </Placemark>
        <Placemark id="2147">
            <name>Shrewsbury House</name>
            <Point id="2146">
                <coordinates>0.07305,51.47355,0.0</coordinates>
            </Point>
        </Placemark>
        <Placemark id="2149">
            <name>Aga Khan Centre</name>
            <Point id="2148">
                <coordinates>-0.1248,51.53757,0.0</coordinates>
            </Point>
        </Placemark>
        <Placemark id="2151">
            <name>Epping Forest Visitor Centre at Chingford, The View</name>
            <Point id="2150">
                <coordinates>0.01711,51.63444,0.0</coordinates>
            </Point>
        </Placemark>
        <Placemark id="2153">
            <name>St Michael and All Angels Church</name>
            <Point id="2152">
                <coordinates>-0.0294614,51.5855149,0.0</coordinates>
            </Point>
        </Placemark>
        <Placemark id="2155">
            <name>A House for Artists</name>
            <Point id="2154">
                <coordinates>0.07782059999999999,51.53976280000001,0.0</coordinates>
            </Point>
        </Placemark>
        <Placemark id="2157">
            <name>St. Mary's Church, Walthamstow Village</name>
            <Point id="2156">
                <coordinates>-0.01214,51.58444,0.0</coordinates>
            </Point>
        </Placemark>
        <Placemark id="2159">
            <name>South Ealing Cemetery Chapels</name>
            <Point id="2158">
                <coordinates>-0.3055622,51.49637999999999,0.0</coordinates>
            </Point>
        </Placemark>
        <Placemark id="2161">
            <name>The Old Schoolhouse</name>
            <Point id="2160">
                <coordinates>-0.11828,51.58292,0.0</coordinates>
            </Point>
        </Placemark>
        <Placemark id="2163">
            <name>Our Yard at Clitterhouse Farm</name>
            <Point id="2162">
                <coordinates>-0.21653,51.56693,0.0</coordinates>
            </Point>
        </Placemark>
        <Placemark id="2165">
            <name>1 Halliwick Road</name>
            <Point id="2164">
                <coordinates>-0.14849,51.60119,0.0</coordinates>
            </Point>
        </Placemark>
        <Placemark id="2167">
            <name>Brockley's Historic Mews</name>
            <Point id="2166">
                <coordinates>-0.03272,51.4686,0.0</coordinates>
            </Point>
        </Placemark>
        <Placemark id="2169">
            <name>Holy Cross Church, Cromer Street</name>
            <Point id="2168">
                <coordinates>-0.1235712,51.5275753,0.0</coordinates>
            </Point>
        </Placemark>
        <Placemark id="2171">
            <name>Lansbury Lawrence Primary School</name>
            <Point id="2170">
                <coordinates>-0.01703,51.51349,0.0</coordinates>
            </Point>
        </Placemark>
        <Placemark id="2173">
            <name>Sands End Arts &amp; Community Centre</name>
            <Point id="2172">
                <coordinates>-0.19681,51.46974,0.0</coordinates>
            </Point>
        </Placemark>
        <Placemark id="2175">
            <name>St Bride's Church, Fleet Street</name>
            <Point id="2174">
                <coordinates>-0.105544,51.5137695,0.0</coordinates>
            </Point>
        </Placemark>
        <Placemark id="2177">
            <name>RC Church of St Mellitus</name>
            <Point id="2176">
                <coordinates>-0.1132266,51.5673623,0.0</coordinates>
            </Point>
        </Placemark>
        <Placemark id="2179">
            <name>St Peter's Church Petersham</name>
            <Point id="2178">
                <coordinates>-0.30122,51.44664,0.0</coordinates>
            </Point>
        </Placemark>
        <Placemark id="2181">
            <name>Boston Manor House</name>
            <Point id="2180">
                <coordinates>-0.3183739,51.49191829999999,0.0</coordinates>
            </Point>
        </Placemark>
        <Placemark id="2183">
            <name>The Great Fire of London</name>
            <Point id="2182">
                <coordinates>-0.09212719999999999,51.5151073,0.0</coordinates>
            </Point>
        </Placemark>
        <Placemark id="2185">
            <name>Historic &amp; Modern Buildings in the City</name>
            <Point id="2184">
                <coordinates>-0.09204,51.51543,0.0</coordinates>
            </Point>
        </Placemark>
        <Placemark id="2187">
            <name>The Making of Pimlico</name>
            <Point id="2186">
                <coordinates>-0.13333,51.48925,0.0</coordinates>
            </Point>
        </Placemark>
        <Placemark id="2189">
            <name>Fleet Street Heritage Wall and Sundial</name>
            <Point id="2188">
                <coordinates>-0.1080343,51.51412879999999,0.0</coordinates>
            </Point>
        </Placemark>
        <Placemark id="2191">
            <name>Jacksons Lane Arts Centre</name>
            <Point id="2190">
                <coordinates>-0.1454343,51.5765813,0.0</coordinates>
            </Point>
        </Placemark>
        <Placemark id="2193">
            <name>Thornhill Square</name>
            <Point id="2192">
                <coordinates>-0.11595,51.54089,0.0</coordinates>
            </Point>
        </Placemark>
        <Placemark id="2195">
            <name>London's Roman Amphitheatre</name>
            <Point id="2194">
                <coordinates>-0.0914547,51.5155471,0.0</coordinates>
            </Point>
        </Placemark>
        <Placemark id="2197">
            <name>Art in Perpetuity Trust</name>
            <Point id="2196">
                <coordinates>-0.02099,51.47686,0.0</coordinates>
            </Point>
        </Placemark>
        <Placemark id="2199">
            <name>'Tomorrow is Built Today' exhibition of Black-led self-build</name>
            <Point id="2198">
                <coordinates>0.0032383,51.429857,0.0</coordinates>
            </Point>
        </Placemark>
        <Placemark id="2201">
            <name>CUFOS - Community Use For the Old Station</name>
            <Point id="2200">
                <coordinates>-0.1319197,51.5947742,0.0</coordinates>
            </Point>
        </Placemark>
        <Placemark id="2203">
            <name>St Mark’s Church</name>
            <Point id="2202">
                <coordinates>-0.07014,51.39893,0.0</coordinates>
            </Point>
        </Placemark>
        <Placemark id="2205">
            <name>Fruit to Fashion: how a kitchen garden became a world famous piazza</name>
            <Point id="2204">
                <coordinates>-0.1224538,51.51146319999999,0.0</coordinates>
            </Point>
        </Placemark>
        <Placemark id="2207">
            <name>London Open Form Pavilion of Air</name>
            <Point id="2206">
                <coordinates>-0.17464,51.50466,0.0</coordinates>
            </Point>
        </Placemark>
        <Placemark id="2209">
            <name>195 Mare Street</name>
            <Point id="2208">
                <coordinates>-0.05545,51.54083,0.0</coordinates>
            </Point>
        </Placemark>
        <Placemark id="2211">
            <name>WWII fighter pen tours at former RAF Kenley</name>
            <Point id="2210">
                <coordinates>-0.08914,51.3106,0.0</coordinates>
            </Point>
        </Placemark>
        <Placemark id="2213">
            <name>The Barbican &amp; The City Gardens</name>
            <Point id="2212">
                <coordinates>-0.09194,51.51543,0.0</coordinates>
            </Point>
        </Placemark>
        <Placemark id="2215">
            <name>National Youth Theatre</name>
            <Point id="2214">
                <coordinates>-0.122,51.55948,0.0</coordinates>
            </Point>
        </Placemark>
        <Placemark id="2217">
            <name>Morris+Company | 'Waste Not: Materials, Making and the Circular Economy' Exhibition</name>
            <Point id="2216">
                <coordinates>-0.05552,51.54152,0.0</coordinates>
            </Point>
        </Placemark>
        <Placemark id="2219">
            <name>Chabad-Lubavitch of Islington</name>
            <Point id="2218">
                <coordinates>-0.10063,51.53676,0.0</coordinates>
            </Point>
        </Placemark>
        <Placemark id="2221">
            <name>St Bartholomew's Hospital</name>
            <Point id="2220">
                <coordinates>-0.10004,51.51749,0.0</coordinates>
            </Point>
        </Placemark>
        <Placemark id="2223">
            <name>Royal Foundation of St Katharine</name>
            <Point id="2222">
                <coordinates>-0.04142,51.51196,0.0</coordinates>
            </Point>
        </Placemark>
        <Placemark id="2225">
            <name>Shaftesbury Hall</name>
            <Point id="2224">
                <coordinates>-0.12107,51.60712,0.0</coordinates>
            </Point>
        </Placemark>
        <Placemark id="2227">
            <name>St Mark's Church, Biggin Hill</name>
            <Point id="2226">
                <coordinates>0.03515,51.31178,0.0</coordinates>
            </Point>
        </Placemark>
        <Placemark id="2229">
            <name>1 Waterlow Court</name>
            <Point id="2228">
                <coordinates>-0.18874,51.57321,0.0</coordinates>
            </Point>
        </Placemark>
        <Placemark id="2231">
            <name>81 Columbia Road</name>
            <Point id="2230">
                <coordinates>-0.0691,51.5297,0.0</coordinates>
            </Point>
        </Placemark>
        <Placemark id="2233">
            <name>Inner Space Meditation Centre, Covent Garden</name>
            <Point id="2232">
                <coordinates>-0.12523,51.51459,0.0</coordinates>
            </Point>
        </Placemark>
        <Placemark id="2235">
            <name>Georgian Clerkenwell's speculative housing boom</name>
            <Point id="2234">
                <coordinates>-0.10605,51.52956,0.0</coordinates>
            </Point>
        </Placemark>
        <Placemark id="2237">
            <name>St. Stephen's Hounslow Conservation Area - Open Gardens</name>
            <Point id="2236">
                <coordinates>-0.36575,51.46201,0.0</coordinates>
            </Point>
        </Placemark>
        <Placemark id="2239">
            <name>The Butcher, The Baker and The Candlestick Maker</name>
            <Point id="2238">
                <coordinates>-0.09183999999999999,51.51543,0.0</coordinates>
            </Point>
        </Placemark>
        <Placemark id="2241">
            <name>Hampstead Modernist housing walking tour</name>
            <Point id="2240">
                <coordinates>-0.1813,51.55552,0.0</coordinates>
            </Point>
        </Placemark>
        <Placemark id="2243">
            <name>St James's Piccadilly</name>
            <Point id="2242">
                <coordinates>-0.13665,51.50889,0.0</coordinates>
            </Point>
        </Placemark>
        <Placemark id="2245">
            <name>The Old Fire Station</name>
            <Point id="2244">
                <coordinates>-0.11725,51.55854,0.0</coordinates>
            </Point>
        </Placemark>
        <Placemark id="2247">
            <name>Triangle House</name>
            <Point id="2246">
                <coordinates>-0.19943,51.55031,0.0</coordinates>
            </Point>
        </Placemark>
        <Placemark id="2249">
            <name>Croydon Urban Room</name>
            <Point id="2248">
                <coordinates>-0.10075,51.37522,0.0</coordinates>
            </Point>
        </Placemark>
        <Placemark id="2251">
            <name>St. George Villa</name>
            <Point id="2250">
                <coordinates>-0.00502,51.58036,0.0</coordinates>
            </Point>
        </Placemark>
        <Placemark id="2253">
            <name>Wolves Lane Horticultural Centre</name>
            <Point id="2252">
                <coordinates>-0.10409,51.60487,0.0</coordinates>
            </Point>
        </Placemark>
        <Placemark id="2255">
            <name>Cumberland Road Studios, Wood Green</name>
            <Point id="2254">
                <coordinates>-0.11274,51.59726,0.0</coordinates>
            </Point>
        </Placemark>
        <Placemark id="2257">
            <name>outhouse gallery</name>
            <Point id="2256">
                <coordinates>-0.08556,51.4755,0.0</coordinates>
            </Point>
        </Placemark>
        <Placemark id="2259">
            <name>Explore the authentically recreated Colony Room</name>
            <Point id="2258">
                <coordinates>-0.13932,51.51092,0.0</coordinates>
            </Point>
        </Placemark>
        <Placemark id="2261">
            <name>7 Meadow Lane</name>
            <Point id="2260">
                <coordinates>0.02709,51.43022,0.0</coordinates>
            </Point>
        </Placemark>
        <Placemark id="2263">
            <name>Drawing Matter</name>
            <Point id="2262">
                <coordinates>-0.12269,51.5163,0.0</coordinates>
            </Point>
        </Placemark>
        <Placemark id="2265">
            <name>Soho - forever changing</name>
            <Point id="2264">
                <coordinates>-0.13021,51.51324,0.0</coordinates>
            </Point>
        </Placemark>
        <Placemark id="2267">
            <name>Queer Britain</name>
            <Point id="2266">
                <coordinates>-0.12392,51.53568,0.0</coordinates>
            </Point>
        </Placemark>
        <Placemark id="2269">
            <name>North London Collegiate School - Canons House</name>
            <Point id="2268">
                <coordinates>-0.29667,51.61472,0.0</coordinates>
            </Point>
        </Placemark>
        <Placemark id="2271">
            <name>Regent's Park Estate Story Trail  Guided Tour</name>
            <Point id="2270">
                <coordinates>-0.14035,51.52583,0.0</coordinates>
            </Point>
        </Placemark>
        <Placemark id="2273">
            <name>Ebbs and flows:  a tour through the evolution of the South Bank</name>
            <Point id="2272">
                <coordinates>-0.10973,51.50252,0.0</coordinates>
            </Point>
        </Placemark>
        <Placemark id="2275">
            <name>Leafy Southgate: N14 landscape and suburbia</name>
            <Point id="2274">
                <coordinates>-0.12805,51.63226,0.0</coordinates>
            </Point>
        </Placemark>
        <Placemark id="2277">
            <name>Garage Gallery E17</name>
            <Point id="2276">
                <coordinates>-0.01252,51.58081,0.0</coordinates>
            </Point>
        </Placemark>
        <Placemark id="2279">
            <name>The Old Church Stoke Newington</name>
            <Point id="2278">
                <coordinates>-0.08448,51.56113,0.0</coordinates>
            </Point>
        </Placemark>
        <Placemark id="2281">
            <name>St Mary &amp; St Joseph Roman Catholic Church, Poplar</name>
            <Point id="2280">
                <coordinates>-0.02052,51.51203,0.0</coordinates>
            </Point>
        </Placemark>
        <Placemark id="2283">
            <name>In Shakespeare's footsteps</name>
            <Point id="2282">
                <coordinates>-0.09007,51.50505,0.0</coordinates>
            </Point>
        </Placemark>
        <Placemark id="2285">
            <name>Sadler's Wells East</name>
            <Point id="2284">
                <coordinates>-0.01187,51.54083,0.0</coordinates>
            </Point>
        </Placemark>
        <Placemark id="2287">
            <name>TOMA House + Studio</name>
            <Point id="2286">
                <coordinates>0.03201,51.5537,0.0</coordinates>
            </Point>
        </Placemark>
        <Placemark id="2289">
            <name>Christ Church North Finchley, N12 0NU</name>
            <Point id="2288">
                <coordinates>-0.17475,51.61095,0.0</coordinates>
            </Point>
        </Placemark>
        <Placemark id="2291">
            <name>Paekakariki Press</name>
            <Point id="2290">
                <coordinates>-0.02127,51.58806,0.0</coordinates>
            </Point>
        </Placemark>
        <Placemark id="2293">
            <name>1 Pontypool Place</name>
            <Point id="2292">
                <coordinates>-0.10591,51.50192,0.0</coordinates>
            </Point>
        </Placemark>
        <Placemark id="2295">
            <name>Caribbean Heritage walking tour of Peckham</name>
            <Point id="2294">
                <coordinates>-0.07612,51.4741,0.0</coordinates>
            </Point>
        </Placemark>
        <Placemark id="2297">
            <name>141 Coldershaw Road, W13</name>
            <Point id="2296">
                <coordinates>-0.32522,51.50504,0.0</coordinates>
            </Point>
        </Placemark>
        <Placemark id="2299">
            <name>Wapping Hydraulic Power Station</name>
            <Point id="2298">
                <coordinates>-0.05187,51.50749,0.0</coordinates>
            </Point>
        </Placemark>
        <Placemark id="2301">
            <name>ACAVA Camden Undercraft Studios</name>
            <Point id="2300">
                <coordinates>-0.15496,51.55286,0.0</coordinates>
            </Point>
        </Placemark>
        <Placemark id="2303">
            <name>Bodney Road Studios</name>
            <Point id="2302">
                <coordinates>-0.06106,51.55002,0.0</coordinates>
            </Point>
        </Placemark>
        <Placemark id="2305">
            <name>Lorenzo Zandri - Urban Narrative</name>
            <Point id="2304">
                <coordinates>-0.06096,51.55002,0.0</coordinates>
            </Point>
        </Placemark>
        <Placemark id="2307">
            <name>St Paul's Church, Winchmore Hill</name>
            <Point id="2306">
                <coordinates>-0.10593,51.63546,0.0</coordinates>
            </Point>
        </Placemark>
        <Placemark id="2309">
            <name>Walking tour of Chiswick House Gardens</name>
            <Point id="2308">
                <coordinates>-0.25869,51.4838,0.0</coordinates>
            </Point>
        </Placemark>
        <Placemark id="2311">
            <name>Royalty Studios - Building Tours by Architect</name>
            <Point id="2310">
                <coordinates>-0.21026,51.51657,0.0</coordinates>
            </Point>
        </Placemark>
        <Placemark id="2313">
            <name>2 Belgrave Road: Victorian house with Luis Barragán inspired interior</name>
            <Point id="2312">
                <coordinates>-0.02119,51.57916,0.0</coordinates>
            </Point>
        </Placemark>
        <Placemark id="2315">
            <name>From Peter Pan to the Time Machine: A Guided Walk</name>
            <Point id="2314">
                <coordinates>-0.17833,51.55666,0.0</coordinates>
            </Point>
        </Placemark>
        <Placemark id="2317">
            <name>String House - Camberwell</name>
            <Point id="2316">
                <coordinates>-0.08554,51.46614,0.0</coordinates>
            </Point>
        </Placemark>
        <Placemark id="2319">
            <name>Never mind the bollards, here's the walking tour</name>
            <Point id="2318">
                <coordinates>-0.06711,51.51054,0.0</coordinates>
            </Point>
        </Placemark>
        <Placemark id="2321">
            <name>Deptford Little Farm - Guided Vegetable Tour</name>
            <Point id="2320">
                <coordinates>-0.0422,51.48725,0.0</coordinates>
            </Point>
        </Placemark>
        <Placemark id="2323">
            <name>Artist Niamh Hannaford at One North Quay Canary Wharf</name>
            <Point id="2322">
                <coordinates>-0.02641,51.50562,0.0</coordinates>
            </Point>
        </Placemark>
        <Placemark id="2325">
            <name>Gongoozlers of Regent's Canal &amp; Victoria Park</name>
            <Point id="2324">
                <coordinates>-0.04929,51.53334,0.0</coordinates>
            </Point>
        </Placemark>
        <Placemark id="2327">
            <name>Green Lodge</name>
            <Point id="2326">
                <coordinates>-0.23711,51.45098,0.0</coordinates>
            </Point>
        </Placemark>
        <Placemark id="2329">
            <name>Former Carbonic Gas Works, 142 Lea Bridge Road</name>
            <Point id="2328">
                <coordinates>-0.04632,51.56146,0.0</coordinates>
            </Point>
        </Placemark>
        <Placemark id="2331">
            <name>Jubilee Hall Parsonage Lane</name>
            <Point id="2330">
                <coordinates>-0.08698,51.65944,0.0</coordinates>
            </Point>
        </Placemark>
        <Placemark id="2333">
            <name>St Olave Hart Street</name>
            <Point id="2332">
                <coordinates>-0.07946,51.51094,0.0</coordinates>
            </Point>
        </Placemark>
        <Placemark id="2335">
            <name>Feilden Fowles</name>
            <Point id="2334">
                <coordinates>-0.11633,51.49871,0.0</coordinates>
            </Point>
        </Placemark>
        <Placemark id="2337">
            <name>Exploring the Corbett Estate</name>
            <Point id="2336">
                <coordinates>-0.00431,51.44511,0.0</coordinates>
            </Point>
        </Placemark>
        <Placemark id="2339">
            <name>Southlands Arts Centre</name>
            <Point id="2338">
                <coordinates>-0.47577,51.50154,0.0</coordinates>
            </Point>
        </Placemark>
        <Placemark id="2341">
            <name>William Mitchell's Mural at Brooklands Primary School</name>
            <Point id="2340">
                <coordinates>0.01855,51.4639,0.0</coordinates>
            </Point>
        </Placemark>
        <Placemark id="2343">
            <name>The Ragged School SE1</name>
            <Point id="2342">
                <coordinates>-0.09399,51.5037,0.0</coordinates>
            </Point>
        </Placemark>
        <Placemark id="2345">
            <name>Ibraaz</name>
            <Point id="2344">
                <coordinates>-0.14195,51.51741,0.0</coordinates>
            </Point>
        </Placemark>
        <Placemark id="2347">
            <name>Classical Composers in London</name>
            <Point id="2346">
                <coordinates>-0.14585,51.51307,0.0</coordinates>
            </Point>
        </Placemark>
        <Placemark id="2349">
            <name>Ongéan</name>
            <Point id="2348">
                <coordinates>-0.10031,51.45032,0.0</coordinates>
            </Point>
        </Placemark>
    </Document>
</kml>
